<?xml version='1.0' encoding='utf-8'?>
<kml xmlns="http://www.opengis.net/kml/2.2">
  <Document>
    <Placemark>
      <name>AA2221-2025-01-27</name>
      <TimeStamp>
        <when>2025-01-27</when>
      </TimeStamp>
      <LineString>
        <altitudeMode>absolute</altitudeMode>
        <coordinates>
          -84.442039,33.642254,0
          -84.44117,33.642288,0
          -84.442009,33.642242,0
          -84.441261,33.642315,0
          -84.442017,33.642242,0
          -84.44133,33.642326,0
          -84.442017,33.642242,0
          -84.441422,33.642323,0
          -84.442024,33.642242,0
          -84.441437,33.642323,0
          -84.442024,33.642242,0
          -84.441422,33.642323,0
          -84.442032,33.642254,0
          -84.44149,33.642326,0
          -84.442024,33.642254,0
          -84.44149,33.642334,0
          -84.442017,33.642254,0
          -84.441521,33.642334,0
          -84.442024,33.642254,0
          -84.44162,33.642326,0
          -84.442039,33.642254,0
          -84.44162,33.642326,0
          -84.442039,33.642242,0
          -84.441635,33.642323,0
          -84.442024,33.642242,0
          -84.441689,33.642311,0
          -84.442024,33.642242,0
          -84.441689,33.642315,0
          -84.442017,33.642242,0
          -84.44162,33.642242,0
          -84.441406,33.642197,0
          -84.441185,33.642231,0
          -84.441139,33.641979,0
          -84.441147,33.641544,0
          -84.441139,33.641258,0
          -84.441147,33.640999,0
          -84.441132,33.640648,0
          -84.441139,33.640331,0
          -84.441139,33.639919,0
          -84.441139,33.639542,0
          -84.441139,33.63913,0
          -84.441147,33.638786,0
          -84.441147,33.638519,0
          -84.441147,33.638206,0
          -84.441147,33.637924,0
          -84.441139,33.637527,0
          -84.441139,33.637299,0
          -84.441132,33.637058,0
          -84.441063,33.636845,0
          -84.440857,33.636669,0
          -84.440643,33.636623,0
          -84.440178,33.636623,0
          -84.439903,33.636623,0
          -84.439674,33.636623,0
          -84.439117,33.636631,0
          -84.438911,33.636623,0
          -84.438316,33.636623,0
          -84.437668,33.636623,0
          -84.437096,33.636623,0
          -84.436516,33.636623,0
          -84.436043,33.636623,0
          -84.435341,33.6366,0
          -84.434753,33.636623,0
          -84.434235,33.636623,0
          -84.433746,33.636623,0
          -84.433533,33.636635,0
          -84.432999,33.636623,0
          -84.432289,33.636623,0
          -84.431763,33.636635,0
          -84.431236,33.636623,0
          -84.430603,33.636623,0
          -84.429947,33.636623,0
          -84.429077,33.636623,0
          -84.428421,33.636623,0
          -84.427818,33.636623,0
          -84.427483,33.636589,0
          -84.427246,33.636562,0
          -84.426483,33.636532,0
          -84.425781,33.636539,0
          -84.424995,33.636539,0
          -84.424622,33.636551,0
          -84.424408,33.636539,0
          -84.423943,33.636559,0
          -84.423607,33.636509,0
          -84.422867,33.636539,0
          -84.421951,33.636559,0
          -84.421638,33.636543,0
          -84.421173,33.636539,0
          -84.420189,33.636543,0
          -84.41996,33.636539,0
          -84.4189,33.636539,0
          -84.418159,33.636543,0
          -84.417404,33.636539,0
          -84.416771,33.636539,0
          -84.4161,33.636543,0
          -84.415184,33.636539,0
          -84.414421,33.636543,0
          -84.41404,33.636539,0
          -84.413086,33.636543,0
          -84.412506,33.636539,0
          -84.412071,33.636501,0
          -84.411705,33.636539,0
          -84.411041,33.636543,0
          -84.410675,33.636543,0
          -84.410233,33.63652,0
          -84.40979,33.636539,0
          -84.409393,33.636539,0
          -84.409042,33.636539,0
          -84.408783,33.636543,0
          -84.408409,33.636471,0
          -84.408218,33.63625,0
          -84.408264,33.636028,0
          -84.408279,33.635822,0
          -84.40799,33.635712,0
          -84.408279,33.635765,0
          -84.408279,33.635548,0
          -84.408279,33.635342,0
          -84.408279,33.635136,0
          -84.408272,33.634865,0
          -84.408432,33.634655,0
          -84.408646,33.634678,0
          -84.408867,33.634701,0
          -84.409569,33.634712,0
          -84.412025,33.634712,0
          -84.415581,33.634689,281.94
          -84.420204,33.634689,281.94
          -84.427353,33.634735,274.32
          -84.434303,33.634735,312.42
          -84.442635,33.634735,441.96
          -84.450241,33.634785,579.12
          -84.458084,33.63483,731.52
          -84.463577,33.634876,800.1
          -84.471527,33.63483,861.06
          -84.479828,33.634785,914.4
          -84.486206,33.634735,944.88
          -84.495049,33.634735,967.74
          -84.502426,33.634968,975.36
          -84.504608,33.63525,975.36
          -84.506897,33.635666,975.36
          -84.509583,33.636292,975.36
          -84.511879,33.637024,975.36
          -84.514275,33.637947,975.36
          -84.516533,33.639038,982.98
          -84.519081,33.640511,982.98
          -84.520966,33.641811,990.6
          -84.522865,33.64325,990.6
          -84.524803,33.64484,998.22
          -84.526848,33.646545,1013.46
          -84.529099,33.648422,1028.7
          -84.531212,33.650192,1043.94
          -84.533157,33.651821,1059.18
          -84.535103,33.653496,1074.42
          -84.537216,33.655289,1082.04
          -84.539566,33.657269,1097.28
          -84.541458,33.658852,1112.52
          -84.543396,33.660572,1135.38
          -84.545456,33.662338,1165.86
          -84.547462,33.664066,1203.96
          -84.549881,33.666138,1242.06
          -84.557816,33.672955,1386.84
          -84.565971,33.680008,1546.86
          -84.574379,33.688889,1699.26
          -84.575729,33.690971,1729.74
          -84.577011,33.6931,1760.22
          -84.578308,33.695721,1798.32
          -84.579254,33.697861,1828.8
          -84.580078,33.700188,1859.28
          -84.580765,33.70261,1882.14
          -84.581383,33.705368,1905
          -84.581741,33.70787,1927.86
          -84.58197,33.710293,1950.72
          -84.582115,33.71283,1973.58
          -84.582253,33.715458,1996.44
          -84.582283,33.71814,2019.3
          -84.582283,33.720657,2042.16
          -84.582306,33.723186,2065.02
          -84.582306,33.725838,2087.88
          -84.582306,33.728634,2103.12
          -84.582253,33.731796,2125.98
          -84.58223,33.733932,2141.22
          -84.582199,33.737198,2156.46
          -84.582199,33.739803,2171.7
          -84.582138,33.742367,2194.56
          -84.581566,33.761776,2362.2
          -84.580826,33.781052,2583.18
          -84.580261,33.797562,2750.82
          -84.579758,33.814453,2895.6
          -84.579926,33.833908,3017.52
          -84.581497,33.852722,3147.06
          -84.582001,33.855286,3162.3
          -84.582672,33.857986,3177.54
          -84.583511,33.861027,3192.78
          -84.584358,33.863617,3208.02
          -84.585197,33.86618,3223.26
          -84.586266,33.869385,3238.5
          -84.587158,33.871948,3253.74
          -84.588028,33.874435,3261.36
          -84.589005,33.877041,3276.6
          -84.590019,33.879822,3291.84
          -84.591003,33.88258,3307.08
          -84.59198,33.885235,3314.7
          -84.592987,33.887878,3329.94
          -84.600388,33.908157,3421.38
          -84.606331,33.925461,3497.58
          -84.61216,33.943222,3589.02
          -84.618439,33.963181,3672.84
          -84.633568,34.010971,3886.2
          -84.649826,34.060501,4183.38
          -84.665855,34.110397,4488.18
          -84.683136,34.162777,4754.88
          -84.699883,34.214127,4968.24
          -84.718323,34.268314,5189.22
          -84.740463,34.320282,5440.68
          -84.763168,34.374115,5615.94
          -84.786652,34.429825,5821.68
          -84.809799,34.484665,6103.62
          -84.833397,34.540009,6294.12
          -84.857086,34.595573,6477
          -84.880592,34.650925,6690.36
          -84.904472,34.707047,6888.48
          -84.928688,34.763855,7147.56
          -84.951897,34.818466,7421.88
          -84.975296,34.872841,7520.94
          -84.999596,34.929382,7612.38
          -85.024734,34.987965,7703.82
          -85.049538,35.045609,7863.84
          -85.078125,35.10141,8039.1
          -85.080139,35.104156,8046.72
          -85.082764,35.107464,8069.58
          -85.085564,35.110767,8084.82
          -85.088158,35.113724,8107.68
          -85.091003,35.116821,8130.54
          -85.094261,35.120171,8145.78
          -85.097015,35.122787,8161.02
          -85.10067,35.126129,8183.88
          -85.103348,35.128464,8191.5
          -85.107101,35.131577,8214.36
          -85.11013,35.133957,8221.98
          -85.113312,35.136372,8229.6
          -85.116638,35.138699,8237.22
          -85.119896,35.140888,8252.46
          -85.123024,35.142975,8260.08
          -85.12616,35.144989,8267.7
          -85.129684,35.147266,8275.32
          -85.133728,35.149841,8290.56
          -85.137749,35.152431,8298.18
          -85.141006,35.154526,8305.8
          -85.144272,35.15667,8313.42
          -85.147873,35.158997,8328.66
          -85.199196,35.192688,8481.06
          -85.251556,35.226871,8610.6
          -85.303284,35.260529,8763
          -85.355011,35.294083,8930.64
          -85.405907,35.326912,9083.04
          -85.456635,35.359497,9144
          -85.507996,35.392548,9144
          -85.558189,35.424858,9144
          -85.60936,35.457687,9144
          -85.660461,35.490372,9144
          -85.711182,35.52285,9144
          -85.763397,35.556244,9144
          -85.816254,35.590164,9144
          -85.868202,35.62331,9144
          -85.920624,35.656734,9144
          -85.972023,35.689407,9144
          -86.023361,35.721954,9136.38
          -86.075485,35.755005,9136.38
          -86.128006,35.788239,9144
          -86.179794,35.82106,9144
          -86.230637,35.853138,9144
          -86.282295,35.885632,9151.62
          -86.333252,35.91766,9144
          -86.384682,35.949871,9144
          -86.436371,35.98233,9144
          -86.488609,36.014694,9151.62
          -86.539131,36.046375,9144
          -86.5905,36.078545,9136.38
          -86.643677,36.109966,9136.38
          -86.700943,36.134777,9136.38
          -86.763298,36.152328,9144
          -86.828499,36.165115,9144
          -86.893272,36.177795,9151.62
          -86.953979,36.189663,9151.62
          -87.018555,36.202141,9144
          -87.083755,36.214783,9144
          -87.147964,36.227188,9144
          -87.20993,36.239136,9144
          -87.275681,36.251717,9144
          -87.338623,36.263866,9144
          -87.403908,36.276352,9144
          -87.469772,36.28894,9144
          -87.534737,36.30125,9151.62
          -87.60083,36.313725,9151.62
          -87.666382,36.326157,9144
          -87.732727,36.338535,9151.62
          -87.799133,36.350967,9144
          -87.864647,36.36319,9144
          -87.929428,36.375267,9144
          -87.99614,36.38768,9136.38
          -88.062027,36.399708,9144
          -88.127357,36.411671,9144
          -88.193779,36.423843,9144
          -88.26107,36.436066,9144
          -88.328148,36.448353,9144
          -88.394066,36.46032,9144
          -88.459793,36.472229,9144
          -88.526428,36.484154,9151.62
          -88.593513,36.496258,9151.62
          -88.658501,36.507801,9151.62
          -88.724327,36.519562,9144
          -88.789787,36.531189,9144
          -88.855316,36.542763,9136.38
          -88.922226,36.554726,9144
          -88.987915,36.566364,9144
          -89.054359,36.578003,9144
          -89.120804,36.589687,9136.38
          -89.187584,36.601456,9136.38
          -89.252586,36.612625,9144
          -89.319534,36.624252,9144
          -89.386345,36.635818,9151.62
          -89.451561,36.647087,9151.62
          -89.518822,36.658585,9151.62
          -89.58638,36.669991,9151.62
          -89.653114,36.681301,9144
          -89.716461,36.692101,9144
          -89.781677,36.703087,9136.38
          -89.849228,36.714447,9136.38
          -89.916,36.725555,9144
          -89.982704,36.736839,9144
          -90.04612,36.747253,9151.62
          -90.111862,36.758057,9151.62
          -90.180634,36.76947,9144
          -90.247543,36.780502,9136.38
          -90.31517,36.791565,9136.38
          -90.383316,36.802689,9144
          -90.449463,36.813446,9151.62
          -90.515732,36.824249,9151.62
          -90.579132,36.834503,9144
          -90.64653,36.845398,9144
          -90.714645,36.856197,9144
          -90.781166,36.866814,9144
          -90.847801,36.877518,9136.38
          -90.916466,36.888504,9144
          -90.985069,36.899353,9144
          -91.053108,36.909988,9144
          -91.12043,36.920425,9144
          -91.187164,36.930862,9144
          -91.252151,36.941162,9144
          -91.319313,36.951725,9144
          -91.385887,36.961918,9144
          -91.454849,36.972485,9144
          -91.521126,36.98254,9144
          -91.589508,36.992889,9144
          -91.657417,37.003235,9144
          -91.726898,37.013763,9136.38
          -91.795448,37.024063,9144
          -91.863235,37.034134,9144
          -91.933769,37.044617,9144
          -92.002678,37.055023,9144
          -92.066833,37.064575,9151.62
          -92.136139,37.074829,9144
          -92.206032,37.085037,9151.62
          -92.276558,37.095291,9144
          -92.343254,37.105114,9144
          -92.415558,37.115635,9144
          -92.485954,37.125782,9144
          -92.557129,37.136024,9144
          -92.626686,37.145939,9144
          -92.697906,37.156128,9144
          -92.766685,37.165329,9144
          -92.839439,37.168396,9144
          -92.912079,37.168259,9144
          -92.983322,37.168098,9144
          -93.054787,37.167847,9144
          -93.128769,37.167435,9144
          -93.201813,37.167114,9151.62
          -93.273689,37.166748,9151.62
          -93.346771,37.166374,9151.62
          -93.419914,37.165909,9144
          -93.494133,37.165306,9144
          -93.568222,37.164642,9144
          -93.640297,37.163956,9144
          -93.713257,37.163212,9144
          -93.786079,37.162445,9144
          -93.859901,37.161629,9144
          -93.931648,37.160797,9144
          -94.004456,37.159927,9144
          -94.077065,37.158974,9144
          -94.149849,37.158005,9144
          -94.22245,37.156971,9151.62
          -94.292427,37.155903,9151.62
          -94.365547,37.154755,9151.62
          -94.438713,37.153572,9151.62
          -94.510063,37.15242,9136.38
          -94.582176,37.15123,9136.38
          -94.652176,37.14999,9144
          -94.721786,37.148758,9144
          -94.791267,37.147522,9144
          -94.861572,37.146172,9144
          -94.931808,37.144821,9136.38
          -95.002304,37.143425,9144
          -95.072578,37.141888,9144
          -95.139214,37.140446,9144
          -95.209846,37.138863,9144
          -95.279518,37.137268,9144
          -95.349144,37.135559,9151.62
          -95.417511,37.134022,9144
          -95.487732,37.132347,9144
          -95.557411,37.130623,9144
          -95.628212,37.128799,9151.62
          -95.698219,37.126968,9144
          -95.764954,37.12513,9151.62
          -95.83625,37.123127,9144
          -95.90509,37.121155,9144
          -95.973518,37.119171,9144
          -96.040451,37.117168,9144
          -96.110268,37.115112,9144
          -96.175751,37.113121,9136.38
          -96.242386,37.111073,9144
          -96.31218,37.108883,9144
          -96.381325,37.106602,9144
          -96.447395,37.104355,9144
          -96.518867,37.101974,9144
          -96.587418,37.099731,9144
          -96.65789,37.097305,9151.62
          -96.726974,37.094872,9144
          -96.796387,37.092499,9144
          -96.863831,37.090122,9151.62
          -96.933136,37.087646,9151.62
          -97.000977,37.085083,9144
          -97.069351,37.082474,9144
          -97.138191,37.079819,9144
          -97.207382,37.077209,9144
          -97.275459,37.074528,9144
          -97.34388,37.071735,9144
          -97.413086,37.068943,9151.62
          -97.478706,37.066196,9151.62
          -97.54702,37.063293,9144
          -97.613823,37.060516,9144
          -97.681953,37.057629,9136.38
          -97.749657,37.054695,9136.38
          -97.817429,37.051624,9144
          -97.882805,37.048691,9144
          -97.950935,37.045574,9151.62
          -98.018051,37.042408,9144
          -98.085876,37.039307,9151.62
          -98.153023,37.036148,9144
          -98.222565,37.032898,9144
          -98.288948,37.029697,9144
          -98.354446,37.026485,9136.38
          -98.420784,37.023193,9136.38
          -98.489449,37.019714,9136.38
          -98.556198,37.016338,9144
          -98.623802,37.012894,9144
          -98.690544,37.009449,9144
          -98.758385,37.00589,9144
          -98.826172,37.002319,9144
          -98.892731,36.99884,9144
          -98.959938,36.99527,9144
          -99.027023,36.991699,9144
          -99.09259,36.988083,9144
          -99.160332,36.98431,9144
          -99.227287,36.98053,9144
          -99.295372,36.976685,9136.38
          -99.3619,36.972858,9144
          -99.430031,36.968948,9144
          -99.496277,36.965103,9144
          -99.561905,36.961212,9151.62
          -99.628922,36.957218,9144
          -99.697227,36.953072,9144
          -99.766434,36.948898,9144
          -99.834076,36.944786,9144
          -99.900902,36.940659,9151.62
          -99.968925,36.936447,9144
          -100.037865,36.932171,9144
          -100.106346,36.92775,9144
          -100.174973,36.923355,9136.38
          -100.239677,36.919182,9136.38
          -100.307686,36.914703,9144
          -100.372231,36.910477,9144
          -100.441132,36.905914,9144
          -100.509361,36.901291,9151.62
          -100.577614,36.896622,9151.62
          -100.641663,36.892319,9144
          -100.707581,36.887787,9144
          -100.775429,36.883072,9136.38
          -100.843086,36.878357,9136.38
          -100.909599,36.873703,9136.38
          -100.978806,36.868767,9144
          -101.045639,36.863983,9144
          -101.112083,36.859177,9144
          -101.178528,36.854336,9144
          -101.243134,36.849655,9144
          -101.308792,36.844791,9144
          -101.376915,36.839722,9151.62
          -101.443802,36.834732,9151.62
          -101.508179,36.829849,9151.62
          -101.576141,36.82468,9144
          -101.6427,36.81958,9144
          -101.710342,36.814316,9144
          -101.777344,36.809135,9144
          -101.844177,36.803925,9144
          -101.911514,36.798615,9144
          -101.977959,36.793354,9144
          -102.043587,36.788044,9144
          -102.105881,36.783066,9144
          -102.172615,36.777618,9144
          -102.239685,36.772156,9144
          -102.303055,36.766911,9144
          -102.367172,36.761627,9144
          -102.43325,36.756111,9144
          -102.495895,36.750805,9144
          -102.564445,36.745079,9144
          -102.631592,36.739353,9144
          -102.694412,36.733997,9144
          -102.759415,36.728394,9144
          -102.821747,36.722965,9144
          -102.88813,36.717148,9144
          -102.95414,36.711319,9144
          -103.01886,36.705696,9144
          -103.082489,36.700012,9144
          -103.146774,36.694244,9136.38
          -103.211861,36.688431,9136.38
          -103.280838,36.682186,9144
          -103.348801,36.675949,9151.62
          -103.415512,36.669846,9151.62
          -103.479477,36.66394,9151.62
          -103.549355,36.657467,9144
          -103.613434,36.651535,9144
          -103.680664,36.645218,9144
          -103.743729,36.639221,9144
          -103.807526,36.633179,9144
          -103.876534,36.626541,9144
          -103.942352,36.620224,9144
          -104.008858,36.613754,9144
          -104.078979,36.606865,9144
          -104.147232,36.600163,9144
          -104.217072,36.593319,9144
          -104.285492,36.586441,9144
          -104.350548,36.580032,9151.62
          -104.420181,36.573029,9151.62
          -104.488335,36.566132,9151.62
          -104.556122,36.559288,9144
          -104.624496,36.552258,9144
          -104.691925,36.545288,9136.38
          -104.759735,36.538284,9136.38
          -104.829941,36.531006,9144
          -104.899635,36.523682,9144
          -104.969559,36.516312,9144
          -105.035248,36.509399,9144
          -105.105034,36.502029,9144
          -105.172119,36.494858,9151.62
          -105.241356,36.487473,9151.62
          -105.308014,36.480194,9151.62
          -105.376625,36.472687,9144
          -105.445114,36.465225,9144
          -105.51001,36.45813,9144
          -105.573746,36.45108,9144
          -105.642838,36.44342,9136.38
          -105.711937,36.435654,9136.38
          -105.775253,36.428524,9136.38
          -105.84433,36.420795,9136.38
          -105.914284,36.412834,9144
          -105.977844,36.405624,9151.62
          -106.046875,36.397751,9159.24
          -106.115135,36.389839,9159.24
          -106.183273,36.382015,9151.62
          -106.250725,36.374268,9166.86
          -106.315865,36.366562,9288.78
          -106.380386,36.358932,9403.08
          -106.447411,36.350967,9578.34
          -106.516113,36.342819,9738.36
          -106.582146,36.335037,9753.6
          -106.650192,36.326992,9753.6
          -106.715698,36.31897,9753.6
          -106.783508,36.31073,9753.6
          -106.851799,36.302505,9753.6
          -106.919113,36.294296,9745.98
          -106.985565,36.286118,9738.36
          -107.05452,36.277695,9745.98
          -107.12307,36.269314,9753.6
          -107.188278,36.261154,9761.22
          -107.255257,36.252834,9761.22
          -107.321892,36.244308,9761.22
          -107.386978,36.236122,9753.6
          -107.454643,36.227509,9753.6
          -107.521263,36.21899,9753.6
          -107.588425,36.210388,9761.22
          -107.65583,36.201736,9761.22
          -107.723167,36.192966,9753.6
          -107.789268,36.184525,9753.6
          -107.856171,36.175697,9745.98
          -107.924019,36.166759,9745.98
          -107.991257,36.157883,9753.6
          -108.055389,36.149536,9753.6
          -108.123405,36.140503,9753.6
          -108.190727,36.131474,9753.6
          -108.258018,36.122498,9753.6
          -108.324738,36.113571,9753.6
          -108.392258,36.104462,9753.6
          -108.45903,36.095581,9753.6
          -108.527679,36.086086,9753.6
          -108.59565,36.076866,9753.6
          -108.665657,36.06723,9753.6
          -108.733635,36.060013,9753.6
          -108.757492,36.059647,9753.6
          -108.763161,36.059692,9753.6
          -108.76786,36.059784,9753.6
          -108.833374,36.060947,9745.98
          -108.906036,36.062027,9753.6
          -108.978081,36.063126,9753.6
          -109.047256,36.064018,9761.22
          -109.119247,36.065044,9761.22
          -109.19072,36.065975,9761.22
          -109.264526,36.066925,9669.78
          -109.33535,36.067741,9525
          -109.404778,36.068535,9364.98
          -109.477844,36.069397,9220.2
          -109.54599,36.070084,9144
          -109.615005,36.070724,9144
          -109.68721,36.071365,9144
          -109.760544,36.07198,9144
          -109.829636,36.072601,9144
          -109.903336,36.073151,9144
          -109.978119,36.073654,9144
          -110.054001,36.07402,9144
          -110.124146,36.074352,9151.62
          -110.19619,36.074661,9144
          -110.266914,36.074982,9144
          -110.338089,36.075283,9136.38
          -110.415405,36.075531,9136.38
          -110.485321,36.07576,9144
          -110.561714,36.075943,9144
          -110.634842,36.076035,9144
          -110.708427,36.076126,9151.62
          -110.78093,36.075981,9151.62
          -110.852509,36.075943,9151.62
          -110.92569,36.075943,9144
          -111.002312,36.075806,9136.38
          -111.074638,36.075577,9128.76
          -111.147018,36.075394,9136.38
          -111.218925,36.075005,9136.38
          -111.296356,36.074726,9136.38
          -111.372147,36.074398,9136.38
          -111.442337,36.073975,9136.38
          -111.518211,36.073517,9136.38
          -111.592636,36.073002,9136.38
          -111.668663,36.072536,9136.38
          -111.74025,36.070953,9136.38
          -111.817818,36.061981,9144
          -111.886597,36.046783,9144
          -111.960091,36.023937,9151.62
          -112.027824,36.002338,9159.24
          -112.100945,35.978851,9159.24
          -112.173218,35.955647,9159.24
          -112.244804,35.932602,9144
          -112.312416,35.910675,9144
          -112.385109,35.887119,9144
          -112.451324,35.865707,9144
          -112.524956,35.841732,9144
          -112.592636,35.819687,9144
          -112.663422,35.796524,9144
          -112.733398,35.773487,9144
          -112.803062,35.750767,9144
          -112.871132,35.728271,9144
          -112.944832,35.703781,9144
          -113.015366,35.680569,9144
          -113.084145,35.657944,9144
          -113.156143,35.633923,9144
          -113.227905,35.609993,9144
          -113.300339,35.585724,9144
          -113.371643,35.561783,9144
          -113.443909,35.537521,9144
          -113.514191,35.513863,9144
          -113.586441,35.489502,9144
          -113.658119,35.465218,9144
          -113.728981,35.441162,9144
          -113.797928,35.41777,9144
          -113.869781,35.393154,9144
          -113.938232,35.369888,9144
          -114.010559,35.345299,9144
          -114.081917,35.320858,9144
          -114.152565,35.296558,9144
          -114.223541,35.272064,9144
          -114.295807,35.247162,9144
          -114.365486,35.223083,9144
          -114.434799,35.199123,9136.38
          -114.502205,35.175751,9144
          -114.574455,35.150436,9144
          -114.645752,35.12558,9144
          -114.71489,35.101643,9144
          -114.781677,35.078293,9144
          -114.846153,35.055836,9144
          -114.91333,35.031445,9144
          -114.978905,35.003281,9144
          -115.043503,34.975388,9144
          -115.104317,34.949112,9144
          -115.162811,34.92358,9144
          -115.221863,34.897934,9144
          -115.282059,34.871582,9144
          -115.340591,34.846073,9144
          -115.398651,34.820618,9144
          -115.456497,34.795395,9144
          -115.516983,34.772873,9144
          -115.578232,34.750362,9144
          -115.63884,34.727921,9144
          -115.696449,34.70665,9144
          -115.752739,34.685806,9144
          -115.81176,34.663971,9144
          -115.872299,34.641541,9144
          -115.933899,34.618652,9144
          -115.997574,34.595215,9144
          -116.065811,34.570065,9144
          -116.13401,34.544769,9144
          -116.203247,34.519043,9144
          -116.272316,34.493393,9144
          -116.340698,34.46793,9128.76
          -116.408096,34.442978,8983.98
          -116.474991,34.417839,8801.1
          -116.541481,34.390419,8450.58
          -116.602997,34.365047,8214.36
          -116.669594,34.337814,8016.24
          -116.734779,34.31131,7650.48
          -116.800926,34.284714,7231.38
          -116.866508,34.258347,6858
          -116.932533,34.231522,6545.58
          -116.993179,34.208588,6225.54
          -117.061447,34.190105,5829.3
          -117.127701,34.172089,5440.68
          -117.19413,34.153931,5105.4
          -117.257828,34.136337,4785.36
          -117.322372,34.118649,4495.8
          -117.38623,34.10091,4175.76
          -117.44986,34.085129,3947.16
          -117.50769,34.069748,3893.82
          -117.558861,34.051334,3741.42
          -117.610771,34.032761,3482.34
          -117.630836,34.02562,3398.52
          -117.654938,34.01693,3276.6
          -117.678162,34.009155,3154.68
          -117.688461,34.006989,3101.34
          -117.692413,34.006409,3078.48
          -117.696136,34.005943,3055.62
          -117.69928,34.005615,3040.38
          -117.702866,34.005249,3025.14
          -117.706451,34.004883,3009.9
          -117.709984,34.004562,2994.66
          -117.713234,34.004242,2979.42
          -117.716599,34.003922,2964.18
          -117.720863,34.00351,2941.32
          -117.724052,34.003189,2926.08
          -117.728233,34.002827,2903.22
          -117.731682,34.002502,2887.98
          -117.756104,34.00008,2788.92
          -117.779961,33.997704,2674.62
          -117.800903,33.995564,2598.42
          -117.821274,33.993561,2522.22
          -117.845139,33.991188,2430.78
          -117.868614,33.988861,2331.72
          -117.889015,33.986893,2286
          -117.908646,33.984901,2247.9
          -117.927582,33.983002,2186.94
          -117.946129,33.981133,2133.6
          -117.967072,33.97913,2057.4
          -117.987785,33.977127,1958.34
          -118.007736,33.975174,1866.9
          -118.027039,33.973217,1783.08
          -118.044037,33.971542,1737.36
          -118.062332,33.969772,1653.54
          -118.079765,33.968033,1577.34
          -118.096695,33.966293,1485.9
          -118.10762,33.965195,1417.32
          -118.116875,33.964233,1356.36
          -118.127129,33.963226,1295.4
          -118.137947,33.962128,1234.44
          -118.145966,33.961349,1196.34
          -118.156052,33.960342,1173.48
          -118.16568,33.959347,1143
          -118.172897,33.958649,1104.9
          -118.182281,33.957623,1051.56
          -118.191139,33.956772,982.98
          -118.199997,33.955902,929.64
          -118.208656,33.955063,876.3
          -118.217636,33.954178,830.58
          -118.223763,33.953526,800.1
          -118.232506,33.952652,746.76
          -118.240929,33.951805,685.8
          -118.247681,33.951107,632.46
          -118.256447,33.950272,579.12
          -118.264557,33.949429,541.02
          -118.271187,33.948761,510.54
          -118.279556,33.947895,487.68
          -118.286598,33.947159,449.58
          -118.292542,33.946564,434.34
          -118.299156,33.945831,403.86
          -118.305321,33.94519,381
          -118.311653,33.944595,350.52
          -118.317711,33.944,320.04
          -118.32373,33.943424,281.94
          -118.330078,33.942726,243.84
          -118.335983,33.942123,220.98
          -118.340637,33.941666,198.12
          -118.347023,33.941025,160.02
          -118.353195,33.940445,137.16
          -118.359604,33.939793,106.68
          -118.364243,33.939236,83.82
          -118.370247,33.938629,53.34
          -118.376678,33.938004,30.48
          -118.383011,33.937363,0
          -118.387756,33.936859,0
          -118.393661,33.936264,0
          -118.397934,33.935818,0
          -118.400185,33.935593,0
          -118.40197,33.935406,0
          -118.402794,33.935349,0
          -118.403374,33.935349,0
          -118.403824,33.93536,0
          -118.40419,33.935383,0
          -118.404549,33.935429,0
          -118.404846,33.935486,0
          -118.405182,33.935558,0
          -118.405502,33.935646,0
          -118.405724,33.935726,0
          -118.406006,33.935825,0
          -118.406364,33.935928,0
          -118.406799,33.935963,0
          -118.407082,33.935963,0
          -118.407356,33.93594,0
          -118.407608,33.935905,0
          -118.407867,33.935886,0
          -118.408119,33.935863,0
          -118.408554,33.935944,0
          -118.408798,33.936115,0
          -118.408913,33.936371,0
          -118.408974,33.936619,0
          -118.408989,33.936836,0
          -118.409019,33.937042,0
          -118.409073,33.937279,0
          -118.409088,33.9375,0
          -118.409012,33.937721,0
          -118.408768,33.937878,0
          -118.408516,33.93792,0
          -118.408302,33.937935,0
          -118.408058,33.937965,0
          -118.407837,33.937988,0
          -118.4076,33.938011,0
          -118.407364,33.938038,0
          -118.406944,33.938072,0
          -118.40657,33.938118,0
          -118.406364,33.938141,0
          -118.406143,33.938164,0
          -118.405937,33.938187,0
          -118.405563,33.938221,0
          -118.405334,33.938328,0
          -118.405281,33.938576,0
          -118.405319,33.938805,0
          -118.405334,33.939022,0
          -118.40554,33.939228,0
          -118.405754,33.939411,0
          -118.405998,33.939644,0
          -118.405357,33.939701,0
          -118.406067,33.939701,0
          -118.405655,33.939468,0
          -118.406052,33.939701,0
          -118.40567,33.939468,0
          -118.406052,33.939701,0
        </coordinates>
      </LineString>
    </Placemark>
  </Document>
</kml>
