<?xml version='1.0' encoding='utf-8'?>
<kml xmlns="http://www.opengis.net/kml/2.2">
  <Document>
    <Placemark>
      <name>AC104-2025-02-16</name>
      <TimeStamp>
        <when>2025-02-16</when>
      </TimeStamp>
      <LineString>
        <altitudeMode>absolute</altitudeMode>
        <coordinates>
          -123.181313,49.195427,0
          -123.181351,49.195644,0
          -123.181366,49.195869,0
          -123.181442,49.196182,0
          -123.181595,49.1964,0
          -123.181618,49.196606,0
          -123.181847,49.196594,0
          -123.182053,49.196648,0
          -123.182327,49.196732,0
          -123.182533,49.196777,0
          -123.182739,49.1968,0
          -123.182953,49.196823,0
          -123.183189,49.196857,0
          -123.183479,49.196903,0
          -123.184593,49.197029,0
          -123.185143,49.19709,0
          -123.185432,49.197163,0
          -123.185791,49.197304,0
          -123.186371,49.197441,0
          -123.186592,49.197464,0
          -123.186806,49.197498,0
          -123.187019,49.197521,0
          -123.187233,49.197544,0
          -123.187477,49.197567,0
          -123.187782,49.197605,0
          -123.18808,49.197636,0
          -123.18885,49.197727,0
          -123.189789,49.19783,0
          -123.190315,49.197899,0
          -123.190659,49.197918,0
          -123.190933,49.197865,0
          -123.191162,49.197731,0
          -123.191338,49.197475,0
          -123.191406,49.197235,0
          -123.191467,49.19701,0
          -123.191521,49.1968,0
          -123.191582,49.196594,0
          -123.19165,49.19632,0
          -123.191742,49.195976,0
          -123.191811,49.195724,0
          -123.191971,49.195091,0
          -123.192146,49.194443,0
          -123.192284,49.193928,0
          -123.192406,49.193562,0
          -123.192635,49.193378,0
          -123.192894,49.193287,0
          -123.193184,49.193241,0
          -123.193405,49.193203,0
          -123.193626,49.193184,0
          -123.193909,49.193138,0
          -123.194252,49.1931,0
          -123.194595,49.193054,0
          -123.194809,49.193031,0
          -123.195137,49.192989,0
          -123.195419,49.192955,0
          -123.195717,49.192921,0
          -123.196548,49.19281,0
          -123.197411,49.192715,0
          -123.198486,49.192577,0
          -123.199577,49.19244,0
          -123.200821,49.19228,0
          -123.201843,49.192158,0
          -123.202675,49.192051,0
          -123.203392,49.191948,0
          -123.204208,49.191868,0
          -123.204819,49.191799,0
          -123.205124,49.191811,0
          -123.20536,49.19183,0
          -123.205627,49.191856,0
          -123.205849,49.191879,0
          -123.206108,49.191914,0
          -123.20639,49.191936,0
          -123.206619,49.191971,0
          -123.206879,49.192005,0
          -123.207222,49.192039,0
          -123.207428,49.192051,0
          -123.207657,49.192017,0
          -123.207886,49.191936,0
          -123.208099,49.191788,0
          -123.208275,49.191517,0
          -123.208344,49.191238,0
          -123.20842,49.190983,0
          -123.208481,49.190758,0
          -123.208481,49.190552,0
          -123.208344,49.190331,0
          -123.208061,49.190151,0
          -123.207794,49.190094,0
          -123.207512,49.190083,0
          -123.207115,49.190041,0
          -123.205849,49.189888,0
          -123.202705,49.189545,0
          -123.200035,49.189236,0
          -123.199348,49.189133,0
          -123.198639,49.189087,0
          -123.197517,49.18895,0
          -123.19635,49.188816,7.62
          -123.194107,49.188538,7.62
          -123.192375,49.188351,7.62
          -123.190201,49.188118,7.62
          -123.188255,49.187885,7.62
          -123.185898,49.187622,7.62
          -123.183357,49.187302,7.62
          -123.181023,49.187046,7.62
          -123.178215,49.186707,15.24
          -123.175896,49.186478,22.86
          -123.173721,49.186211,45.72
          -123.163284,49.185013,129.54
          -123.15609,49.184162,198.12
          -123.145538,49.182907,320.04
          -123.138092,49.181927,403.86
          -123.127968,49.180672,480.06
          -123.11908,49.179554,525.78
          -123.107803,49.178249,563.88
          -123.099274,49.177319,586.74
          -123.088219,49.176109,632.46
          -123.077522,49.174992,670.56
          -123.063568,49.173615,754.38
          -123.050819,49.17247,853.44
          -123.03907,49.171547,944.88
          -123.027359,49.170662,1043.94
          -123.011673,49.16959,1173.48
          -122.998421,49.168808,1280.16
          -122.982475,49.167728,1394.46
          -122.97039,49.166794,1485.9
          -122.954193,49.165421,1577.34
          -122.929688,49.163223,1729.74
          -122.904549,49.16098,1874.52
          -122.878899,49.158836,2026.92
          -122.852882,49.156696,2186.94
          -122.825104,49.154526,2369.82
          -122.797005,49.152145,2567.94
          -122.769684,49.149765,2758.44
          -122.740776,49.147106,2941.32
          -122.713097,49.144592,3108.96
          -122.686058,49.142124,3192.78
          -122.651871,49.139008,3268.98
          -122.61631,49.136166,3345.18
          -122.58429,49.133839,3413.76
          -122.552704,49.131638,3520.44
          -122.519814,49.129349,3657.6
          -122.4384,49.123352,4046.22
          -122.356468,49.117313,4427.22
          -122.272972,49.110535,4785.36
          -122.186836,49.103859,5120.64
          -122.101349,49.097214,5433.06
          -122.012207,49.090126,5722.62
          -121.925285,49.083252,5989.32
          -121.830772,49.075653,6225.54
          -121.739151,49.068192,6477
          -121.64534,49.060593,6736.08
          -121.552376,49.052883,6987.54
          -121.455376,49.044693,7223.76
          -121.357147,49.036404,7467.6
          -121.258415,49.028027,7680.96
          -121.156097,49.019257,7894.32
          -121.05307,49.010334,8122.92
          -120.946899,49.000931,8321.04
          -120.842003,48.991608,8526.78
          -120.734535,48.981949,8732.52
          -120.624252,48.971832,8938.26
          -120.517632,48.962013,9128.76
          -120.402412,48.951279,9334.5
          -120.289658,48.940704,9540.24
          -120.174232,48.92981,9829.8
          -120.059029,48.919373,10066.02
          -119.940277,48.911133,10363.2
          -119.826294,48.904011,10675.62
          -119.716187,48.897171,10904.22
          -119.604683,48.890045,11079.48
          -119.493149,48.882751,11254.74
          -119.383949,48.875473,11269.98
          -119.272278,48.868118,11277.6
          -119.160324,48.860596,11277.6
          -119.051651,48.85318,11269.98
          -118.939537,48.845398,11269.98
          -118.82914,48.837532,11277.6
          -118.71418,48.829285,11277.6
          -118.59713,48.820862,11277.6
          -118.484444,48.812534,11300.46
          -118.370712,48.80397,11414.76
          -118.25972,48.795593,11506.2
          -118.142677,48.786667,11673.84
          -118.023087,48.777481,11818.62
          -117.906715,48.768265,11871.96
          -117.782692,48.758347,11887.2
          -117.661476,48.748619,11879.58
          -117.543373,48.738983,11887.2
          -117.427505,48.729309,11887.2
          -117.311165,48.719513,11887.2
          -117.193207,48.709442,11887.2
          -117.080879,48.699783,11879.58
          -116.96489,48.689621,11887.2
          -116.846504,48.67923,11887.2
          -116.729668,48.668827,11887.2
          -116.608887,48.657944,11887.2
          -116.490784,48.647095,11887.2
          -116.374489,48.636288,11879.58
          -116.256165,48.625256,11879.58
          -116.141754,48.614456,11887.2
          -116.021896,48.603012,11887.2
          -115.907242,48.591888,11887.2
          -115.788223,48.580215,11879.58
          -115.671455,48.568634,11879.58
          -115.553215,48.556915,11887.2
          -115.440575,48.545559,11879.58
          -115.318489,48.533157,11887.2
          -115.202202,48.52121,11879.58
          -115.083687,48.508804,11887.2
          -114.965271,48.497005,11879.58
          -114.849121,48.487553,11879.58
          -114.737816,48.479034,11887.2
          -114.620003,48.469864,11879.58
          -114.503738,48.460648,11879.58
          -114.384087,48.450916,11887.2
          -114.266266,48.441048,11879.58
          -114.151047,48.431259,11879.58
          -114.034424,48.42128,11879.58
          -113.924248,48.411629,11879.58
          -113.805473,48.401184,11887.2
          -113.692085,48.391068,11879.58
          -113.5755,48.380623,11879.58
          -113.459686,48.370148,11887.2
          -113.347,48.359711,11879.58
          -113.237213,48.349594,11887.2
          -113.122978,48.338928,11887.2
          -113.007614,48.328018,11887.2
          -112.889946,48.316681,11879.58
          -112.773956,48.305374,11887.2
          -112.657257,48.293976,11879.58
          -112.546692,48.283051,11879.58
          -112.426346,48.270992,11879.58
          -112.312248,48.259552,11879.58
          -112.196434,48.247669,11879.58
          -112.0821,48.23584,11887.2
          -111.968361,48.22403,11879.58
          -111.854485,48.212009,11879.58
          -111.739334,48.199814,11879.58
          -111.623344,48.187317,11887.2
          -111.50769,48.174816,11879.58
          -111.393776,48.162338,11879.58
          -111.277634,48.14949,11887.2
          -111.164032,48.136829,11887.2
          -111.0429,48.123096,11887.2
          -110.930054,48.110275,11887.2
          -110.811333,48.096634,11887.2
          -110.698448,48.083542,11887.2
          -110.580139,48.069656,11887.2
          -110.465347,48.056156,11879.58
          -110.350182,48.042435,11887.2
          -110.233315,48.028427,11879.58
          -110.116859,48.014328,11887.2
          -109.998962,47.999908,11879.58
          -109.886734,47.986,11887.2
          -109.770859,47.971527,11887.2
          -109.652275,47.956604,11887.2
          -109.531364,47.941265,11879.58
          -109.417648,47.926666,11887.2
          -109.300438,47.911514,11887.2
          -109.180206,47.895767,11879.58
          -109.070412,47.881302,11887.2
          -108.952446,47.865738,11879.58
          -108.83754,47.850346,11887.2
          -108.723656,47.835068,11879.58
          -108.6026,47.8186,11887.2
          -108.489212,47.803051,11887.2
          -108.373672,47.78714,11879.58
          -108.257515,47.771023,11887.2
          -108.145088,47.75528,11887.2
          -108.031593,47.739273,11887.2
          -107.917397,47.723053,11887.2
          -107.799156,47.70607,11887.2
          -107.682289,47.689224,11887.2
          -107.568237,47.67247,11887.2
          -107.449654,47.655075,11887.2
          -107.332306,47.637772,11887.2
          -107.216949,47.62056,11879.58
          -107.101524,47.603302,11887.2
          -106.986099,47.585815,11887.2
          -106.871498,47.568375,11887.2
          -106.755066,47.550503,11887.2
          -106.63797,47.53244,11887.2
          -106.527168,47.515125,11879.58
          -106.409866,47.496689,11887.2
          -106.296455,47.478859,11879.58
          -106.181076,47.460571,11879.58
          -106.068001,47.442551,11887.2
          -105.952499,47.423882,11879.58
          -105.840843,47.405777,11887.2
          -105.722946,47.386459,11887.2
          -105.607628,47.367462,11887.2
          -105.496765,47.349152,11887.2
          -105.381134,47.329926,11887.2
          -105.269447,47.311131,11887.2
          -105.1577,47.292297,11879.58
          -105.04113,47.272541,11887.2
          -104.922112,47.252014,11879.58
          -104.810982,47.23288,11887.2
          -104.695343,47.21286,11887.2
          -104.577278,47.192184,11887.2
          -104.462746,47.172089,11879.58
          -104.351593,47.15239,11887.2
          -104.236084,47.131943,11887.2
          -104.119125,47.110867,11879.58
          -104.002762,47.089966,11879.58
          -103.885689,47.068726,11887.2
          -103.769852,47.047577,11887.2
          -103.65065,47.02565,11879.58
          -103.53537,47.004353,11887.2
          -103.423851,46.983536,11879.58
          -103.308525,46.96199,11887.2
          -103.19268,46.940109,11887.2
          -103.078468,46.918533,11879.58
          -102.9645,46.896816,11887.2
          -102.842598,46.873447,11887.2
          -102.722839,46.853394,11887.2
          -102.605438,46.836998,11887.2
          -102.489647,46.820984,11887.2
          -102.371567,46.804413,11879.58
          -102.252365,46.787651,11879.58
          -102.139893,46.771729,11879.58
          -102.028793,46.755856,11887.2
          -101.906502,46.738262,11879.58
          -101.792244,46.721642,11887.2
          -101.677399,46.704849,11879.58
          -101.558151,46.687317,11887.2
          -101.444458,46.670341,11879.58
          -101.324425,46.652435,11887.2
          -101.211273,46.63538,11879.58
          -101.095093,46.617691,11887.2
          -100.979027,46.599976,11887.2
          -100.864792,46.582405,11887.2
          -100.752251,46.564945,11879.58
          -100.640602,46.547489,11879.58
          -100.527245,46.529617,11887.2
          -100.413116,46.511551,11887.2
          -100.299545,46.493362,11879.58
          -100.182747,46.47459,11879.58
          -100.067116,46.456013,11879.58
          -99.954147,46.437561,11887.2
          -99.840729,46.419006,11879.58
          -99.726585,46.400253,11887.2
          -99.61235,46.381207,11879.58
          -99.497543,46.361893,11887.2
          -99.384804,46.342941,11879.58
          -99.268242,46.32312,11887.2
          -99.148529,46.302612,11887.2
          -99.027214,46.28183,11879.58
          -98.912178,46.262077,11887.2
          -98.797096,46.242062,11887.2
          -98.683456,46.222088,11887.2
          -98.571014,46.202271,11887.2
          -98.455833,46.18187,11879.58
          -98.344986,46.162033,11879.58
          -98.232468,46.141788,11887.2
          -98.111595,46.119827,11879.58
          -97.993446,46.098259,11887.2
          -97.876717,46.076939,11887.2
          -97.761017,46.055573,11887.2
          -97.645348,46.034088,11887.2
          -97.531464,46.012894,11879.58
          -97.415222,45.991051,11887.2
          -97.301956,45.969635,11879.58
          -97.188286,45.94799,11879.58
          -97.074127,45.926193,11887.2
          -96.959702,45.904175,11887.2
          -96.846268,45.88221,11879.58
          -96.732208,45.859955,11879.58
          -96.617119,45.837341,11879.58
          -96.505142,45.815315,11887.2
          -96.394241,45.793304,11887.2
          -96.274773,45.769508,11879.58
          -96.159576,45.746384,11879.58
          -96.048645,45.723999,11887.2
          -95.940308,45.702053,11887.2
          -95.819672,45.677444,11887.2
          -95.709663,45.65485,11879.58
          -95.595955,45.63139,11879.58
          -95.482384,45.607834,11887.2
          -95.368401,45.584045,11887.2
          -95.254074,45.559982,11879.58
          -95.143501,45.536636,11879.58
          -95.031151,45.512741,11887.2
          -94.922211,45.489544,11887.2
          -94.807587,45.465012,11887.2
          -94.695312,45.440804,11887.2
          -94.590782,45.418121,11887.2
          -94.476326,45.393227,11879.58
          -94.36499,45.368786,11887.2
          -94.257874,45.345184,11879.58
          -94.147865,45.320801,11887.2
          -94.040489,45.296955,11887.2
          -93.928284,45.271866,11879.58
          -93.820961,45.247704,11879.58
          -93.713242,45.223358,11879.58
          -93.608208,45.199478,11887.2
          -93.493988,45.173359,11879.58
          -93.383659,45.149139,11887.2
          -93.274452,45.128357,11887.2
          -93.164932,45.109165,11887.2
          -93.055771,45.089767,11887.2
          -92.946426,45.070267,11887.2
          -92.839439,45.051086,11887.2
          -92.727615,45.030899,11879.58
          -92.62011,45.011444,11879.58
          -92.510513,44.991386,11887.2
          -92.400383,44.971115,11887.2
          -92.289276,44.950562,11887.2
          -92.182465,44.930729,11879.58
          -92.073601,44.910416,11887.2
          -91.965378,44.890045,11879.58
          -91.850937,44.868484,11887.2
          -91.744537,44.848297,11879.58
          -91.636963,44.827652,11887.2
          -91.528671,44.806641,11887.2
          -91.418175,44.785255,11879.58
          -91.310188,44.764252,11887.2
          -91.202347,44.74324,11887.2
          -91.092484,44.721634,11879.58
          -90.979225,44.699203,11887.2
          -90.864059,44.676315,11879.58
          -90.759262,44.655327,11887.2
          -90.651138,44.633514,11879.58
          -90.544281,44.611954,11879.58
          -90.43148,44.589035,11887.2
          -90.325859,44.567368,11879.58
          -90.213707,44.54425,11887.2
          -90.110191,44.522873,11887.2
          -89.996468,44.500992,11887.2
          -89.887123,44.483734,11887.2
          -89.777199,44.46785,11887.2
          -89.66391,44.451241,11887.2
          -89.55378,44.434948,11879.58
          -89.4412,44.418137,11887.2
          -89.331795,44.401657,11887.2
          -89.223961,44.385361,11879.58
          -89.112007,44.368378,11879.58
          -89.003998,44.351948,11879.58
          -88.897705,44.335602,11887.2
          -88.79052,44.318985,11879.58
          -88.680573,44.301857,11887.2
          -88.568314,44.284241,11879.58
          -88.461388,44.267395,11887.2
          -88.353882,44.250275,11879.58
          -88.248283,44.233379,11879.58
          -88.142067,44.216263,11887.2
          -88.032043,44.198463,11887.2
          -87.92186,44.18042,11879.58
          -87.816727,44.163132,11887.2
          -87.712425,44.145905,11887.2
          -87.606941,44.128403,11887.2
          -87.499138,44.110291,11887.2
          -87.395523,44.092838,11879.58
          -87.290016,44.075043,11879.58
          -87.182838,44.056824,11887.2
          -87.073128,44.038044,11887.2
          -86.962349,44.018864,11879.58
          -86.853569,44.000015,11887.2
          -86.748703,43.981716,11887.2
          -86.645439,43.963562,11879.58
          -86.544159,43.945587,11887.2
          -86.443108,43.927578,11879.58
          -86.332855,43.907837,11887.2
          -86.231033,43.889542,11879.58
          -86.129364,43.871246,11887.2
          -86.020142,43.851471,11879.58
          -85.91494,43.832245,11887.2
          -85.81218,43.813335,11879.58
          -85.711998,43.794857,11879.58
          -85.606644,43.775257,11887.2
          -85.50666,43.756588,11879.58
          -85.39756,43.736023,11879.58
          -85.294975,43.716614,11887.2
          -85.186028,43.695885,11879.58
          -85.07682,43.67503,11879.58
          -84.975159,43.655548,11887.2
          -84.86644,43.634483,11887.2
          -84.760353,43.613937,11887.2
          -84.657112,43.59375,11887.2
          -84.556664,43.571312,11887.2
          -84.460602,43.544964,11887.2
          -84.356926,43.517944,11887.2
          -84.321831,43.512005,11887.2
          -84.314194,43.510941,11887.2
          -84.305573,43.509842,11887.2
          -84.298927,43.509064,11887.2
          -84.291885,43.508282,11887.2
          -84.28521,43.507629,11879.58
          -84.278809,43.50705,11879.58
          -84.270058,43.506317,11887.2
          -84.253899,43.50531,11887.2
          -84.246758,43.504974,11887.2
          -84.238312,43.504623,11887.2
          -84.230835,43.50444,11879.58
          -84.224396,43.504322,11879.58
          -84.216942,43.50423,11887.2
          -84.108643,43.503204,11887.2
          -83.999168,43.501877,11887.2
          -83.888786,43.500553,11887.2
          -83.781937,43.499203,11879.58
          -83.672462,43.497711,11887.2
          -83.567825,43.496109,11887.2
          -83.457321,43.494415,11887.2
          -83.350204,43.492722,11887.2
          -83.245514,43.490891,11887.2
          -83.138275,43.488968,11811
          -83.028976,43.486912,11468.1
          -82.920204,43.484711,11094.72
          -82.809776,43.482349,10782.3
          -82.707497,43.480209,10523.22
          -82.604607,43.477798,10264.14
          -82.502419,43.475182,10005.06
          -82.401321,43.472855,9738.36
          -82.30574,43.470612,9494.52
          -82.210434,43.46978,9174.48
          -82.115547,43.46978,8854.44
          -82.024384,43.469967,8519.16
          -81.940186,43.4702,8229.6
          -81.859718,43.4702,7962.9
          -81.778633,43.469875,7680.96
          -81.698616,43.469467,7406.64
          -81.616219,43.469101,7117.08
          -81.535286,43.468597,6842.76
          -81.454552,43.468369,6568.44
          -81.378738,43.46806,6309.36
          -81.304771,43.467865,6050.28
          -81.229904,43.467316,5791.2
          -81.15947,43.466618,5547.36
          -81.088234,43.46402,5417.82
          -81.083679,43.463169,5410.2
          -81.079674,43.462234,5402.58
          -81.074692,43.460907,5387.34
          -81.069687,43.459309,5379.72
          -81.065758,43.457863,5379.72
          -81.062363,43.456467,5372.1
          -81.057381,43.454132,5364.48
          -81.053337,43.452,5349.24
          -81.049461,43.449692,5334
          -81.046272,43.447586,5326.38
          -81.043068,43.445248,5311.14
          -81.040192,43.442921,5295.9
          -81.036919,43.440083,5280.66
          -81.033684,43.437012,5265.42
          -81.031036,43.434448,5250.18
          -81.028549,43.431934,5234.94
          -81.026215,43.42955,5219.7
          -81.022896,43.42598,5204.46
          -81.020271,43.423187,5181.6
          -81.017715,43.420349,5166.36
          -81.014816,43.41713,5143.5
          -81.012611,43.414719,5135.88
          -81.010178,43.41201,5120.64
          -81.007362,43.408939,5097.78
          -80.9702,43.368073,4846.32
          -80.933205,43.327377,4617.72
          -80.897697,43.287342,4419.6
          -80.862762,43.247589,4206.24
          -80.846092,43.230515,4145.28
          -80.842644,43.227951,4137.66
          -80.839256,43.225754,4137.66
          -80.835678,43.223694,4137.66
          -80.832169,43.221844,4130.04
          -80.828636,43.220261,4130.04
          -80.823868,43.218353,4130.04
          -80.819351,43.216816,4130.04
          -80.814537,43.215454,4130.04
          -80.810577,43.214493,4130.04
          -80.806107,43.213623,4130.04
          -80.802017,43.213028,4130.04
          -80.796654,43.212433,4130.04
          -80.793129,43.212208,4130.04
          -80.788162,43.212116,4130.04
          -80.782982,43.212204,4130.04
          -80.777435,43.212627,4130.04
          -80.772316,43.213303,4130.04
          -80.767693,43.214069,4130.04
          -80.762589,43.215233,4130.04
          -80.757812,43.216599,4130.04
          -80.753563,43.218025,4130.04
          -80.749062,43.219757,4130.04
          -80.744736,43.221752,4130.04
          -80.740486,43.223984,4130.04
          -80.737183,43.225891,4122.42
          -80.734116,43.227768,4122.42
          -80.730537,43.230057,4107.18
          -80.727539,43.231979,4099.56
          -80.72364,43.234497,4076.7
          -80.719887,43.236881,4061.46
          -80.716805,43.238892,4046.22
          -80.7117,43.242188,4015.74
          -80.7089,43.244003,4000.5
          -80.705566,43.246143,3985.26
          -80.658745,43.276749,3756.66
          -80.612373,43.30687,3550.92
          -80.592384,43.319733,3520.44
          -80.572556,43.332546,3520.44
          -80.551437,43.346146,3520.44
          -80.529274,43.360382,3520.44
          -80.508469,43.373791,3520.44
          -80.487801,43.387058,3520.44
          -80.467201,43.40028,3520.44
          -80.447006,43.413208,3520.44
          -80.428093,43.425369,3520.44
          -80.409004,43.437569,3520.44
          -80.388466,43.449436,3520.44
          -80.374016,43.456188,3520.44
          -80.370552,43.45763,3520.44
          -80.367081,43.459076,3520.44
          -80.362694,43.46077,3520.44
          -80.35891,43.462147,3520.44
          -80.355156,43.463516,3520.44
          -80.351128,43.464844,3520.44
          -80.346725,43.466263,3520.44
          -80.342697,43.467499,3520.44
          -80.338928,43.468597,3520.44
          -80.335037,43.469643,3520.44
          -80.330917,43.47076,3520.44
          -80.327301,43.471756,3520.44
          -80.323723,43.472713,3520.44
          -80.318886,43.474018,3520.44
          -80.291878,43.48156,3520.44
          -80.26683,43.48859,3520.44
          -80.241653,43.495617,3520.44
          -80.217827,43.502243,3520.44
          -80.19326,43.509117,3520.44
          -80.169197,43.515636,3512.82
          -80.144348,43.522293,3520.44
          -80.120094,43.528748,3512.82
          -80.093079,43.53598,3406.14
          -80.065361,43.54335,3276.6
          -80.040237,43.550083,3192.78
          -80.016174,43.556461,3078.48
          -79.988258,43.563766,2987.04
          -79.964973,43.569962,2910.84
          -79.942146,43.576015,2834.64
          -79.920502,43.581833,2773.68
          -79.895851,43.58849,2720.34
          -79.87368,43.593796,2689.86
          -79.852913,43.597778,2659.38
          -79.831902,43.60112,2628.9
          -79.811554,43.604458,2598.42
          -79.788597,43.608227,2606.04
          -79.76918,43.611393,2606.04
          -79.749626,43.614532,2552.7
          -79.739601,43.615402,2514.6
          -79.736282,43.615349,2506.98
          -79.733147,43.615116,2499.36
          -79.730209,43.614716,2491.74
          -79.727142,43.61412,2491.74
          -79.723564,43.613251,2484.12
          -79.720695,43.612381,2476.5
          -79.71756,43.611282,2468.88
          -79.714966,43.610229,2461.26
          -79.712196,43.608948,2453.64
          -79.709641,43.60762,2446.02
          -79.707214,43.606201,2430.78
          -79.704369,43.604271,2415.54
          -79.702217,43.602642,2407.92
          -79.700569,43.601395,2400.3
          -79.698082,43.599335,2385.06
          -79.695869,43.597569,2369.82
          -79.693802,43.595947,2354.58
          -79.691628,43.594299,2339.34
          -79.689461,43.592606,2324.1
          -79.686913,43.590725,2308.86
          -79.68454,43.588989,2293.62
          -79.682205,43.587234,2278.38
          -79.680374,43.585884,2263.14
          -79.678024,43.584137,2247.9
          -79.675789,43.582443,2232.66
          -79.661293,43.571503,2148.84
          -79.64711,43.560562,2080.26
          -79.63044,43.547699,2011.68
          -79.616516,43.53685,1965.96
          -79.602814,43.526203,1927.86
          -79.586685,43.513779,1874.52
          -79.571167,43.501923,1813.56
          -79.557045,43.491119,1760.22
          -79.543701,43.480911,1722.12
          -79.529648,43.470154,1668.78
          -79.516167,43.459717,1607.82
          -79.502945,43.449463,1554.48
          -79.494064,43.443432,1524
          -79.491119,43.441898,1508.76
          -79.48864,43.440811,1501.14
          -79.486023,43.439804,1501.14
          -79.482552,43.438732,1493.52
          -79.479568,43.438065,1485.9
          -79.47654,43.437519,1485.9
          -79.473824,43.437195,1485.9
          -79.470306,43.436966,1478.28
          -79.46743,43.43692,1470.66
          -79.463982,43.437103,1463.04
          -79.460915,43.437469,1455.42
          -79.458427,43.437881,1447.8
          -79.455742,43.438522,1440.18
          -79.452797,43.43943,1432.56
          -79.45005,43.440453,1424.94
          -79.448158,43.441292,1417.32
          -79.445274,43.44278,1409.7
          -79.443253,43.444084,1402.08
          -79.44175,43.445202,1402.08
          -79.439453,43.447174,1386.84
          -79.437988,43.448776,1379.22
          -79.436646,43.450508,1379.22
          -79.435661,43.452045,1371.6
          -79.434685,43.45414,1363.98
          -79.43396,43.456329,1356.36
          -79.433647,43.457932,1348.74
          -79.433388,43.4599,1341.12
          -79.433311,43.46159,1333.5
          -79.433372,43.463497,1325.88
          -79.43351,43.465405,1318.26
          -79.433647,43.467224,1303.02
          -79.433899,43.468964,1295.4
          -79.434158,43.47113,1287.78
          -79.434471,43.473083,1272.54
          -79.434662,43.474457,1264.92
          -79.435013,43.476578,1257.3
          -79.435341,43.478302,1242.06
          -79.435623,43.480087,1234.44
          -79.435944,43.481781,1219.2
          -79.436264,43.483475,1211.58
          -79.436577,43.485096,1203.96
          -79.437035,43.487286,1188.72
          -79.437408,43.488876,1181.1
          -79.437729,43.490433,1173.48
          -79.438347,43.49287,1158.24
          -79.440048,43.49976,1120.14
          -79.44194,43.506882,1082.04
          -79.443352,43.511719,1082.04
          -79.445541,43.519081,1074.42
          -79.447182,43.524124,1074.42
          -79.447701,43.525459,1074.42
          -79.448677,43.527321,1074.42
          -79.449722,43.528809,1074.42
          -79.451271,43.530579,1074.42
          -79.452614,43.531952,1074.42
          -79.453972,43.533234,1082.04
          -79.45562,43.534698,1082.04
          -79.457275,43.536118,1082.04
          -79.458748,43.537327,1082.04
          -79.460648,43.538818,1074.42
          -79.462212,43.540073,1074.42
          -79.464172,43.541611,1074.42
          -79.465683,43.542774,1074.42
          -79.467445,43.544125,1074.42
          -79.469032,43.545319,1074.42
          -79.471138,43.546875,1074.42
          -79.473137,43.548409,1074.42
          -79.47477,43.549618,1074.42
          -79.476311,43.550812,1074.42
          -79.482811,43.555672,1074.42
          -79.489548,43.560791,1074.42
          -79.494652,43.564701,1074.42
          -79.501411,43.569901,1074.42
          -79.507599,43.574665,1074.42
          -79.514076,43.579643,1074.42
          -79.520218,43.584393,1074.42
          -79.525063,43.58807,1066.8
          -79.531433,43.592972,1021.08
          -79.537811,43.597939,967.74
          -79.543762,43.602493,922.02
          -79.549644,43.607063,883.92
          -79.555511,43.611557,845.82
          -79.561005,43.615723,807.72
          -79.566322,43.61982,769.62
          -79.570511,43.623032,739.14
          -79.575508,43.626892,708.66
          -79.580124,43.630386,670.56
          -79.585022,43.634171,640.08
          -79.589561,43.637695,609.6
          -79.594223,43.641266,579.12
          -79.598946,43.644882,548.64
          -79.603798,43.64859,518.16
          -79.608849,43.652435,487.68
          -79.61367,43.656178,449.58
          -79.618248,43.659668,419.1
          -79.622963,43.663284,388.62
          -79.629417,43.668228,350.52
          -79.635292,43.67276,312.42
          -79.639366,43.675846,0
          -79.639923,43.676266,0
          -79.640236,43.67651,0
          -79.640953,43.677055,0
          -79.641235,43.677265,0
          -79.641922,43.677788,0
          -79.642326,43.678116,0
          -79.642654,43.678368,0
          -79.643135,43.678745,0
          -79.643356,43.678928,0
          -79.644356,43.679684,0
          -79.645287,43.680416,0
          -79.645844,43.680897,0
          -79.646057,43.681118,0
          -79.646294,43.681412,0
          -79.646446,43.681652,0
          -79.646545,43.681908,0
          -79.646629,43.682144,0
          -79.646713,43.68235,0
          -79.646774,43.682583,0
          -79.646858,43.682785,0
          -79.646873,43.683025,0
          -79.646759,43.683235,0
          -79.646545,43.683411,0
          -79.646324,43.683563,0
          -79.646118,43.683701,0
          -79.645851,43.683895,0
          -79.64563,43.684036,0
          -79.645355,43.684227,0
          -79.644798,43.684628,0
          -79.644287,43.684971,0
          -79.643684,43.685375,0
          -79.643227,43.685692,0
          -79.64283,43.685978,0
          -79.64238,43.686272,0
          -79.641769,43.686691,0
          -79.641335,43.687004,0
          -79.640892,43.687309,0
          -79.640648,43.687485,0
          -79.640358,43.687672,0
          -79.640137,43.68782,0
          -79.639908,43.687984,0
          -79.639694,43.688122,0
          -79.639412,43.688324,0
          -79.638977,43.688625,0
          -79.638435,43.688995,0
          -79.637932,43.689354,0
          -79.637321,43.689766,0
          -79.636505,43.690323,0
          -79.636185,43.690544,0
          -79.635818,43.690773,0
          -79.635582,43.690807,0
          -79.635056,43.690578,0
          -79.634743,43.690334,0
          -79.634514,43.690159,0
          -79.634285,43.689995,0
          -79.634048,43.689812,0
        </coordinates>
      </LineString>
    </Placemark>
  </Document>
</kml>