<?xml version='1.0' encoding='utf-8'?>
<kml xmlns="http://www.opengis.net/kml/2.2">
  <Document>
    <Placemark>
      <name>AC231-2025-02-16</name>
      <TimeStamp>
        <when>2025-02-16</when>
      </TimeStamp>
      <LineString>
        <altitudeMode>absolute</altitudeMode>
        <coordinates>
          -113.583,53.304256,0
          -113.583206,53.304127,0
          -113.583672,53.304234,0
          -113.583931,53.304291,0
          -113.584274,53.304489,0
          -113.584557,53.304665,0
          -113.584839,53.30484,0
          -113.58506,53.304977,0
          -113.585281,53.305107,0
          -113.585701,53.305355,0
          -113.58593,53.305489,0
          -113.586174,53.305607,0
          -113.586456,53.30571,0
          -113.586678,53.305782,0
          -113.586937,53.305828,0
          -113.587143,53.305874,0
          -113.587349,53.305916,0
          -113.587624,53.305954,0
          -113.587898,53.306007,0
          -113.588234,53.30611,0
          -113.588493,53.306259,0
          -113.588638,53.306469,0
          -113.588699,53.306713,0
          -113.588722,53.306934,0
          -113.588768,53.307175,0
          -113.588875,53.307411,0
          -113.589096,53.307484,0
          -113.589325,53.307457,0
          -113.589546,53.3074,0
          -113.589767,53.307312,0
          -113.590027,53.30727,0
          -113.590271,53.307247,0
          -113.590515,53.307236,0
          -113.590805,53.30722,0
          -113.591042,53.307209,0
          -113.591301,53.307201,0
          -113.591553,53.307209,0
          -113.591927,53.307198,0
          -113.592201,53.307198,0
          -113.592415,53.307236,0
          -113.592628,53.307312,0
          -113.592842,53.307369,0
          -113.593056,53.307411,0
          -113.593277,53.307426,0
          -113.593491,53.307404,0
          -113.593727,53.307362,0
          -113.593948,53.307247,0
          -113.594177,53.307037,0
          -113.594513,53.306763,0
          -113.595123,53.306225,0
          -113.595238,53.305996,0
          -113.594475,53.305534,0
          -113.592651,53.304451,0
          -113.589264,53.302452,601.98
          -113.583611,53.299053,601.98
          -113.576096,53.294491,609.6
          -113.570694,53.291245,670.56
          -113.563164,53.286713,807.72
          -113.557518,53.283318,876.3
          -113.550163,53.278896,967.74
          -113.54229,53.27417,1059.18
          -113.535851,53.270325,1112.52
          -113.529968,53.266747,1158.24
          -113.521408,53.261719,1234.44
          -113.512436,53.256317,1303.02
          -113.502907,53.250546,1371.6
          -113.493538,53.244961,1432.56
          -113.483192,53.238815,1516.38
          -113.475197,53.23402,1577.34
          -113.459282,53.224056,1699.26
          -113.454163,53.220291,1737.36
          -113.45153,53.217819,1760.22
          -113.450081,53.216217,1775.46
          -113.44796,53.21347,1798.32
          -113.446709,53.211319,1821.18
          -113.445534,53.208618,1836.42
          -113.444664,53.206055,1859.28
          -113.444275,53.203674,1882.14
          -113.444099,53.200874,1905
          -113.444275,53.197952,1927.86
          -113.44474,53.195709,1943.1
          -113.44561,53.192871,1965.96
          -113.446396,53.19104,1981.2
          -113.447884,53.188385,1996.44
          -113.449532,53.186005,2011.68
          -113.45153,53.183651,2026.92
          -113.454193,53.181137,2042.16
          -113.456047,53.179596,2057.4
          -113.45961,53.176994,2072.64
          -113.463081,53.1749,2095.5
          -113.465935,53.173416,2118.36
          -113.469933,53.171539,2148.84
          -113.473175,53.170338,2171.7
          -113.47641,53.16922,2194.56
          -113.48085,53.167915,2225.04
          -113.486023,53.166733,2255.52
          -113.489708,53.166,2278.38
          -113.494972,53.165085,2316.48
          -113.498497,53.164581,2331.72
          -113.502663,53.16394,2362.2
          -113.507446,53.163254,2392.68
          -113.511467,53.162609,2423.16
          -113.516159,53.16188,2453.64
          -113.521004,53.161072,2491.74
          -113.525932,53.160187,2522.22
          -113.530693,53.159351,2545.08
          -113.534004,53.158745,2567.94
          -113.56144,53.153229,2712.72
          -113.588531,53.147526,2887.98
          -113.620132,53.140869,3025.14
          -113.648232,53.135143,3086.1
          -113.678207,53.129288,3147.06
          -113.70874,53.123367,3215.64
          -113.740906,53.117111,3284.22
          -113.773392,53.110657,3360.42
          -113.806969,53.104,3474.72
          -113.842026,53.09697,3596.64
          -113.876419,53.090057,3733.8
          -113.928299,53.076004,3924.3
          -113.934555,53.073853,3947.16
          -113.939369,53.072159,3970.02
          -113.944397,53.070282,3992.88
          -113.950424,53.067993,4023.36
          -113.954353,53.066479,4046.22
          -113.960869,53.064011,4076.7
          -113.9655,53.062241,4099.56
          -114.04287,53.033333,4488.18
          -114.118881,53.004959,4869.18
          -114.195938,52.976028,5181.6
          -114.275467,52.946003,5494.02
          -114.354492,52.915974,5836.92
          -114.437561,52.884338,6179.82
          -114.517136,52.853989,6477
          -114.596741,52.823521,6736.08
          -114.685898,52.789352,7056.12
          -114.767738,52.757839,7269.48
          -114.854584,52.724258,7673.34
          -114.934647,52.693363,8046.72
          -115.017929,52.661133,8336.28
          -115.099716,52.629272,8465.82
          -115.183258,52.596451,8534.4
          -115.269852,52.562302,8694.42
          -115.362801,52.525681,8839.2
          -115.457756,52.488022,9044.94
          -115.54863,52.451851,9425.94
          -115.638634,52.416096,9867.9
          -115.722679,52.382813,10119.36
          -115.801865,52.351158,10287
          -115.886536,52.317169,10363.2
          -115.968933,52.283794,10363.2
          -116.052979,52.249626,10363.2
          -116.13945,52.214539,10363.2
          -116.224205,52.179939,10363.2
          -116.308411,52.145535,10363.2
          -116.391602,52.111404,10363.2
          -116.472343,52.078083,10363.2
          -116.557693,52.042923,10363.2
          -116.642082,52.008022,10363.2
          -116.725769,51.973251,10363.2
          -116.808701,51.938736,10363.2
          -116.892166,51.903717,10363.2
          -116.98175,51.86618,10363.2
          -117.063065,51.831959,10363.2
          -117.15078,51.794769,10363.2
          -117.236069,51.75856,10363.2
          -117.319656,51.723038,10363.2
          -117.402725,51.686672,10363.2
          -117.484749,51.648376,10363.2
          -117.56752,51.610016,10363.2
          -117.652588,51.570801,10363.2
          -117.734299,51.533047,10363.2
          -117.817307,51.494568,10363.2
          -117.903366,51.454514,10363.2
          -117.985962,51.415878,10363.2
          -118.069695,51.37674,10363.2
          -118.158417,51.335014,10363.2
          -118.240509,51.296238,10363.2
          -118.32238,51.257584,10363.2
          -118.407822,51.217098,10363.2
          -118.491409,51.177292,10363.2
          -118.572388,51.138657,10363.2
          -118.655685,51.09874,10363.2
          -118.740456,51.058044,10363.2
          -118.819351,51.019951,10363.2
          -118.899834,50.980865,10363.2
          -118.984222,50.939926,10363.2
          -119.063187,50.901615,10363.2
          -119.143761,50.862305,10363.2
          -119.222641,50.823593,10363.2
          -119.30275,50.784161,10363.2
          -119.384918,50.74366,10363.2
          -119.46312,50.70507,10363.2
          -119.543541,50.6651,10363.2
          -119.626938,50.623604,10363.2
          -119.706886,50.583847,10363.2
          -119.789055,50.542694,10363.2
          -119.873756,50.499962,10363.2
          -119.952415,50.460342,10363.2
          -120.033653,50.419331,10363.2
          -120.11731,50.376968,10363.2
          -120.202499,50.333588,10363.2
          -120.282944,50.29248,10363.2
          -120.361946,50.252014,10363.2
          -120.444153,50.209942,10363.2
          -120.527,50.167297,10363.2
          -120.606949,50.126007,10363.2
          -120.688454,50.083832,10363.2
          -120.771118,50.040848,10363.2
          -120.848648,50.000362,10363.2
          -120.929039,49.95837,10363.2
          -121.011726,49.922745,10363.2
          -121.104828,49.887131,10363.2
          -121.195175,49.852432,10363.2
          -121.285233,49.818008,10226.04
          -121.37117,49.785187,10058.4
          -121.458267,49.751541,9685.02
          -121.545509,49.717575,9227.82
          -121.631493,49.683666,8724.9
          -121.70929,49.653687,8359.14
          -121.789612,49.622684,7978.14
          -121.870743,49.591213,7612.38
          -121.947662,49.56102,7246.62
          -122.023361,49.531071,6888.48
          -122.09819,49.501369,6522.72
          -122.170502,49.472168,6164.58
          -122.241165,49.443878,5798.82
          -122.310577,49.416412,5440.68
          -122.384079,49.387131,5044.44
          -122.45607,49.35836,4655.82
          -122.525383,49.33057,4427.22
          -122.591156,49.304352,4335.78
          -122.650864,49.28183,4251.96
          -122.658974,49.279724,4236.72
          -122.66394,49.278522,4221.48
          -122.667778,49.277683,4206.24
          -122.672005,49.27684,4191
          -122.67717,49.275871,4175.76
          -122.68045,49.27533,4168.14
          -122.685486,49.274521,4152.9
          -122.689468,49.273865,4137.66
          -122.694588,49.273075,4122.42
          -122.69841,49.272446,4114.8
          -122.702179,49.27182,4099.56
          -122.70665,49.271118,4091.94
          -122.77063,49.260738,3893.82
          -122.83358,49.2505,3726.18
          -122.895599,49.241684,3596.64
          -122.899193,49.241592,3589.02
          -122.902679,49.241512,3573.78
          -122.906448,49.241547,3566.16
          -122.911163,49.241638,3550.92
          -122.915039,49.241821,3543.3
          -122.918724,49.242027,3528.06
          -122.922485,49.242352,3512.82
          -122.926804,49.242828,3497.58
          -122.93074,49.243286,3489.96
          -122.935707,49.243935,3474.72
          -122.939323,49.2444,3459.48
          -122.94352,49.244911,3451.86
          -122.947296,49.245392,3436.62
          -122.951241,49.24585,3429
          -122.954758,49.246262,3413.76
          -122.959267,49.246811,3390.9
          -122.986099,49.250198,3230.88
          -123.012474,49.253479,3093.72
          -123.035957,49.256332,2948.94
          -123.063065,49.25967,2796.54
          -123.084976,49.262375,2674.62
          -123.1073,49.265167,2560.32
          -123.130356,49.268047,2438.4
          -123.153145,49.270935,2324.1
          -123.176315,49.273865,2202.18
          -123.198227,49.276615,2087.88
          -123.220047,49.279312,1973.58
          -123.245476,49.282425,1889.76
          -123.267166,49.28508,1813.56
          -123.287056,49.287506,1737.36
          -123.307938,49.29007,1668.78
          -123.326523,49.292351,1577.34
          -123.348999,49.295151,1447.8
          -123.361183,49.296707,1371.6
          -123.373932,49.298355,1303.02
          -123.384003,49.299591,1257.3
          -123.396271,49.301056,1203.96
          -123.409065,49.302498,1150.62
          -123.415199,49.302979,1135.38
          -123.418167,49.303055,1127.76
          -123.421043,49.302979,1120.14
          -123.424385,49.302685,1104.9
          -123.427101,49.302292,1097.28
          -123.429665,49.301754,1089.66
          -123.432266,49.301006,1089.66
          -123.435272,49.299957,1074.42
          -123.437386,49.298996,1066.8
          -123.440071,49.297562,1059.18
          -123.442314,49.296074,1043.94
          -123.444046,49.294678,1036.32
          -123.445488,49.293327,1028.7
          -123.447006,49.291836,1013.46
          -123.448929,49.289749,998.22
          -123.450333,49.288158,982.98
          -123.451561,49.286762,975.36
          -123.452866,49.28532,960.12
          -123.454674,49.283318,952.5
          -123.456047,49.28178,937.26
          -123.457245,49.280502,929.64
          -123.459,49.278625,914.4
          -123.460411,49.277115,906.78
          -123.46196,49.275421,891.54
          -123.463791,49.273499,883.92
          -123.46949,49.267399,838.2
          -123.475128,49.261391,815.34
          -123.479248,49.257156,784.86
          -123.485023,49.251198,754.38
          -123.488228,49.247223,739.14
          -123.489143,49.245472,731.52
          -123.489639,49.244064,723.9
          -123.489868,49.242352,716.28
          -123.489853,49.240814,716.28
          -123.489578,49.239372,708.66
          -123.489143,49.238159,708.66
          -123.488228,49.236557,701.04
          -123.487175,49.235321,693.42
          -123.486038,49.234158,693.42
          -123.484741,49.233135,685.8
          -123.482948,49.231979,685.8
          -123.481705,49.231228,678.18
          -123.479782,49.23024,670.56
          -123.477875,49.229225,670.56
          -123.476189,49.228409,662.94
          -123.474358,49.227493,662.94
          -123.47274,49.226665,655.32
          -123.471466,49.226028,655.32
          -123.469345,49.224987,647.7
          -123.467972,49.224289,647.7
          -123.465942,49.223267,640.08
          -123.463852,49.222382,640.08
          -123.462173,49.221771,632.46
          -123.460197,49.221222,632.46
          -123.458359,49.220753,624.84
          -123.455833,49.220215,624.84
          -123.454216,49.219894,617.22
          -123.45182,49.219391,617.22
          -123.449898,49.218983,609.6
          -123.447807,49.218567,609.6
          -123.445778,49.218098,601.98
          -123.443863,49.217651,601.98
          -123.441681,49.217148,601.98
          -123.439491,49.216656,609.6
          -123.437614,49.216282,609.6
          -123.435661,49.215862,609.6
          -123.43335,49.215397,609.6
          -123.431259,49.215042,609.6
          -123.429352,49.214722,609.6
          -123.427063,49.214375,609.6
          -123.422874,49.21376,609.6
          -123.420479,49.213444,609.6
          -123.41851,49.213211,609.6
          -123.416534,49.212982,609.6
          -123.414192,49.212746,609.6
          -123.412102,49.212479,609.6
          -123.410126,49.212296,609.6
          -123.407837,49.212048,617.22
          -123.40583,49.211884,617.22
          -123.403862,49.211674,617.22
          -123.401749,49.211517,617.22
          -123.399635,49.211334,617.22
          -123.397568,49.211163,617.22
          -123.395622,49.210976,617.22
          -123.389,49.210373,609.6
          -123.380798,49.209534,609.6
          -123.37516,49.208973,609.6
          -123.367523,49.208176,609.6
          -123.36097,49.207443,609.6
          -123.352905,49.206509,586.74
          -123.346817,49.205795,563.88
          -123.338448,49.204784,533.4
          -123.332939,49.204193,510.54
          -123.325127,49.203278,480.06
          -123.319283,49.202682,464.82
          -123.31134,49.201805,426.72
          -123.30484,49.201061,403.86
          -123.297028,49.200176,373.38
          -123.288994,49.199249,342.9
          -123.282791,49.198547,320.04
          -123.274277,49.197556,289.56
          -123.26667,49.196732,259.08
          -123.258797,49.195847,228.6
          -123.250473,49.194946,198.12
          -123.244911,49.194351,175.26
          -123.236526,49.19339,144.78
          -123.230316,49.19268,121.92
          -123.223923,49.191925,91.44
          -123.21608,49.191006,60.96
          -123.20755,49.190029,30.48
          -123.201385,49.189362,0
          -123.193382,49.188446,0
          -123.188217,49.187862,0
          -123.184296,49.187428,0
          -123.182182,49.187187,0
          -123.180016,49.186935,0
          -123.178642,49.186798,0
          -123.178352,49.186779,0
          -123.178146,49.186764,0
          -123.177849,49.186752,0
          -123.177628,49.186745,0
          -123.177155,49.186756,0
          -123.176834,49.186779,0
          -123.176468,49.186802,0
          -123.176178,49.186844,0
          -123.175766,49.186897,0
          -123.175461,49.186943,0
          -123.175079,49.187023,0
          -123.174698,49.187119,0
          -123.174408,49.187187,0
          -123.174065,49.187267,0
          -123.173744,49.187351,0
          -123.173485,49.187405,0
          -123.173271,49.187454,0
          -123.173019,49.18755,0
          -123.172775,49.187771,0
          -123.172806,49.188015,0
          -123.173027,49.188194,0
          -123.173271,49.188271,0
          -123.1735,49.188309,0
          -123.173729,49.188332,0
          -123.173973,49.188366,0
          -123.174225,49.1884,0
          -123.174484,49.188423,0
          -123.174698,49.188446,0
          -123.174934,49.18848,0
          -123.175171,49.188503,0
          -123.175926,49.188595,0
          -123.176826,49.188698,0
          -123.177643,49.188782,0
          -123.178642,49.188904,0
          -123.179543,49.189003,0
          -123.180611,49.189121,0
          -123.181801,49.189259,0
          -123.182724,49.189362,0
          -123.183449,49.189442,0
          -123.184059,49.189514,0
          -123.184311,49.189579,0
          -123.18454,49.189682,0
          -123.184753,49.189831,0
          -123.185066,49.190094,0
          -123.185349,49.190323,0
          -123.185593,49.190517,0
          -123.185814,49.190716,0
          -123.186127,49.190964,0
          -123.186401,49.191204,0
          -123.186806,49.19154,0
          -123.187149,49.191841,0
          -123.187248,49.192051,0
          -123.187271,49.19228,0
          -123.187187,49.192589,0
          -123.187134,49.192799,0
          -123.187057,49.193058,0
          -123.186989,49.193367,0
          -123.186913,49.193588,0
          -123.186897,49.193802,0
          -123.187042,49.194031,0
          -123.187248,49.194237,0
          -123.187347,49.194462,0
          -123.187286,49.194889,0
          -123.187225,49.195137,0
          -123.187149,49.195393,0
          -123.187096,49.195614,0
          -123.187019,49.195835,0
          -123.186913,49.196239,0
          -123.18679,49.196732,0
          -123.186668,49.19696,0
          -123.186462,49.197113,0
          -123.186172,49.197174,0
          -123.185883,49.197163,0
          -123.185631,49.19714,0
          -123.185181,49.19709,0
          -123.184929,49.197063,0
          -123.184525,49.197018,0
          -123.184013,49.19696,0
          -123.183571,49.196903,0
          -123.182938,49.196835,0
          -123.182327,49.196743,0
          -123.181755,49.196606,0
          -123.181419,49.196526,0
          -123.181015,49.196514,0
          -123.180771,49.196548,0
          -123.180298,49.196487,0
          -123.179726,49.196335,0
          -123.179466,49.196148,0
        </coordinates>
      </LineString>
    </Placemark>
  </Document>
</kml>