<?xml version='1.0' encoding='utf-8'?>
<kml xmlns="http://www.opengis.net/kml/2.2">
  <Document>
    <Placemark>
      <name>AIC2933-2026-05-15</name>
      <TimeStamp>
        <when>2026-05-15</when>
      </TimeStamp>
      <LineString>
        <altitudeMode>absolute</altitudeMode>
        <coordinates>
          77.08577,28.55242,0
          77.085403,28.551624,0
          77.085197,28.551535,0
          77.085655,28.551523,0
          77.086342,28.551361,0
          77.08667,28.551281,0
          77.086929,28.551201,0
          77.087143,28.550961,0
          77.087273,28.550743,0
          77.087471,28.550428,0
          77.087715,28.550056,0
          77.087898,28.549778,0
          77.088036,28.549557,0
          77.088051,28.549324,0
          77.087997,28.549103,0
          77.088097,28.548889,0
          77.088318,28.5488,0
          77.088585,28.548752,0
          77.088806,28.548719,0
          77.089027,28.548672,0
          77.089272,28.548615,0
          77.089569,28.548544,0
          77.089981,28.548454,0
          77.090569,28.548311,0
          77.091103,28.548191,0
          77.091698,28.548056,0
          77.092224,28.547928,0
          77.092758,28.547813,0
          77.093338,28.547676,0
          77.093987,28.54752,0
          77.094627,28.547379,0
          77.095306,28.54723,0
          77.096085,28.547047,0
          77.096901,28.546864,0
          77.097786,28.546658,0
          77.098579,28.546473,0
          77.099487,28.546257,0
          77.100319,28.546062,0
          77.101204,28.545855,0
          77.102081,28.545647,0
          77.102959,28.545444,0
          77.104004,28.545216,0
          77.104729,28.54504,0
          77.105316,28.544907,0
          77.105743,28.544819,0
          77.105957,28.544716,0
          77.106003,28.544483,0
          77.105949,28.544266,0
          77.105858,28.544052,0
          77.105804,28.543842,0
          77.105736,28.543625,0
          77.105675,28.5434,0
          77.105621,28.54319,0
          77.105553,28.542957,0
          77.105469,28.542664,0
          77.105392,28.542398,0
          77.105232,28.542194,0
          77.105011,28.542194,0
          77.104782,28.542263,0
          77.104523,28.542343,0
          77.10424,28.542412,0
          77.104019,28.542458,0
          77.103607,28.542538,0
          77.103104,28.542652,0
          77.102699,28.542732,0
          77.102402,28.542795,0
          77.102074,28.54287,0
          77.098778,28.543579,342.9
          77.093597,28.544678,335.28
          77.089218,28.545639,335.28
          77.082352,28.547012,342.9
          77.0755,28.548346,434.34
          77.068672,28.549576,541.02
          77.060585,28.550953,617.22
          77.054985,28.551884,632.46
          77.053032,28.552231,640.08
          77.050835,28.552582,647.7
          77.048599,28.552917,662.94
          77.046959,28.553101,670.56
          77.044746,28.553234,693.42
          77.042259,28.553238,716.28
          77.040169,28.553141,739.14
          77.038124,28.552908,754.38
          77.036079,28.552505,777.24
          77.033806,28.551956,807.72
          77.032257,28.551466,815.34
          77.029938,28.550674,838.2
          77.02784,28.549759,853.44
          77.025902,28.548765,868.68
          77.023857,28.547554,891.54
          77.022133,28.546371,906.78
          77.020393,28.545044,929.64
          77.018471,28.543226,960.12
          77.017067,28.541782,975.36
          77.015587,28.540009,990.6
          77.014053,28.538012,1005.84
          77.012627,28.535751,1021.08
          77.01152,28.533915,1028.7
          77.010361,28.531677,1043.94
          77.0093,28.529663,1051.56
          77.008247,28.527649,1059.18
          77.00705,28.525303,1066.8
          77.006027,28.5233,1082.04
          77.004814,28.521057,1089.66
          77.003601,28.518785,1104.9
          77.002258,28.516411,1120.14
          77.0009,28.514053,1127.76
          76.999687,28.511856,1135.38
          76.998154,28.509247,1150.62
          76.996925,28.507195,1158.24
          76.995461,28.504669,1165.86
          76.994072,28.502306,1181.1
          76.988037,28.492205,1264.92
          76.982819,28.483545,1371.6
          76.976624,28.473024,1485.9
          76.972382,28.465622,1577.34
          76.963615,28.450104,1767.84
          76.955269,28.434998,1905
          76.945175,28.416836,1973.58
          76.935478,28.399332,2034.54
          76.925163,28.380569,2103.12
          76.91523,28.36237,2133.6
          76.903244,28.340561,2240.28
          76.892624,28.321289,2377.44
          76.880951,28.300049,2583.18
          76.870422,28.280857,2720.34
          76.859718,28.261322,2895.6
          76.849525,28.242825,3093.72
          76.838539,28.22287,3253.74
          76.827339,28.202591,3436.62
          76.816566,28.182957,3604.26
          76.806068,28.163824,3726.18
          76.778603,28.113594,4191
          76.753883,28.0683,4610.1
          76.727921,28.020863,4922.52
          76.700043,27.96991,5219.7
          76.673111,27.920403,5570.22
          76.647156,27.872635,6019.8
          76.619278,27.821686,6377.94
          76.593002,27.773392,6637.02
          76.564354,27.720694,6918.96
          76.535149,27.66688,7269.48
          76.506561,27.61409,7513.32
          76.477997,27.56144,7764.78
          76.447952,27.505783,8084.82
          76.417992,27.450178,8351.52
          76.387268,27.393631,8618.22
          76.359024,27.34108,8862.06
          76.328415,27.284359,8999.22
          76.296883,27.225889,9128.76
          76.265327,27.167221,9144
          76.23159,27.104416,9174.48
          76.197472,27.040565,9304.02
          76.165154,26.979813,9563.1
          76.132507,26.918518,9921.24
          76.100555,26.858965,10149.84
          76.068489,26.799147,10294.62
          76.036484,26.739046,10363.2
          76.004898,26.679646,10363.2
          75.973358,26.620331,10370.82
          75.942833,26.562941,10538.46
          75.91188,26.504471,10698.48
          75.879303,26.442993,10789.92
          75.847549,26.383015,10919.46
          75.815063,26.321426,10972.8
          75.783691,26.262119,10972.8
          75.752472,26.202951,10972.8
          75.721657,26.144485,10972.8
          75.689476,26.083191,10972.8
          75.659988,26.027115,10972.8
          75.628433,25.96701,10972.8
          75.59729,25.907671,10972.8
          75.565208,25.846481,10972.8
          75.533127,25.785145,10972.8
          75.499916,25.721554,10972.8
          75.467125,25.658569,10972.8
          75.435028,25.597,10972.8
          75.405182,25.539814,10972.8
          75.372795,25.477528,10972.8
          75.342308,25.418884,10972.8
          75.310036,25.356724,10972.8
          75.278687,25.296299,10972.8
          75.24826,25.237457,10972.8
          75.215965,25.175125,10972.8
          75.185036,25.112961,10972.8
          75.158745,25.047729,11018.52
          75.133118,24.984354,11163.3
          75.106201,24.920334,11247.12
          75.078888,24.855972,11376.66
          75.051491,24.790882,11559.54
          75.024818,24.72757,11650.98
          74.998169,24.664536,11704.32
          74.971016,24.599924,11811
          74.944557,24.536682,11963.4
          74.917686,24.472698,12070.08
          74.8909,24.409058,12138.66
          74.865242,24.347797,12192
          74.83902,24.284866,12192
          74.811859,24.21991,12192
          74.78611,24.158283,12192
          74.759422,24.094275,12192
          74.734344,24.034176,12192
          74.708305,23.971527,12192
          74.682106,23.908485,12192
          74.65728,23.848804,12192
          74.631165,23.785679,12192
          74.605461,23.723719,12192
          74.580276,23.663015,12192
          74.553169,23.597397,12192
          74.527077,23.534344,12192
          74.500786,23.470613,12192
          74.474693,23.407209,12192
          74.449951,23.347229,12192
          74.423683,23.283325,12192
          74.397369,23.219284,12192
          74.371147,23.155472,12192
          74.345428,23.09285,12192
          74.320122,23.031069,12192
          74.294044,22.967285,12192
          74.267677,22.902832,12192
          74.242805,22.841879,12192
          74.215698,22.775637,12192
          74.189323,22.710846,12192
          74.163055,22.646315,12192
          74.138092,22.585007,12192
          74.112244,22.521461,12192
          74.087166,22.459732,12192
          74.062248,22.398422,12192
          74.035896,22.333344,12192
          74.010262,22.269985,12192
          73.983559,22.20388,12192
          73.958794,22.142757,12192
          73.933052,22.079075,12192
          73.90683,22.013901,12192
          73.880257,21.947937,12192
          73.856148,21.888165,12192
          73.830421,21.823929,12192
          73.804626,21.759867,12192
          73.778786,21.695572,12192
          73.753456,21.632406,12192
          73.729195,21.571884,12192
          73.703461,21.507553,12192
          73.678009,21.443985,12192
          73.653641,21.383102,12047.22
          73.627823,21.318237,11772.9
          73.602707,21.255341,11414.76
          73.577324,21.191648,11178.54
          73.551666,21.126984,10820.4
          73.529716,21.063259,10576.56
          73.509178,20.998489,10226.04
          73.48819,20.935043,9966.96
          73.467171,20.872627,9715.5
          73.446548,20.811172,9502.14
          73.426048,20.749924,9220.2
          73.405647,20.689072,8938.26
          73.385628,20.629349,8770.62
          73.366013,20.570663,8420.1
          73.345612,20.509506,7848.6
          73.325401,20.449036,7650.48
          73.305428,20.388948,7315.2
          73.286118,20.331024,7063.74
          73.267578,20.275406,6758.94
          73.248108,20.216675,6438.9
          73.229958,20.158859,6156.96
          73.212593,20.10391,5836.92
          73.195236,20.046249,5524.5
          73.192764,20.030403,5425.44
          73.192436,20.026794,5402.58
          73.192192,20.023087,5379.72
          73.191917,20.018766,5356.86
          73.19162,20.014017,5326.38
          73.191414,20.010805,5303.52
          73.19117,20.006149,5280.66
          73.190971,20.002287,5265.42
          73.19072,19.998642,5250.18
          73.190529,19.995346,5234.94
          73.185722,19.935791,5013.96
          73.18058,19.879063,4701.54
          73.175636,19.822548,4419.6
          73.171005,19.768478,4061.46
          73.166344,19.712036,3802.38
          73.161781,19.657333,3619.5
          73.159958,19.635454,3573.78
          73.158211,19.614971,3535.68
          73.156288,19.592056,3497.58
          73.154716,19.573587,3474.72
          73.153107,19.554016,3444.24
          73.151482,19.53511,3413.76
          73.150017,19.517118,3383.28
          73.14962,19.498684,3352.8
          73.149376,19.480911,3329.94
          73.148987,19.464615,3268.98
          73.148445,19.444885,3185.16
          73.147919,19.425457,3108.96
          73.147469,19.40856,3032.76
          73.147072,19.390963,2956.56
          73.146675,19.374203,2903.22
          73.14624,19.355118,2827.02
          73.145844,19.337769,2758.44
          73.145454,19.321106,2682.24
          73.145058,19.302521,2613.66
          73.144714,19.286591,2545.08
          73.144325,19.268234,2446.02
          73.143982,19.252396,2377.44
          73.144722,19.243856,2339.34
          73.145126,19.241808,2331.72
          73.145844,19.23912,2316.48
          73.146774,19.236465,2301.24
          73.147957,19.233765,2286
          73.149078,19.231613,2278.38
          73.150421,19.229519,2263.14
          73.152077,19.227173,2255.52
          73.153938,19.224884,2240.28
          73.155655,19.223007,2232.66
          73.15786,19.22086,2217.42
          73.159676,19.219208,2209.8
          73.161804,19.217508,2202.18
          73.164352,19.215647,2194.56
          73.166153,19.214447,2194.56
          73.168404,19.213028,2186.94
          73.171204,19.211288,2179.32
          73.17321,19.210098,2171.7
          73.175438,19.208803,2164.08
          73.178215,19.20726,2148.84
          73.180321,19.20607,2141.22
          73.183174,19.204428,2125.98
          73.185524,19.20314,2118.36
          73.187675,19.20196,2103.12
          73.190422,19.200424,2095.5
          73.192665,19.19912,2087.88
          73.209702,19.189499,2042.16
          73.223679,19.181305,2011.68
          73.22757,19.178497,2004.06
          73.229767,19.17659,2004.06
          73.231384,19.174896,1996.44
          73.233147,19.172836,1996.44
          73.23452,19.170959,1996.44
          73.235992,19.168579,1988.82
          73.236923,19.166748,1988.82
          73.237907,19.164392,1981.2
          73.238838,19.16153,1981.2
          73.23941,19.159132,1981.2
          73.239769,19.157135,1981.2
          73.240013,19.154434,1973.58
          73.240005,19.152521,1973.58
          73.239807,19.150007,1965.96
          73.239471,19.148026,1965.96
          73.238907,19.145725,1958.34
          73.238213,19.143677,1950.72
          73.237457,19.141909,1950.72
          73.236259,19.139812,1943.1
          73.235214,19.138184,1935.48
          73.234077,19.136719,1927.86
          73.232719,19.135204,1920.24
          73.231232,19.133698,1912.62
          73.22937,19.132038,1905
          73.227798,19.130814,1897.38
          73.226273,19.129665,1889.76
          73.224274,19.128222,1874.52
          73.222832,19.127197,1866.9
          73.220879,19.125895,1851.66
          73.21888,19.124544,1844.04
          73.217209,19.123444,1828.8
          73.215637,19.122402,1821.18
          73.213776,19.121201,1805.94
          73.211792,19.119936,1790.7
          73.210144,19.118912,1783.08
          73.208595,19.117979,1775.46
          73.206566,19.116852,1760.22
          73.205048,19.116072,1752.6
          73.20285,19.115,1744.98
          73.201408,19.114302,1737.36
          73.1996,19.11351,1729.74
          73.197861,19.112766,1722.12
          73.196068,19.111954,1714.5
          73.193863,19.111044,1706.88
          73.191803,19.110168,1691.64
          73.190071,19.109461,1684.02
          73.187721,19.108482,1676.4
          73.185974,19.107738,1668.78
          73.183907,19.106918,1661.16
          73.17244,19.102013,1592.58
          73.160805,19.097124,1516.38
          73.157013,19.095728,1501.14
          73.155655,19.095291,1493.52
          73.153267,19.09461,1478.28
          73.151421,19.094193,1463.04
          73.149521,19.093781,1455.42
          73.148125,19.09354,1447.8
          73.14624,19.093277,1432.56
          73.143929,19.093002,1424.94
          73.142181,19.092842,1417.32
          73.14006,19.092682,1409.7
          73.138191,19.09259,1402.08
          73.135986,19.092516,1394.46
          73.134026,19.092453,1386.84
          73.132294,19.092377,1379.22
          73.130096,19.092329,1371.6
          73.128197,19.092329,1363.98
          73.125847,19.092283,1356.36
          73.12397,19.09227,1356.36
          73.122055,19.092224,1348.74
          73.120148,19.092178,1341.12
          73.117889,19.092178,1333.5
          73.115959,19.092144,1325.88
          73.114113,19.092096,1318.26
          73.106071,19.091957,1295.4
          73.098137,19.091818,1264.92
          73.089897,19.091724,1226.82
          73.081741,19.091583,1181.1
          73.075912,19.091492,1150.62
          73.068108,19.0914,1112.52
          73.059784,19.091305,1066.8
          73.054138,19.091213,1028.7
          73.045998,19.09112,990.6
          73.038582,19.091034,952.5
          73.032715,19.090981,922.02
          73.026024,19.090887,883.92
          73.020279,19.090746,853.44
          73.011787,19.090654,807.72
          73.006111,19.090576,777.24
          72.996758,19.090467,723.9
          72.990166,19.090374,693.42
          72.984428,19.090328,662.94
          72.97818,19.090235,624.84
          72.97184,19.090189,594.36
          72.966087,19.090073,563.88
          72.9617,19.090002,548.64
          72.95623,19.089935,518.16
          72.951164,19.089863,487.68
          72.946716,19.089798,464.82
          72.939529,19.089724,426.72
          72.934288,19.08963,396.24
          72.926147,19.089537,358.14
          72.918663,19.089432,327.66
          72.911896,19.089386,434.34
          72.906693,19.08934,525.78
          72.899536,19.089203,624.84
          72.894287,19.089024,647.7
          72.8909,19.08902,655.32
          72.888405,19.089066,662.94
          72.886047,19.089066,670.56
          72.884232,19.089111,678.18
          72.882401,19.089117,685.8
          72.879608,19.089117,693.42
          72.877357,19.089117,701.04
          72.868439,19.089111,777.24
          72.861031,19.089071,861.06
          72.849396,19.088932,960.12
          72.840973,19.088745,990.6
          72.833763,19.088608,1028.7
          72.827019,19.088558,1059.18
          72.824738,19.088654,1066.8
          72.82238,19.088932,1074.42
          72.820381,19.089304,1089.66
          72.81868,19.089724,1097.28
          72.816635,19.090422,1104.9
          72.814682,19.091263,1120.14
          72.812889,19.092237,1127.76
          72.81076,19.093597,1143
          72.809341,19.094749,1150.62
          72.807724,19.096298,1158.24
          72.806252,19.098038,1173.48
          72.805,19.099918,1188.72
          72.803993,19.101791,1196.34
          72.803154,19.103828,1211.58
          72.802605,19.105597,1219.2
          72.802155,19.107319,1226.82
          72.801689,19.110031,1242.06
          72.801506,19.111835,1257.3
          72.801353,19.114302,1264.92
          72.801292,19.115891,1272.54
          72.801247,19.118134,1287.78
          72.801247,19.120514,1287.78
          72.8013,19.122356,1295.4
          72.801353,19.124729,1295.4
          72.801392,19.126602,1295.4
          72.801445,19.129074,1295.4
          72.801552,19.131155,1295.4
          72.801651,19.132645,1295.4
          72.801888,19.135071,1295.4
          72.802498,19.138277,1295.4
          72.802803,19.139301,1303.02
          72.803848,19.142281,1303.02
          72.805412,19.145279,1303.02
          72.806442,19.146927,1303.02
          72.807968,19.149033,1303.02
          72.8088,19.150131,1303.02
          72.810341,19.151962,1303.02
          72.811646,19.153427,1303.02
          72.812935,19.15485,1303.02
          72.814682,19.156677,1303.02
          72.816086,19.158108,1295.4
          72.817581,19.159653,1295.4
          72.818954,19.161026,1295.4
          72.820183,19.162344,1295.4
          72.821945,19.164093,1295.4
          72.823578,19.165743,1303.02
          72.82489,19.167068,1303.02
          72.826469,19.168722,1303.02
          72.82782,19.170073,1303.02
          72.82972,19.172028,1303.02
          72.835335,19.17778,1303.02
          72.839203,19.181803,1303.02
          72.8451,19.187901,1303.02
          72.849457,19.192383,1303.02
          72.854507,19.197144,1295.4
          72.856033,19.198282,1295.4
          72.857735,19.1994,1295.4
          72.859657,19.200348,1295.4
          72.861679,19.201168,1295.4
          72.863388,19.201675,1295.4
          72.865723,19.202192,1295.4
          72.867973,19.202566,1295.4
          72.870468,19.202751,1295.4
          72.872864,19.202845,1295.4
          72.875458,19.20289,1303.02
          72.87751,19.20282,1303.02
          72.879623,19.202774,1295.4
          72.882103,19.202705,1295.4
          72.884033,19.202591,1295.4
          72.885849,19.202518,1295.4
          72.888306,19.202408,1295.4
          72.890366,19.202316,1295.4
          72.89209,19.20224,1295.4
          72.89473,19.202133,1303.02
          72.897087,19.202007,1303.02
          72.898933,19.20196,1303.02
          72.905571,19.201681,1295.4
          72.914116,19.201355,1295.4
          72.921257,19.201077,1295.4
          72.929848,19.200714,1303.02
          72.936218,19.200485,1295.4
          72.94368,19.200211,1295.4
          72.952454,19.199844,1295.4
          72.959259,19.199587,1295.4
          72.966972,19.199295,1287.78
          72.973793,19.19902,1264.92
          72.982475,19.1987,1242.06
          72.990616,19.198425,1234.44
          72.997459,19.198143,1234.44
          73.006012,19.19783,1234.44
          73.012741,19.197584,1234.44
          73.020332,19.197306,1234.44
          73.028267,19.197073,1234.44
          73.03421,19.196886,1234.44
          73.042259,19.196594,1234.44
          73.049492,19.196373,1234.44
          73.055893,19.196045,1234.44
          73.057884,19.195862,1234.44
          73.059967,19.195541,1234.44
          73.062279,19.194977,1234.44
          73.064331,19.194397,1234.44
          73.066673,19.193535,1234.44
          73.068123,19.192928,1234.44
          73.070801,19.191696,1234.44
          73.072517,19.190826,1234.44
          73.07473,19.189636,1234.44
          73.076561,19.188601,1234.44
          73.078751,19.187393,1234.44
          73.080353,19.186459,1234.44
          73.082184,19.185379,1234.44
          73.084099,19.184271,1234.44
          73.08606,19.183136,1234.44
          73.087593,19.182268,1234.44
          73.089447,19.181198,1234.44
          73.090965,19.180298,1234.44
          73.093086,19.179056,1234.44
          73.095085,19.177847,1234.44
          73.096634,19.176868,1234.44
          73.098518,19.175583,1234.44
          73.100029,19.1744,1234.44
          73.101532,19.173004,1234.44
          73.102875,19.171608,1234.44
          73.104225,19.16984,1234.44
          73.105232,19.168259,1234.44
          73.106262,19.166245,1234.44
          73.107002,19.164368,1234.44
          73.107536,19.162766,1234.44
          73.108078,19.160522,1234.44
          73.108475,19.158234,1234.44
          73.108719,19.156448,1234.44
          73.108871,19.15443,1234.44
          73.109016,19.152195,1234.44
          73.109123,19.149775,1234.44
          73.109169,19.147635,1234.44
          73.109207,19.145416,1234.44
          73.109268,19.143118,1234.44
          73.109253,19.141251,1234.44
          73.109322,19.139021,1234.44
          73.109322,19.13702,1234.44
          73.109352,19.134567,1234.44
          73.109367,19.132645,1234.44
          73.109421,19.130781,1226.82
          73.109421,19.129059,1219.2
          73.109451,19.120789,1181.1
          73.109367,19.119144,1173.48
          73.109169,19.117002,1165.86
          73.108871,19.115232,1158.24
          73.108368,19.113277,1150.62
          73.107735,19.111542,1143
          73.107101,19.110168,1135.38
          73.105728,19.107697,1127.76
          73.104675,19.106155,1112.52
          73.103127,19.1042,1104.9
          73.101898,19.102844,1097.28
          73.100632,19.101593,1089.66
          73.098907,19.100098,1082.04
          73.097282,19.098846,1074.42
          73.095985,19.097963,1066.8
          73.094299,19.096939,1059.18
          73.091797,19.095657,1051.56
          73.090096,19.094936,1043.94
          73.08831,19.09433,1036.32
          73.086502,19.093781,1036.32
          73.084503,19.09326,1028.7
          73.082451,19.092842,1021.08
          73.080406,19.092516,1013.46
          73.078506,19.092283,1005.84
          73.076462,19.092096,990.6
          73.074432,19.091949,982.98
          73.073112,19.091904,982.98
          73.070717,19.091818,975.36
          73.068573,19.09177,967.74
          73.066635,19.091721,960.12
          73.065216,19.091721,952.5
          73.062828,19.091679,944.88
          73.060982,19.091631,944.88
          73.058685,19.091585,937.26
          73.056778,19.091537,929.64
          73.054886,19.091492,922.02
          73.053093,19.091446,914.4
          73.051231,19.0914,906.78
          73.043602,19.091305,883.92
          73.038528,19.091217,868.68
          73.031067,19.091026,868.68
          73.025078,19.090887,861.06
          73.018425,19.090805,845.82
          73.012291,19.0907,815.34
          73.005402,19.090607,777.24
          73.000618,19.09053,754.38
          72.993011,19.090467,708.66
          72.987473,19.090374,685.8
          72.980904,19.090256,647.7
          72.974579,19.09021,609.6
          72.967712,19.090118,571.5
          72.962105,19.090002,548.64
          72.957008,19.089956,518.16
          72.95211,19.08989,495.3
          72.945885,19.089798,457.2
          72.940529,19.089724,426.72
          72.935036,19.089676,403.86
          72.929604,19.089615,373.38
          72.92205,19.089491,335.28
          72.904976,19.089256,243.84
          72.889824,19.08902,167.64
          72.884476,19.088974,137.16
          72.879356,19.088884,106.68
          72.873566,19.088791,76.2
          72.867073,19.088745,60.96
          72.856461,19.090281,0
          72.859665,19.090328,0
          72.864014,19.090385,0
          72.865189,19.090405,0
          72.865746,19.090405,0
          72.86644,19.090416,0
          72.867264,19.090427,0
          72.868019,19.090851,0
          72.868309,19.091143,0
          72.868546,19.091305,0
          72.86882,19.091354,0
          72.869034,19.091341,0
          72.86924,19.091343,0
          72.869507,19.091352,0
          72.869743,19.091352,0
          72.870079,19.091352,0
          72.870316,19.091352,0
          72.870659,19.091366,0
          72.870926,19.091375,0
          72.87114,19.091364,0
          72.871407,19.091366,0
          72.871689,19.091377,0
          72.871902,19.091375,0
          72.872177,19.091377,0
          72.872787,19.091387,0
          72.873482,19.0914,0
          72.875908,19.091433,0
        </coordinates>
      </LineString>
    </Placemark>
  </Document>
</kml>