<?xml version='1.0' encoding='utf-8'?>
<kml xmlns="http://www.opengis.net/kml/2.2">
  <Document>
    <Placemark>
      <name>CI53-2024-12-07</name>
      <TimeStamp>
        <when>2024-12-07</when>
      </TimeStamp>
      <LineString>
        <altitudeMode>absolute</altitudeMode>
        <coordinates>
          153.11055,-27.404675,0
          153.110764,-27.404766,0
          153.110977,-27.404791,0
          153.111206,-27.404919,0
          153.111313,-27.405128,0
          153.111237,-27.405361,0
          153.111115,-27.405582,0
          153.110947,-27.40579,0
          153.111115,-27.40559,0
          153.111328,-27.405396,0
          153.111557,-27.40543,0
          153.111816,-27.405567,0
          153.112061,-27.405687,0
          153.112289,-27.405785,0
          153.112503,-27.405888,0
          153.112717,-27.405872,0
          153.11293,-27.405699,0
          153.113052,-27.405489,0
          153.113174,-27.405279,0
          153.113297,-27.405064,0
          153.113434,-27.404812,0
          153.113556,-27.404606,0
          153.113663,-27.404406,0
          153.1138,-27.404171,0
          153.113922,-27.403963,0
          153.114059,-27.403713,0
          153.114258,-27.40337,0
          153.114441,-27.403061,0
          153.114578,-27.402811,0
          153.1147,-27.40258,0
          153.114914,-27.402439,0
          153.115128,-27.402454,0
          153.115356,-27.402555,0
          153.11557,-27.402672,0
          153.115814,-27.402786,0
          153.116028,-27.402893,0
          153.116241,-27.402981,0
          153.116455,-27.40308,0
          153.116669,-27.403164,0
          153.116882,-27.40321,0
          153.117096,-27.403233,0
          153.117386,-27.403221,0
          153.11763,-27.40316,0
          153.11792,-27.403069,0
          153.118195,-27.402935,0
          153.118332,-27.402731,0
          153.118408,-27.402512,0
          153.118561,-27.402254,0
          153.118713,-27.401985,0
          153.118835,-27.401756,0
          153.119034,-27.401413,0
          153.119156,-27.401205,0
          153.119385,-27.400806,0
          153.119675,-27.400269,0
          153.120041,-27.399658,0
          153.120438,-27.39896,0
          153.122208,-27.395853,7.62
          153.125107,-27.390793,7.62
          153.12886,-27.384214,53.34
          153.132034,-27.378675,160.02
          153.135635,-27.372528,281.94
          153.138641,-27.368088,350.52
          153.14006,-27.366385,365.76
          153.141174,-27.365112,373.38
          153.142517,-27.363693,381
          153.143707,-27.362457,388.62
          153.144653,-27.361589,396.24
          153.146301,-27.359985,403.86
          153.147781,-27.35861,411.48
          153.149307,-27.357307,419.1
          153.150864,-27.355911,426.72
          153.152695,-27.354328,434.34
          153.154266,-27.353024,441.96
          153.156357,-27.351288,449.58
          153.158081,-27.349905,464.82
          153.159775,-27.348495,480.06
          153.161591,-27.347076,495.3
          153.163361,-27.345657,502.92
          153.165527,-27.343964,518.16
          153.167313,-27.34255,533.4
          153.169754,-27.340641,541.02
          153.177872,-27.334259,617.22
          153.185959,-27.327839,723.9
          153.193054,-27.322128,822.96
          153.201706,-27.315084,944.88
          153.208313,-27.309637,1043.94
          153.216812,-27.302561,1173.48
          153.225586,-27.295439,1295.4
          153.229904,-27.292414,1356.36
          153.232239,-27.291063,1386.84
          153.235184,-27.289581,1432.56
          153.23793,-27.288483,1478.28
          153.240524,-27.287613,1516.38
          153.243378,-27.286921,1562.1
          153.246078,-27.286407,1607.82
          153.248245,-27.286057,1638.3
          153.250992,-27.285803,1668.78
          153.25473,-27.285524,1714.5
          153.257462,-27.285416,1737.36
          153.262131,-27.285324,1775.46
          153.264984,-27.285292,1790.7
          153.267838,-27.285292,1813.56
          153.271606,-27.285233,1844.04
          153.274536,-27.285198,1874.52
          153.277206,-27.285187,1897.38
          153.279953,-27.285141,1927.86
          153.28363,-27.285057,1965.96
          153.286438,-27.285004,1996.44
          153.304367,-27.284271,2255.52
          153.321716,-27.283356,2514.6
          153.341156,-27.282394,2766.06
          153.357468,-27.281567,2964.18
          153.375107,-27.280655,3177.54
          153.395355,-27.28038,3276.6
          153.39798,-27.280682,3284.22
          153.401367,-27.281334,3299.46
          153.404007,-27.282032,3307.08
          153.406708,-27.282944,3314.7
          153.410019,-27.284359,3329.94
          153.412567,-27.285736,3345.18
          153.414825,-27.287153,3352.8
          153.417435,-27.288986,3368.04
          153.420059,-27.291018,3375.66
          153.423279,-27.293716,3390.9
          153.425629,-27.295761,3398.52
          153.427933,-27.297813,3406.14
          153.430237,-27.299881,3421.38
          153.432938,-27.302216,3429
          153.435059,-27.304144,3436.62
          153.437073,-27.305914,3444.24
          153.439819,-27.308241,3459.48
          153.442307,-27.310455,3467.1
          153.444672,-27.312431,3474.72
          153.46019,-27.325012,3535.68
          153.479675,-27.340027,3604.26
          153.498077,-27.353943,3657.6
          153.545074,-27.389923,3886.2
          153.553894,-27.398739,3962.4
          153.556122,-27.401392,3977.64
          153.558228,-27.404139,4000.5
          153.560287,-27.407118,4023.36
          153.562805,-27.411026,4046.22
          153.564468,-27.414101,4061.46
          153.566223,-27.417572,4084.32
          153.567795,-27.421129,4099.56
          153.569321,-27.425133,4114.8
          153.570572,-27.428833,4130.04
          153.571655,-27.432535,4145.28
          153.572433,-27.435974,4152.9
          153.57312,-27.439728,4168.14
          153.573944,-27.445267,4191
          153.574402,-27.449066,4206.24
          153.574829,-27.452774,4221.48
          153.575241,-27.456463,4244.34
          153.575775,-27.460886,4267.2
          153.576218,-27.465134,4297.68
          153.576553,-27.468102,4312.92
          153.576996,-27.471451,4335.78
          153.57756,-27.475504,4366.26
          153.582703,-27.496353,4488.18
          153.584106,-27.500082,4511.04
          153.585648,-27.503481,4526.28
          153.587448,-27.507158,4541.52
          153.589188,-27.510277,4556.76
          153.59166,-27.514343,4579.62
          153.593536,-27.51709,4602.48
          153.595764,-27.520157,4617.72
          153.598587,-27.523685,4640.58
          153.60112,-27.526571,4655.82
          153.604401,-27.530016,4678.68
          153.607101,-27.532608,4701.54
          153.609848,-27.53508,4716.78
          153.612961,-27.537689,4739.64
          153.616699,-27.540537,4762.5
          153.619965,-27.542816,4785.36
          153.623322,-27.545013,4800.6
          153.626587,-27.547007,4823.46
          153.630905,-27.549429,4846.32
          153.635406,-27.551662,4869.18
          153.638977,-27.553299,4892.04
          153.643005,-27.555061,4914.9
          153.647659,-27.557016,4937.76
          153.652298,-27.558926,4960.62
          153.655823,-27.560349,4975.86
          153.659698,-27.561905,4991.1
          153.664276,-27.563782,5013.96
          153.668045,-27.565384,5029.2
          153.672379,-27.567165,5044.44
          153.675964,-27.568701,5059.68
          153.680954,-27.570831,5074.92
          153.741531,-27.598022,5311.14
          153.803467,-27.625868,5608.32
          153.864212,-27.653147,5897.88
          153.926331,-27.681032,6149.34
          153.990875,-27.709801,6408.42
          154.058685,-27.739967,6598.92
          154.126007,-27.769821,6873.24
          154.191528,-27.798903,7132.32
          154.259186,-27.828873,7399.02
          154.327652,-27.859047,7894.32
          154.388855,-27.886187,8526.78
          154.445023,-27.910995,9136.38
          154.499893,-27.934975,9654.54
          154.551285,-27.957733,9723.12
          154.606796,-27.982178,9791.7
          154.663574,-28.007034,9867.9
          154.724716,-28.033804,9936.48
          154.784119,-28.05978,9989.82
          154.847443,-28.087372,10066.02
          154.913834,-28.116302,10126.98
          154.981003,-28.145529,10187.94
          155.051102,-28.175949,10248.9
          155.119034,-28.205397,10302.24
          155.191757,-28.236832,10401.3
          155.262695,-28.267365,10652.76
          155.33136,-28.297073,10972.8
          155.400665,-28.326965,11178.54
          155.467316,-28.355576,11330.94
          155.538406,-28.386017,11544.3
          155.606705,-28.415314,11734.8
          155.675186,-28.444954,11871.96
          155.739227,-28.479126,12016.74
          155.800507,-28.513962,12131.04
          155.864807,-28.54965,12230.1
          155.931381,-28.5867,12336.78
          155.99382,-28.62149,12397.74
          156.058685,-28.657608,12603.48
          156.119049,-28.691116,12763.5
          156.182541,-28.726318,12946.38
          156.242538,-28.759552,13045.44
          156.300903,-28.791916,13083.54
          156.362595,-28.826019,13106.4
          156.423386,-28.859573,13114.02
          156.487488,-28.89488,13106.4
          156.548981,-28.928679,13106.4
          156.61322,-28.963943,13106.4
          156.677399,-28.999054,13106.4
          156.740204,-29.033478,13106.4
          156.805496,-29.069126,13106.4
          156.869125,-29.103836,13106.4
          156.932053,-29.138117,13106.4
          156.998215,-29.174194,13106.4
          157.06456,-29.210175,13106.4
          157.126785,-29.243912,13106.4
          157.192383,-29.279449,13106.4
          157.257492,-29.314642,13106.4
          157.322174,-29.349556,13106.4
          157.391464,-29.386917,13106.4
          157.455353,-29.421247,13106.4
          157.526169,-29.459328,13106.4
          157.603775,-29.500931,13106.4
          157.715073,-29.560455,13106.4
          157.786835,-29.598797,13106.4
          157.89389,-29.655777,13106.4
          157.958893,-29.690319,13106.4
          158.025131,-29.72542,13106.4
          158.091736,-29.760727,13106.4
          158.15741,-29.795481,13106.4
          158.256531,-29.847748,13106.4
          158.326569,-29.884644,13114.02
          158.393127,-29.919662,13106.4
          158.460602,-29.955048,13106.4
          158.52533,-29.988968,13106.4
          158.597321,-30.026566,13106.4
          158.674469,-30.066813,13106.4
          158.768356,-30.115799,13106.4
          158.832581,-30.149185,13106.4
          158.925278,-30.197231,13106.4
          158.988113,-30.229805,13106.4
          159.082809,-30.278685,13106.4
          159.177673,-30.327629,13106.4
          159.209167,-30.343874,13106.4
          159.368057,-30.42552,13106.4
          159.432098,-30.458221,13106.4
          159.528351,-30.507423,13106.4
          159.625046,-30.556669,13106.4
          159.689941,-30.589714,13106.4
          159.754745,-30.622652,13106.4
          159.852127,-30.671982,13106.4
          159.94957,-30.721207,13106.4
          160.046768,-30.770237,13106.4
          160.144531,-30.819376,13106.4
          160.242157,-30.868406,13106.4
          160.340393,-30.917501,13106.4
          160.438629,-30.966576,13106.4
          160.504181,-30.999212,13106.4
          160.635712,-31.064529,13106.4
          160.668884,-31.080988,13106.4
          160.800934,-31.146347,13106.4
          160.900436,-31.1954,13106.4
          160.933441,-31.211643,13106.4
          161.066315,-31.276896,13106.4
          161.165543,-31.325497,13106.4
          161.265182,-31.374165,13106.4
          161.331787,-31.406651,13106.4
          161.36496,-31.422787,13106.4
          161.498764,-31.487761,13106.4
          161.599106,-31.53632,13106.4
          161.665573,-31.568462,13106.4
          161.76619,-31.616978,13106.4
          161.833542,-31.649401,13106.4
          161.909729,-31.685944,13106.4
          165.190262,-33.191002,13106.4
          165.782806,-33.448334,13106.4
          165.861206,-33.48209,13106.4
          165.941132,-33.516403,13106.4
          165.969955,-33.528782,13106.4
          166.114746,-33.590698,13106.4
          166.256393,-33.651031,13106.4
          168.245773,-34.472351,13106.4
          168.418518,-34.541389,13106.4
          168.614807,-34.619385,13106.4
          168.736099,-34.667404,13106.4
          168.809418,-34.696335,13106.4
          169.529404,-34.976933,13106.4
          169.611649,-35.008575,13106.4
          169.690536,-35.038845,13106.4
          169.769928,-35.069275,13106.4
          169.848404,-35.09927,13106.4
          169.933197,-35.131577,13106.4
          170.01355,-35.162117,13106.4
          170.093475,-35.192421,13106.4
          170.179794,-35.225052,13106.4
          170.25885,-35.254898,13106.4
          170.339981,-35.285385,13106.4
          170.421066,-35.315826,13106.4
          170.506531,-35.347858,13106.4
          170.588959,-35.378632,13106.4
          170.672318,-35.409668,13106.4
          170.754837,-35.440357,13106.4
          170.839157,-35.471596,13106.4
          170.919968,-35.50148,13106.4
          171.000671,-35.531181,13106.4
          171.079865,-35.560276,13106.4
          171.16243,-35.587231,13106.4
          171.246017,-35.615524,13114.02
          171.329391,-35.645096,13106.4
          171.40921,-35.67334,13106.4
          171.496109,-35.703842,13106.4
          171.576111,-35.731842,13106.4
          171.660675,-35.761288,13106.4
          171.747604,-35.791534,13030.2
          171.831497,-35.820648,12870.18
          171.919678,-35.851089,12702.54
          172.000458,-35.878922,12550.14
          172.083481,-35.907604,12397.74
          172.170013,-35.937302,12237.72
          172.257797,-35.96719,12077.7
          172.339783,-35.995148,11925.3
          172.425964,-36.024445,11757.66
          172.5103,-36.053127,11605.26
          172.597672,-36.082638,11445.24
          172.684311,-36.111877,11285.22
          172.773056,-36.141678,11117.58
          172.858246,-36.170296,10965.18
          172.943176,-36.198715,10805.16
          173.030869,-36.227974,10629.9
          173.119583,-36.257351,10210.8
          173.20607,-36.286072,9829.8
          173.28952,-36.313538,9502.14
          173.373581,-36.341263,9006.84
          173.459518,-36.369633,8557.26
          173.546051,-36.397984,8168.64
          173.631134,-36.425629,7787.64
          173.710846,-36.451614,7437.12
          173.795807,-36.479233,7048.5
          173.874893,-36.50473,6697.98
          173.955627,-36.530869,6332.22
          174.033569,-36.556046,5996.94
          174.110931,-36.580902,5699.76
          174.184967,-36.604523,5349.24
          174.256729,-36.627441,5151.12
          174.329742,-36.650757,4808.22
          174.39978,-36.673004,4480.56
          174.469559,-36.695126,4122.42
          174.535736,-36.71608,3909.06
          174.60022,-36.736588,3581.4
          174.625458,-36.744507,3436.62
          174.654465,-36.753571,3261.36
          174.684326,-36.762955,3124.2
          174.711548,-36.771519,2948.94
          174.738754,-36.780075,2819.4
          174.765182,-36.788372,2682.24
          174.791138,-36.796566,2583.18
          174.818954,-36.805271,2529.84
          174.845306,-36.813511,2476.5
          174.868912,-36.82082,2438.4
          174.891937,-36.827988,2400.3
          174.914795,-36.83511,2354.58
          174.937531,-36.842194,2278.38
          174.958496,-36.848701,2217.42
          174.979065,-36.855129,2125.98
          174.996262,-36.861504,1996.44
          174.998825,-36.86293,1965.96
          175.001572,-36.864761,1943.1
          175.003555,-36.866299,1920.24
          175.00531,-36.868011,1897.38
          175.007294,-36.870209,1874.52
          175.008621,-36.872025,1859.28
          175.010178,-36.874588,1828.8
          175.011505,-36.877167,1805.94
          175.012512,-36.879566,1783.08
          175.013336,-36.881569,1760.22
          175.01413,-36.883759,1737.36
          175.014893,-36.88591,1714.5
          175.015793,-36.888458,1691.64
          175.016571,-36.890553,1668.78
          175.017456,-36.893066,1645.92
          175.018341,-36.895477,1615.44
          175.018951,-36.897209,1600.2
          175.019974,-36.899826,1577.34
          175.020676,-36.901749,1554.48
          175.021622,-36.904083,1539.24
          175.022476,-36.906147,1524
          175.028214,-36.921185,1432.56
          175.028564,-36.923233,1424.94
          175.028687,-36.926514,1402.08
          175.028442,-36.928726,1394.46
          175.028091,-36.930588,1379.22
          175.027405,-36.932785,1363.98
          175.026703,-36.934433,1348.74
          175.025589,-36.936546,1318.26
          175.024689,-36.937992,1303.02
          175.023499,-36.939526,1280.16
          175.022263,-36.940933,1264.92
          175.02092,-36.942226,1242.06
          175.019516,-36.943451,1219.2
          175.017578,-36.944916,1196.34
          175.016006,-36.945969,1181.1
          175.014252,-36.947021,1158.24
          175.012207,-36.948093,1127.76
          175.010529,-36.948883,1104.9
          175.008347,-36.94986,1082.04
          175.006836,-36.950466,1066.8
          175.004745,-36.95126,1043.94
          175.002335,-36.952103,1021.08
          175.000519,-36.952698,1005.84
          174.998779,-36.953259,990.6
          174.996307,-36.953979,967.74
          174.994446,-36.954529,952.5
          174.992569,-36.955074,937.26
          174.990295,-36.955727,922.02
          174.988022,-36.956333,906.78
          174.985855,-36.956955,899.16
          174.983917,-36.957458,891.54
          174.981827,-36.958054,876.3
          174.97995,-36.958557,868.68
          174.978134,-36.959061,853.44
          174.976334,-36.959518,845.82
          174.968674,-36.961544,807.72
          174.963181,-36.96299,777.24
          174.955551,-36.965084,739.14
          174.949554,-36.966751,708.66
          174.943604,-36.968437,670.56
          174.937531,-36.970184,647.7
          174.931625,-36.971832,609.6
          174.925217,-36.973602,579.12
          174.920578,-36.974899,556.26
          174.914673,-36.976501,525.78
          174.91011,-36.977783,502.92
          174.903656,-36.979515,472.44
          174.898254,-36.981033,449.58
          174.893692,-36.982307,426.72
          174.88826,-36.983826,396.24
          174.884018,-36.985008,373.38
          174.87941,-36.986263,350.52
          174.873199,-36.987988,320.04
          174.868912,-36.989182,304.8
          174.863022,-36.990829,274.32
          174.857559,-36.992317,251.46
          174.851837,-36.993946,220.98
          174.84639,-36.995438,190.5
          174.840424,-36.997066,160.02
          174.836258,-36.998199,137.16
          174.831238,-36.99958,121.92
          174.826935,-37.00079,99.06
          174.820908,-37.002419,76.2
          174.814926,-37.004059,45.72
          174.810532,-37.005249,22.86
          174.804489,-37.006981,0
          174.800018,-37.008224,0
          174.795227,-37.009552,0
          174.791626,-37.010559,0
          174.788544,-37.011402,0
          174.786255,-37.012043,0
          174.784882,-37.012405,0
          174.784592,-37.01247,0
          174.784286,-37.012505,0
          174.784027,-37.012531,0
          174.783691,-37.012539,0
          174.783401,-37.01252,0
          174.783096,-37.012482,0
          174.782867,-37.012451,0
          174.782593,-37.012413,0
          174.782349,-37.012379,0
          174.782135,-37.012333,0
          174.781921,-37.01231,0
          174.781509,-37.012241,0
          174.781128,-37.012173,0
          174.780609,-37.0121,0
          174.780182,-37.012058,0
          174.779907,-37.012054,0
          174.779678,-37.012058,0
          174.779404,-37.012077,0
          174.779144,-37.012104,0
          174.778915,-37.01215,0
          174.778656,-37.012196,0
          174.778381,-37.012287,0
          174.778137,-37.012356,0
          174.777878,-37.012424,0
          174.777664,-37.012394,0
          174.777451,-37.012196,0
          174.777344,-37.011967,0
          174.777267,-37.011707,0
          174.777161,-37.011448,0
          174.777069,-37.011234,0
          174.776978,-37.011009,0
          174.776779,-37.010555,0
          174.776581,-37.01009,0
          174.776337,-37.009563,0
          174.776154,-37.009109,0
          174.775909,-37.008579,0
          174.775711,-37.008121,0
          174.775543,-37.00769,0
          174.775421,-37.007378,0
          174.775436,-37.007168,0
          174.775665,-37.006969,0
          174.775879,-37.006889,0
          174.776138,-37.00684,0
          174.77652,-37.006714,0
          174.776825,-37.006634,0
          174.777039,-37.006577,0
          174.777466,-37.006462,0
          174.778,-37.006317,0
          174.778488,-37.006176,0
          174.778885,-37.006073,0
          174.779175,-37.005993,0
          174.779465,-37.005909,0
          174.779694,-37.005886,0
          174.779922,-37.005913,0
          174.780151,-37.005993,0
          174.780472,-37.006142,0
          174.780731,-37.006256,0
          174.781296,-37.006504,0
          174.781509,-37.006596,0
          174.781723,-37.006691,0
        </coordinates>
      </LineString>
    </Placemark>
  </Document>
</kml>