<?xml version='1.0' encoding='utf-8'?>
<kml xmlns="http://www.opengis.net/kml/2.2">
  <Document>
    <Placemark>
      <name>DL1028-2026-07-30</name>
      <TimeStamp>
        <when>2026-07-30</when>
      </TimeStamp>
      <LineString>
        <altitudeMode>absolute</altitudeMode>
        <coordinates>
          -93.207047,44.879208,0
          -93.207253,44.878922,0
          -93.207436,44.878708,0
          -93.207504,44.878487,0
          -93.20771,44.87851,0
          -93.207924,44.878567,0
          -93.208153,44.878647,0
          -93.208466,44.878761,0
          -93.208893,44.878922,0
          -93.209198,44.879047,0
          -93.209534,44.879185,0
          -93.209801,44.879303,0
          -93.210182,44.879463,0
          -93.210823,44.879745,0
          -93.21154,44.880013,0
          -93.212013,44.880116,0
          -93.212242,44.880138,0
          -93.212547,44.88015,0
          -93.212967,44.880161,0
          -93.2136,44.880238,0
          -93.21405,44.880394,0
          -93.214417,44.880581,0
          -93.214653,44.880791,0
          -93.21479,44.881027,0
          -93.21492,44.881245,0
          -93.215096,44.881573,0
          -93.215225,44.881794,0
          -93.216064,44.882263,0
          -93.216522,44.882462,0
          -93.216743,44.882549,0
          -93.217148,44.882721,0
          -93.217438,44.882858,0
          -93.217682,44.882961,0
          -93.217979,44.883091,0
          -93.218224,44.883179,0
          -93.218452,44.88327,0
          -93.218689,44.883362,0
          -93.218925,44.883457,0
          -93.219193,44.883579,0
          -93.21965,44.883747,0
          -93.219933,44.883747,0
          -93.220146,44.883644,0
          -93.220352,44.883492,0
          -93.220589,44.883282,0
          -93.220825,44.883041,0
          -93.221024,44.882805,0
          -93.221306,44.882549,0
          -93.221588,44.882339,0
          -93.221809,44.882195,0
          -93.222069,44.882,0
          -93.222313,44.881828,0
          -93.22258,44.881699,0
          -93.222809,44.881664,0
          -93.223045,44.881691,0
          -93.223312,44.881805,0
          -93.223602,44.881931,0
          -93.223915,44.882072,0
          -93.224121,44.882164,0
          -93.224419,44.882294,0
          -93.224754,44.882442,0
          -93.225433,44.882744,0
          -93.225998,44.88298,0
          -93.226662,44.88327,0
          -93.227318,44.883549,0
          -93.228073,44.883888,0
          -93.228851,44.88422,0
          -93.229324,44.884392,0
          -93.22963,44.88448,0
          -93.229912,44.884541,0
          -93.230431,44.884598,0
          -93.230667,44.884609,0
          -93.230949,44.884644,0
          -93.231239,44.884701,0
          -93.231537,44.884769,0
          -93.231911,44.884907,0
          -93.23217,44.885021,0
          -93.232391,44.885109,0
          -93.232674,44.885239,0
          -93.233025,44.885376,0
          -93.23333,44.885517,0
          -93.233597,44.885632,0
          -93.233841,44.885742,0
          -93.234558,44.886017,0
          -93.234871,44.886108,0
          -93.235199,44.886189,0
          -93.235458,44.886261,0
          -93.235832,44.886395,0
          -93.236107,44.886517,0
          -93.236389,44.886635,0
          -93.236649,44.886738,0
          -93.236961,44.886879,0
          -93.237251,44.887005,0
          -93.237564,44.887138,0
          -93.237877,44.887276,0
          -93.23877,44.887646,0
          -93.239059,44.887753,0
          -93.239365,44.887836,0
          -93.239609,44.887878,0
          -93.239937,44.887905,0
          -93.240181,44.887894,0
          -93.240395,44.887871,0
          -93.240601,44.887844,0
          -93.240822,44.887814,0
          -93.241035,44.887779,0
          -93.241272,44.887741,0
          -93.241539,44.887699,0
          -93.241806,44.887646,0
          -93.242073,44.887482,0
          -93.242157,44.887203,0
          -93.242073,44.886993,0
          -93.241989,44.886726,0
          -93.241905,44.886391,0
          -93.241791,44.88596,0
          -93.241737,44.885719,0
          -93.241638,44.885353,0
          -93.241585,44.885124,0
          -93.241508,44.884827,0
          -93.241371,44.884354,0
          -93.24128,44.88398,0
          -93.24115,44.883453,0
          -93.241051,44.883106,0
          -93.240829,44.882175,259.08
          -93.240562,44.881245,259.08
          -93.240295,44.880222,259.08
          -93.239899,44.878777,259.08
          -93.239594,44.877548,259.08
          -93.239288,44.876263,259.08
          -93.238892,44.874866,259.08
          -93.238548,44.87352,251.46
          -93.23822,44.872028,251.46
          -93.237694,44.870041,266.7
          -93.237282,44.868584,289.56
          -93.236816,44.866768,312.42
          -93.235344,44.861023,441.96
          -93.23333,44.854988,556.26
          -93.232468,44.853653,586.74
          -93.231384,44.852337,617.22
          -93.230507,44.85141,632.46
          -93.229134,44.850174,655.32
          -93.227501,44.848797,678.18
          -93.22612,44.847702,693.42
          -93.224747,44.846603,701.04
          -93.223312,44.845459,708.66
          -93.221672,44.844143,723.9
          -93.2202,44.843025,731.52
          -93.218536,44.841705,739.14
          -93.217094,44.840561,746.76
          -93.215462,44.839371,746.76
          -93.213966,44.83823,754.38
          -93.212517,44.837082,762
          -93.210892,44.835812,762
          -93.209282,44.834507,769.62
          -93.204193,44.830551,784.86
          -93.197159,44.825008,815.34
          -93.189697,44.819046,868.68
          -93.184425,44.814816,906.78
          -93.176659,44.80867,937.26
          -93.170563,44.803783,967.74
          -93.1623,44.797119,998.22
          -93.155563,44.791718,1005.84
          -93.146469,44.784348,1051.56
          -93.137535,44.777153,1097.28
          -93.130386,44.771301,1143
          -93.120445,44.763199,1226.82
          -93.113449,44.757523,1287.78
          -93.103371,44.749454,1402.08
          -93.095329,44.743076,1493.52
          -93.085548,44.735119,1623.06
          -93.079659,44.729019,1722.12
          -93.07798,44.726879,1752.6
          -93.076172,44.724335,1790.7
          -93.074829,44.721989,1813.56
          -93.07383,44.719803,1836.42
          -93.072556,44.716778,1874.52
          -93.071526,44.713852,1897.38
          -93.070747,44.711746,1920.24
          -93.069878,44.709282,1943.1
          -93.069046,44.706848,1965.96
          -93.068199,44.704391,1981.2
          -93.067406,44.702087,2004.06
          -93.06636,44.698929,2026.92
          -93.065521,44.696621,2049.78
          -93.06472,44.694199,2065.02
          -93.063843,44.691498,2087.88
          -93.063042,44.689079,2110.74
          -93.057991,44.673431,2240.28
          -93.052994,44.658119,2377.44
          -93.046967,44.639824,2552.7
          -93.041069,44.621811,2689.86
          -93.035629,44.605225,2811.78
          -93.029213,44.586197,2956.56
          -93.023186,44.567902,3086.1
          -93.017647,44.550705,3169.92
          -93.011368,44.531387,3246.12
          -93.005417,44.51326,3307.08
          -92.999199,44.494209,3375.66
          -92.993103,44.475216,3429
          -92.986,44.453011,3497.58
          -92.979584,44.433151,3566.16
          -92.972786,44.412094,3665.22
          -92.956108,44.360321,3924.3
          -92.93824,44.305813,4221.48
          -92.917984,44.252655,4549.14
          -92.914261,44.246597,4572
          -92.911636,44.242584,4594.86
          -92.909431,44.239384,4610.1
          -92.907356,44.236309,4625.34
          -92.904709,44.232468,4648.2
          -92.902466,44.229282,4663.44
          -92.90052,44.226425,4678.68
          -92.898178,44.223042,4701.54
          -92.896011,44.219879,4716.78
          -92.860855,44.168976,4953
          -92.826622,44.119232,5158.74
          -92.789886,44.065704,5356.86
          -92.752586,44.011368,5585.46
          -92.715607,43.957443,5783.58
          -92.678963,43.905418,5920.74
          -92.638763,43.848633,6134.1
          -92.598137,43.790897,6301.74
          -92.560776,43.737671,6484.62
          -92.520706,43.680386,6576.06
          -92.47876,43.620392,6659.88
          -92.436218,43.559486,6766.56
          -92.393448,43.498039,6880.86
          -92.349289,43.434448,7002.78
          -92.307587,43.374443,7139.94
          -92.263184,43.310154,7261.86
          -92.220871,43.24889,7345.68
          -92.176598,43.184464,7414.26
          -92.132309,43.120056,7513.32
          -92.087151,43.053909,7612.38
          -92.042564,42.988541,7703.82
          -91.996956,42.921753,7863.84
          -91.951859,42.855423,7932.42
          -91.906815,42.789047,8008.62
          -91.863266,42.724621,8077.2
          -91.818047,42.657677,8199.12
          -91.773209,42.591156,8313.42
          -91.729134,42.525375,8458.2
          -91.686523,42.461838,8602.98
          -91.642891,42.396515,8702.04
          -91.600685,42.333347,8808.72
          -91.557442,42.268456,8923.02
          -91.512154,42.200069,8999.22
          -91.467926,42.133255,9083.04
          -91.423668,42.066193,9182.1
          -91.380348,42.000504,9288.78
          -91.336563,41.933884,9380.22
          -91.292328,41.866425,9486.9
          -91.248993,41.800278,9631.68
          -91.204315,41.731796,9776.46
          -91.15519,41.668167,9928.86
          -91.100548,41.61137,10050.78
          -91.04364,41.552582,10172.7
          -90.985771,41.492798,10317.48
          -90.927895,41.433773,10447.02
          -90.874023,41.374695,10523.22
          -90.820732,41.313622,10622.28
          -90.768982,41.254269,10668
          -90.715294,41.192493,10668
          -90.662231,41.131348,10668
          -90.608864,41.069828,10668
          -90.556458,41.009171,10668
          -90.504089,40.948334,10660.38
          -90.452751,40.888691,10660.38
          -90.399353,40.826523,10652.76
          -90.34832,40.76696,10660.38
          -90.295448,40.704998,10660.38
          -90.243286,40.643829,10668
          -90.190765,40.5821,10668
          -90.137894,40.519951,10675.62
          -90.086578,40.459343,10675.62
          -90.036987,40.400665,10675.62
          -89.984985,40.33905,10675.62
          -89.933395,40.277649,10675.62
          -89.880333,40.214382,10675.62
          -89.828857,40.153015,10675.62
          -89.777214,40.09116,10668
          -89.725769,40.029602,10668
          -89.673279,39.966476,10660.38
          -89.621765,39.904438,10660.38
          -89.569382,39.841187,10668
          -89.518211,39.779205,10668
          -89.466309,39.716415,10675.62
          -89.415039,39.654327,10683.24
          -89.364044,39.592026,10675.62
          -89.312759,39.529404,10668
          -89.26178,39.467175,10668
          -89.211372,39.405396,10660.38
          -89.161697,39.344376,10660.38
          -89.111305,39.282349,10660.38
          -89.059937,39.21891,10660.38
          -89.009079,39.156006,10668
          -88.958618,39.093544,10660.38
          -88.908234,39.031036,10668
          -88.857422,38.967899,10668
          -88.806015,38.903961,10668
          -88.754547,38.8396,10668
          -88.703979,38.776154,10675.62
          -88.6521,38.711117,10675.62
          -88.602539,38.648785,10675.62
          -88.552673,38.585892,10683.24
          -88.501465,38.521233,10675.62
          -88.453857,38.46104,10668
          -88.403244,38.396805,10668
          -88.352867,38.332993,10660.38
          -88.302017,38.268269,10652.76
          -88.250191,38.202118,10660.38
          -88.199913,38.13792,10660.38
          -88.149445,38.073349,10668
          -88.098351,38.007668,10668
          -88.047005,37.941559,10668
          -87.999084,37.880035,10675.62
          -87.94976,37.816177,10668
          -87.899628,37.751312,10668
          -87.849426,37.686176,10668
          -87.800583,37.622635,10675.62
          -87.751747,37.559044,10668
          -87.703018,37.495407,10660.38
          -87.653938,37.43121,10660.38
          -87.604858,37.366875,10660.38
          -87.557175,37.304398,10660.38
          -87.507774,37.239323,10668
          -87.459648,37.175732,10675.62
          -87.410927,37.111443,10668
          -87.363106,37.048134,10668
          -87.315216,36.984497,10668
          -87.267563,36.921249,10668
          -87.219872,36.857758,10668
          -87.172333,36.794449,10660.38
          -87.126259,36.732929,10660.38
          -87.0793,36.669983,10660.38
          -87.032944,36.607681,10660.38
          -86.986938,36.545834,10660.38
          -86.940826,36.483719,10668
          -86.894608,36.421402,10668
          -86.848503,36.359112,10668
          -86.801773,36.295944,10668
          -86.755348,36.232819,10668
          -86.70874,36.169418,10668
          -86.662155,36.105423,10568.94
          -86.616447,36.040276,10424.16
          -86.571449,35.975986,10149.84
          -86.527061,35.912842,10058.4
          -86.484261,35.851601,10058.4
          -86.441658,35.790989,10058.4
          -86.397919,35.728455,10058.4
          -86.353996,35.666508,10058.4
          -86.311455,35.606548,10058.4
          -86.266823,35.543564,10058.4
          -86.223221,35.48172,10058.4
          -86.176056,35.420761,10058.4
          -86.122513,35.364212,10058.4
          -86.066666,35.306488,10058.4
          -86.015511,35.253616,9906
          -85.959778,35.195572,9502.14
          -85.904457,35.137711,9044.94
          -85.849457,35.080231,8526.78
          -85.793724,35.021481,8252.46
          -85.73983,34.964722,7924.8
          -85.69136,34.913761,7574.28
          -85.639511,34.859108,7322.82
          -85.58773,34.804176,7307.58
          -85.535736,34.749298,7162.8
          -85.484283,34.69487,7010.4
          -85.435295,34.642731,6850.38
          -85.384766,34.589245,6705.6
          -85.335747,34.53717,6438.9
          -85.289223,34.487503,6126.48
          -85.243034,34.438065,5814.06
          -85.200005,34.392094,5539.74
          -85.156319,34.345322,5257.8
          -85.112915,34.298759,4975.86
          -85.071716,34.254532,4709.16
          -85.032776,34.212708,4450.08
          -84.990791,34.167572,4122.42
          -84.949654,34.123352,3863.34
          -84.906982,34.078613,3657.6
          -84.865204,34.034527,3649.98
          -84.848038,34.016418,3649.98
          -84.831909,33.999287,3657.6
          -84.789848,33.954666,3649.98
          -84.772964,33.936768,3649.98
          -84.756775,33.919601,3649.98
          -84.736649,33.89827,3649.98
          -84.719894,33.880417,3649.98
          -84.703583,33.86293,3649.98
          -84.686737,33.844967,3649.98
          -84.668427,33.825508,3649.98
          -84.652519,33.808456,3657.6
          -84.616478,33.770004,3649.98
          -84.602348,33.75499,3649.98
          -84.589851,33.744461,3627.12
          -84.587006,33.742599,3611.88
          -84.583511,33.740597,3596.64
          -84.580368,33.738968,3581.4
          -84.576935,33.737476,3558.54
          -84.573784,33.736313,3535.68
          -84.570457,33.73526,3512.82
          -84.566689,33.73431,3489.96
          -84.563309,33.733662,3467.1
          -84.559937,33.733196,3444.24
          -84.556557,33.732925,3421.38
          -84.552971,33.732788,3390.9
          -84.549294,33.732731,3375.66
          -84.546127,33.732742,3352.8
          -84.542831,33.732777,3329.94
          -84.539513,33.732788,3314.7
          -84.536018,33.732868,3291.84
          -84.532509,33.732925,3268.98
          -84.528755,33.732971,3246.12
          -84.525261,33.733055,3230.88
          -84.521194,33.733101,3208.02
          -84.517876,33.733109,3185.16
          -84.514221,33.733147,3169.92
          -84.510841,33.733196,3147.06
          -84.487267,33.733288,3002.28
          -84.466026,33.733292,2880.36
          -84.441086,33.733292,2735.58
          -84.42057,33.733246,2628.9
          -84.395828,33.733147,2499.36
          -84.375557,33.733063,2385.06
          -84.354485,33.733017,2247.9
          -84.331612,33.732971,2103.12
          -84.308105,33.732964,1973.58
          -84.285484,33.733017,1851.66
          -84.266037,33.733063,1729.74
          -84.244904,33.733109,1600.2
          -84.224686,33.733101,1531.62
          -84.20578,33.733109,1516.38
          -84.192772,33.733109,1516.38
          -84.179596,33.733147,1516.38
          -84.167381,33.733154,1516.38
          -84.154266,33.733154,1516.38
          -84.141083,33.733147,1516.38
          -84.131989,33.733147,1516.38
          -84.118423,33.733147,1516.38
          -84.105316,33.733196,1516.38
          -84.095238,33.7332,1516.38
          -84.083061,33.733196,1516.38
          -84.069733,33.733196,1516.38
          -84.060432,33.7332,1516.38
          -84.047768,33.7332,1516.38
          -84.038544,33.733196,1516.38
          -84.026237,33.7332,1516.38
          -84.015137,33.733242,1516.38
          -84.006508,33.7332,1516.38
          -83.995468,33.7332,1516.38
          -83.984756,33.733101,1524
          -83.979607,33.732731,1516.38
          -83.976685,33.732311,1516.38
          -83.973656,33.731659,1516.38
          -83.971588,33.731094,1516.38
          -83.968903,33.730167,1516.38
          -83.96656,33.729191,1516.38
          -83.964272,33.728119,1516.38
          -83.962173,33.726929,1516.38
          -83.959984,33.72551,1516.38
          -83.95797,33.723953,1516.38
          -83.95578,33.722076,1516.38
          -83.954216,33.720428,1516.38
          -83.952698,33.718643,1516.38
          -83.951019,33.716171,1516.38
          -83.949837,33.714203,1516.38
          -83.948776,33.71196,1516.38
          -83.947823,33.709488,1516.38
          -83.947205,33.707245,1516.38
          -83.946701,33.705185,1516.38
          -83.946251,33.702942,1516.38
          -83.945862,33.700653,1516.38
          -83.945618,33.69907,1516.38
          -83.94519,33.696304,1516.38
          -83.944855,33.693695,1516.38
          -83.944626,33.691635,1516.38
          -83.944344,33.689346,1516.38
          -83.944176,33.687286,1516.38
          -83.944122,33.685547,1516.38
          -83.944176,33.682709,1516.38
          -83.944405,33.680695,1516.38
          -83.944931,33.678123,1516.38
          -83.945557,33.676075,1516.38
          -83.946365,33.674149,1516.38
          -83.947319,33.67218,1516.38
          -83.948593,33.670258,1516.38
          -83.95018,33.668152,1516.38
          -83.951523,33.666733,1516.38
          -83.953537,33.664856,1516.38
          -83.95517,33.663692,1516.38
          -83.956894,33.662575,1524
          -83.958725,33.661598,1524
          -83.96077,33.660461,1524
          -83.962723,33.659409,1524
          -83.964615,33.65834,1524
          -83.966377,33.657349,1524
          -83.968163,33.656384,1524
          -83.970016,33.655426,1524
          -83.972397,33.654289,1516.38
          -83.974449,33.653412,1516.38
          -83.976173,33.652798,1516.38
          -83.978203,33.65213,1516.38
          -83.980782,33.651443,1516.38
          -83.982811,33.650982,1516.38
          -83.984818,33.650612,1516.38
          -83.986893,33.650299,1516.38
          -83.988937,33.650051,1516.38
          -83.991035,33.649841,1516.38
          -83.993225,33.649681,1516.38
          -83.995399,33.649586,1516.38
          -83.998047,33.649429,1516.38
          -84.000031,33.649353,1516.38
          -84.002304,33.649246,1516.38
          -84.004662,33.649155,1516.38
          -84.00679,33.649063,1516.38
          -84.009361,33.648983,1516.38
          -84.011307,33.648933,1516.38
          -84.013458,33.64888,1516.38
          -84.016037,33.64888,1516.38
          -84.01828,33.648834,1516.38
          -84.020409,33.648834,1516.38
          -84.02269,33.648842,1516.38
          -84.025101,33.648842,1516.38
          -84.026756,33.648842,1516.38
          -84.028931,33.648842,1516.38
          -84.031624,33.648834,1516.38
          -84.033852,33.648842,1516.38
          -84.036102,33.648834,1516.38
          -84.038292,33.648834,1516.38
          -84.040375,33.648842,1516.38
          -84.049011,33.648888,1516.38
          -84.058113,33.648888,1516.38
          -84.064751,33.648933,1516.38
          -84.07383,33.649063,1516.38
          -84.083305,33.6492,1516.38
          -84.090195,33.649246,1516.38
          -84.099312,33.649216,1516.38
          -84.108185,33.64912,1516.38
          -84.115051,33.64912,1516.38
          -84.124054,33.649109,1516.38
          -84.132904,33.649029,1516.38
          -84.142288,33.649029,1516.38
          -84.148712,33.649063,1516.38
          -84.157906,33.649155,1493.52
          -84.166946,33.649261,1455.42
          -84.173698,33.649353,1424.94
          -84.18222,33.649399,1386.84
          -84.191208,33.649448,1348.74
          -84.199554,33.649429,1303.02
          -84.208374,33.649448,1257.3
          -84.214844,33.649399,1219.2
          -84.223648,33.649399,1181.1
          -84.230003,33.649399,1150.62
          -84.238586,33.649353,1112.52
          -84.247055,33.649353,1082.04
          -84.255775,33.649429,1036.32
          -84.264565,33.649448,990.6
          -84.273209,33.649475,944.88
          -84.281784,33.649494,906.78
          -84.288139,33.649494,876.3
          -84.296921,33.649475,830.58
          -84.305161,33.649475,792.48
          -84.311378,33.649475,762
          -84.319954,33.649475,716.28
          -84.327789,33.649448,678.18
          -84.333298,33.649475,655.32
          -84.340469,33.649521,617.22
          -84.347366,33.649494,586.74
          -84.354172,33.649494,556.26
          -84.359474,33.649521,533.4
          -84.366089,33.649521,502.92
          -84.372879,33.64954,472.44
          -84.379639,33.64954,441.96
          -84.38633,33.64954,411.48
          -84.392937,33.649521,381
          -84.399216,33.649521,350.52
          -84.404587,33.64954,320.04
          -84.406242,33.64954,312.42
          -84.407791,33.64954,312.42
          -84.40947,33.649567,304.8
          -84.411095,33.649567,289.56
          -84.413063,33.649521,281.94
          -84.414856,33.649521,281.94
          -84.416145,33.649521,281.94
          -84.41774,33.64954,281.94
          -84.419678,33.649567,281.94
          -84.425056,33.649567,281.94
          -84.429329,33.64954,0
          -84.430702,33.649494,0
          -84.430977,33.64946,0
          -84.431221,33.649426,0
          -84.431435,33.649384,0
          -84.431839,33.649281,0
          -84.432205,33.649132,0
          -84.432442,33.649017,0
          -84.432724,33.648888,0
          -84.433037,33.648739,0
          -84.433266,33.648643,0
          -84.433563,33.648552,0
          -84.433838,33.648502,0
          -84.434082,33.648468,0
          -84.434326,33.648445,0
          -84.434654,33.648445,0
          -84.434875,33.648445,0
          -84.435158,33.648445,0
          -84.43544,33.648445,0
          -84.435776,33.648445,0
          -84.435997,33.648445,0
          -84.436211,33.648445,0
          -84.436996,33.648434,0
          -84.437775,33.648422,0
          -84.438118,33.648342,0
          -84.438354,33.648262,0
          -84.438622,33.648159,0
          -84.438904,33.648064,0
          -84.439148,33.64798,0
          -84.439362,33.647919,0
          -84.439613,33.647873,0
          -84.439842,33.647861,0
          -84.440186,33.64785,0
          -84.440575,33.647842,0
          -84.440788,33.647839,0
          -84.441048,33.647842,0
          -84.441292,33.647854,0
          -84.441574,33.64785,0
          -84.441818,33.647842,0
          -84.442078,33.647842,0
          -84.442474,33.647804,0
          -84.442795,33.647667,0
          -84.443039,33.647457,0
          -84.44323,33.647175,0
          -84.443291,33.6469,0
          -84.443275,33.646679,0
          -84.44323,33.646454,0
          -84.443077,33.646156,0
          -84.44278,33.645893,0
          -84.442574,33.645802,0
          -84.442238,33.645767,0
          -84.442032,33.64576,0
          -84.441818,33.64576,0
          -84.441559,33.645721,0
          -84.441292,33.645618,0
          -84.441032,33.64547,0
          -84.440773,33.645329,0
          -84.440567,33.645069,0
          -84.440498,33.644863,0
          -84.440414,33.644634,0
          -84.440186,33.644409,0
          -84.439964,33.644325,0
          -84.439743,33.644302,0
          -84.439491,33.644325,0
          -84.439194,33.64436,0
          -84.438972,33.644386,0
          -84.438713,33.644421,0
          -84.438477,33.644451,0
          -84.438141,33.644489,0
          -84.437866,33.64452,0
          -84.437141,33.644581,0
          -84.436928,33.644588,0
          -84.436653,33.644592,0
          -84.43644,33.644592,0
          -84.436142,33.6446,0
          -84.435814,33.644592,0
          -84.435555,33.644592,0
          -84.435257,33.6446,0
          -84.434952,33.644608,0
          -84.434052,33.6446,0
          -84.433281,33.6446,0
          -84.432549,33.644608,0
          -84.431862,33.644581,0
          -84.431602,33.644512,0
          -84.431358,33.644245,0
          -84.431305,33.644035,0
          -84.431305,33.643833,0
          -84.431305,33.643581,0
          -84.43129,33.643375,0
          -84.431305,33.643162,0
          -84.431305,33.642872,0
          -84.43129,33.642628,0
          -84.431274,33.642151,0
          -84.431221,33.641907,0
          -84.43087,33.640984,0
          -84.430779,33.640755,0
          -84.430664,33.640366,0
          -84.430649,33.64016,0
          -84.430649,33.639828,0
          -84.430649,33.639565,0
          -84.430634,33.639359,0
          -84.430466,33.639153,0
          -84.430229,33.639088,0
          -84.429993,33.639019,0
          -84.429787,33.638962,0
        </coordinates>
      </LineString>
    </Placemark>
  </Document>
</kml>