<?xml version='1.0' encoding='utf-8'?>
<kml xmlns="http://www.opengis.net/kml/2.2">
  <Document>
    <Placemark>
      <name>DL11-2025-12-04</name>
      <TimeStamp>
        <when>2025-12-04</when>
      </TimeStamp>
      <LineString>
        <altitudeMode>absolute</altitudeMode>
        <coordinates>
          -118.407913,33.946056,0
          -118.408134,33.946095,0
          -118.40834,33.946182,0
          -118.408554,33.946289,0
          -118.408768,33.946289,0
          -118.408981,33.946182,0
          -118.40905,33.946404,0
          -118.409073,33.946621,0
          -118.409119,33.946827,0
          -118.409142,33.947044,0
          -118.409157,33.947273,0
          -118.409073,33.947521,0
          -118.408905,33.947731,0
          -118.408875,33.947952,0
          -118.409042,33.948174,0
          -118.409256,33.948254,0
          -118.409508,33.94828,0
          -118.409737,33.948269,0
          -118.409973,33.948257,0
          -118.410194,33.948235,0
          -118.410431,33.948208,0
          -118.410675,33.948185,0
          -118.41095,33.948154,0
          -118.411179,33.948132,0
          -118.4114,33.948109,0
          -118.411659,33.948078,0
          -118.411919,33.948063,0
          -118.412216,33.948029,0
          -118.412491,33.947998,0
          -118.412704,33.947906,0
          -118.412918,33.947685,0
          -118.412956,33.947468,0
          -118.412918,33.947262,0
          -118.412872,33.947056,0
          -118.412834,33.946804,0
          -118.412804,33.946541,0
          -118.41275,33.946205,0
          -118.41272,33.945992,0
          -118.412659,33.945648,0
          -118.412636,33.945396,0
          -118.41259,33.945137,0
          -118.412544,33.944786,0
          -118.412483,33.944412,0
          -118.412437,33.944046,0
          -118.412361,33.943611,0
          -118.412338,33.943371,0
          -118.412308,33.943169,0
          -118.412277,33.942947,0
          -118.412369,33.942741,0
          -118.412636,33.942585,0
          -118.412888,33.94249,0
          -118.413086,33.942261,0
          -118.413109,33.94202,0
          -118.413101,33.941818,0
          -118.413063,33.941563,0
          -118.41301,33.941299,0
          -118.412994,33.941097,0
          -118.412949,33.940819,0
          -118.412903,33.940418,0
          -118.412857,33.940189,0
          -118.412834,33.939972,0
          -118.412788,33.939713,0
          -118.412766,33.939491,0
          -118.41272,33.939262,0
          -118.412689,33.939049,0
          -118.412643,33.938805,0
          -118.412605,33.938519,0
          -118.412575,33.938255,0
          -118.412537,33.938004,0
          -118.412491,33.93779,0
          -118.412247,33.93758,0
          -118.412033,33.937569,0
          -118.411774,33.937584,0
          -118.411514,33.937618,0
          -118.411285,33.937641,0
          -118.411034,33.937664,0
          -118.410774,33.937695,0
          -118.410515,33.937717,0
          -118.410057,33.937767,0
          -118.409622,33.937809,0
          -118.409157,33.937851,0
          -118.408585,33.937912,0
          -118.408043,33.937965,0
          -118.407509,33.938023,0
          -118.40699,33.938072,0
          -118.406281,33.938141,0
          -118.405922,33.938187,0
          -118.405685,33.93821,0
          -118.40535,33.938244,0
          -118.404549,33.938324,0
          -118.404198,33.93837,0
          -118.403511,33.938427,0
          -118.403275,33.938454,0
          -118.402992,33.938484,0
          -118.40274,33.938507,0
          -118.402504,33.93853,0
          -118.402222,33.938564,0
          -118.401932,33.938595,0
          -118.401688,33.938622,0
          -118.40136,33.938652,0
          -118.401016,33.938686,0
          -118.400681,33.938725,0
          -118.40036,33.938759,0
          -118.400116,33.938782,0
          -118.399788,33.938816,0
          -118.399437,33.93885,0
          -118.39904,33.938896,0
          -118.398727,33.938919,0
          -118.398369,33.938965,0
          -118.39814,33.93898,0
          -118.397911,33.939014,0
          -118.397598,33.939034,0
          -118.397278,33.939068,0
          -118.396973,33.939106,0
          -118.396614,33.93914,0
          -118.396255,33.939178,0
          -118.396011,33.939205,0
          -118.395699,33.939236,0
          -118.39534,33.93927,0
          -118.395088,33.939297,0
          -118.394836,33.93932,0
          -118.394119,33.939384,0
          -118.393867,33.939411,0
          -118.393578,33.939445,0
          -118.393311,33.939468,0
          -118.393036,33.939503,0
          -118.392776,33.939526,0
          -118.39257,33.939548,0
          -118.392342,33.939571,0
          -118.392136,33.939594,0
          -118.391167,33.939697,0
          -118.3908,33.939735,0
          -118.39048,33.939766,0
          -118.390205,33.939793,0
          -118.389984,33.939816,0
          -118.38974,33.939846,0
          -118.389503,33.939865,0
          -118.389229,33.939899,0
          -118.388809,33.939938,0
          -118.388519,33.939972,0
          -118.388268,33.939995,0
          -118.388,33.940014,0
          -118.387703,33.940052,0
          -118.387466,33.940075,0
          -118.387238,33.940098,0
          -118.386848,33.940144,0
          -118.386597,33.940166,0
          -118.38636,33.940189,0
          -118.386024,33.940224,0
          -118.385811,33.940247,0
          -118.385536,33.940269,0
          -118.385323,33.940292,0
          -118.385109,33.940319,0
          -118.384842,33.940342,0
          -118.384583,33.940361,0
          -118.38427,33.940395,0
          -118.38401,33.940422,0
          -118.383682,33.940456,0
          -118.383392,33.940487,0
          -118.383041,33.940521,0
          -118.38282,33.940552,0
          -118.382607,33.940567,0
          -118.382309,33.940601,0
          -118.381805,33.940647,0
          -118.381454,33.940681,0
          -118.381149,33.940723,0
          -118.380905,33.940746,0
          -118.380676,33.940758,0
          -118.380402,33.940784,0
          -118.38018,33.940693,0
          -118.380035,33.940468,0
          -118.379997,33.940224,0
          -118.380043,33.940014,0
          -118.380272,33.939827,0
          -118.380478,33.939781,0
          -118.380699,33.939789,0
          -118.380951,33.939766,0
          -118.381187,33.939743,0
          -118.381676,33.939701,0
          -118.382172,33.939651,0
          -118.382446,33.939617,0
          -118.38311,33.93956,0
          -118.38343,33.939526,0
          -118.383835,33.93948,0
          -118.384338,33.939434,0
          -118.384949,33.939362,0
          -118.385567,33.939304,0
          -118.386307,33.939228,0
          -118.386864,33.939171,0
          -118.387085,33.93914,0
          -118.388557,33.939003,0
          -118.389793,33.938873,0
          -118.390846,33.93877,0
          -118.392708,33.938553,0
          -118.394218,33.938416,0
          -118.39579,33.938278,0
          -118.397598,33.938072,0
          -118.39949,33.937866,0
          -118.401199,33.937698,0
          -118.403412,33.937454,0
          -118.411499,33.936626,38.1
          -118.417625,33.935978,129.54
          -118.425293,33.935093,236.22
          -118.433403,33.934067,335.28
          -118.441605,33.932999,388.62
          -118.449722,33.931973,411.48
          -118.456604,33.931183,419.1
          -118.466263,33.930157,441.96
          -118.476509,33.92926,480.06
          -118.484802,33.928574,502.92
          -118.495956,33.927643,541.02
          -118.507462,33.926758,579.12
          -118.519249,33.925968,617.22
          -118.531944,33.925186,693.42
          -118.541451,33.924664,769.62
          -118.554039,33.92392,868.68
          -118.566399,33.922989,967.74
          -118.578743,33.921982,1059.18
          -118.59198,33.920845,1165.86
          -118.604362,33.919739,1264.92
          -118.614563,33.918777,1341.12
          -118.627228,33.917633,1417.32
          -118.639359,33.917122,1455.42
          -118.643433,33.917038,1463.04
          -118.647636,33.916901,1470.66
          -118.650436,33.916763,1470.66
          -118.654083,33.916489,1470.66
          -118.656883,33.916122,1470.66
          -118.660416,33.915573,1470.66
          -118.663391,33.914886,1478.28
          -118.66658,33.913925,1478.28
          -118.669327,33.912918,1478.28
          -118.671913,33.91177,1478.28
          -118.675659,33.90976,1478.28
          -118.678207,33.908092,1478.28
          -118.68026,33.906601,1485.9
          -118.682159,33.905018,1485.9
          -118.684906,33.902599,1493.52
          -118.686874,33.900787,1501.14
          -118.688965,33.898735,1516.38
          -118.691132,33.896622,1531.62
          -118.693314,33.894451,1546.86
          -118.695717,33.892124,1569.72
          -118.697662,33.890217,1592.58
          -118.700241,33.887794,1615.44
          -118.702301,33.885838,1645.92
          -118.704643,33.883698,1676.4
          -118.706528,33.881977,1699.26
          -118.709106,33.879646,1729.74
          -118.711105,33.877834,1752.6
          -118.72757,33.863846,1943.1
          -118.742195,33.851715,2095.5
          -118.756714,33.839893,2217.42
          -118.771019,33.828209,2377.44
          -118.788048,33.814133,2545.08
          -118.802567,33.802002,2667
          -118.819885,33.787491,2781.3
          -118.837799,33.77253,2933.7
          -118.85318,33.759705,3055.62
          -118.868706,33.746704,3131.82
          -118.885468,33.733017,3185.16
          -118.904053,33.719833,3238.5
          -118.92392,33.706833,3291.84
          -118.944565,33.693439,3337.56
          -118.965233,33.679962,3383.28
          -118.986908,33.665741,3482.34
          -119.011116,33.649681,3672.84
          -119.063545,33.615417,3909.06
          -119.125153,33.58395,4168.14
          -119.187469,33.553551,4442.46
          -119.249252,33.522919,4815.84
          -119.309845,33.492146,5128.26
          -119.369583,33.461746,5394.96
          -119.42968,33.431122,5692.14
          -119.48938,33.400764,5981.7
          -119.548012,33.371017,6210.3
          -119.612167,33.337967,6469.38
          -119.670204,33.306358,6682.74
          -119.731529,33.273491,6835.14
          -119.792625,33.240952,6995.16
          -119.857361,33.206455,7193.28
          -119.925056,33.170197,7345.68
          -119.989761,33.135452,7520.94
          -120.058762,33.098362,7703.82
          -120.128998,33.060562,7863.84
          -120.195084,33.024902,7993.38
          -120.266434,32.986359,8138.16
          -120.337677,32.947811,8244.84
          -120.408867,32.909172,8366.76
          -120.47789,32.871735,8450.58
          -120.548943,32.833061,8511.54
          -120.625565,32.791256,8602.98
          -120.701462,32.749786,8740.14
          -120.779793,32.706848,8854.44
          -120.852409,32.667007,8938.26
          -120.927063,32.626007,9029.7
          -121.00045,32.585541,9136.38
          -121.07505,32.54425,9204.96
          -121.151955,32.501747,9281.16
          -121.227402,32.459946,9364.98
          -121.305435,32.416718,9433.56
          -121.381889,32.374104,9517.38
          -121.459572,32.330715,9601.2
          -121.540627,32.285374,9692.64
          -121.619202,32.241348,9799.32
          -121.700493,32.195667,9898.38
          -121.784683,32.148323,10027.92
          -121.865623,32.102795,10134.6
          -121.945831,32.057499,10203.18
          -122.017975,32.016628,10271.76
          -122.177277,31.926083,10363.2
          -122.302658,31.854675,10363.2
          -122.406586,31.795271,10363.2
          -122.485603,31.749985,10363.2
          -122.854118,31.537605,10363.2
          -123.835739,31.069702,10363.2
          -124.030426,31.026415,10363.2
          -124.046577,31.022831,10363.2
          -128.446564,29.972458,10972.8
          -131.496796,29.136045,10972.8
          -135.965729,27.751856,10972.8
          -138.914642,26.754269,10972.8
          -143.337128,25.084738,10972.8
          -148.806915,22.76795,10972.8
          -151.048325,21.743992,10972.8
          -151.115921,21.712336,10972.8
          -151.183609,21.680649,10972.8
          -151.269501,21.64032,10972.8
          -151.338211,21.608002,10972.8
          -151.405182,21.576544,10972.8
          -151.473343,21.544422,10972.8
          -151.536972,21.513931,10972.8
          -151.611893,21.477293,10972.8
          -151.680191,21.444031,10972.8
          -151.752121,21.409048,10972.8
          -151.820267,21.37587,10972.8
          -151.891785,21.341036,10972.8
          -151.960938,21.307297,10972.8
          -152.02916,21.273907,10972.8
          -152.10704,21.235781,10972.8
          -152.171982,21.203979,10972.8
          -152.240906,21.170189,10972.8
          -152.31485,21.13385,10972.8
          -152.382675,21.100479,10972.8
          -152.451431,21.066605,10972.8
          -152.521301,21.032135,10972.8
          -152.587357,20.999529,10972.8
          -152.653336,20.966896,10972.8
          -152.722549,20.932632,10972.8
          -152.790359,20.898975,10972.8
          -152.855972,20.866425,10972.8
          -152.922089,20.833511,10972.8
          -152.985275,20.796654,10972.8
          -153.04744,20.750427,10972.8
          -153.104065,20.699266,10972.8
          -153.158432,20.64949,10972.8
          -153.212692,20.600063,10972.8
          -153.267273,20.549927,10972.8
          -153.322647,20.498978,10972.8
          -153.378372,20.447651,10972.8
          -153.434204,20.396212,10972.8
          -153.488449,20.346169,10972.8
          -153.541382,20.297241,10972.8
          -153.596664,20.246174,10972.8
          -153.64949,20.197266,10972.8
          -153.703247,20.147507,10972.8
          -153.756851,20.097719,10972.8
          -153.812943,20.045673,10972.8
          -153.867004,19.995483,10972.8
          -153.922302,19.94405,10972.8
          -153.975052,19.895004,10972.8
          -154.030624,19.843264,10972.8
          -154.082703,19.79471,10972.8
          -154.138489,19.742619,10972.8
          -154.190521,19.693972,10972.8
          -154.24585,19.642204,10972.8
          -154.299683,19.591835,10972.8
          -154.353958,19.541,10972.8
          -154.408966,19.489334,10972.8
          -154.460983,19.440586,10972.8
          -154.515808,19.389053,10972.8
          -154.568069,19.339874,10972.8
          -154.623383,19.287802,10972.8
          -154.678665,19.235687,10972.8
          -154.734634,19.18292,10972.8
          -154.786713,19.133698,10972.8
          -154.842514,19.081017,10972.8
          -154.894287,19.031998,10972.8
          -154.94838,18.980791,10972.8
          -155.001266,18.930655,10972.8
          -155.0522,18.882339,10972.8
          -155.10762,18.829729,10972.8
          -155.159409,18.780523,10972.8
          -155.211441,18.731037,10972.8
          -155.264374,18.680649,10972.8
          -155.318726,18.62883,10972.8
          -155.371002,18.578999,10972.8
          -155.422058,18.530273,10972.8
          -155.474243,18.480423,10972.8
          -155.528,18.42897,10972.8
          -155.579605,18.379623,10972.8
          -155.63147,18.32999,10972.8
          -155.68515,18.278412,10972.8
          -155.736191,18.229485,10972.8
          -155.789017,18.178802,10972.8
          -155.837982,18.131744,10972.8
          -155.906693,18.065714,10972.8
          -155.986923,17.988419,10972.8
          -156.039352,17.937744,10972.8
          -156.091095,17.887791,10972.8
          -156.147507,17.83337,10972.8
          -156.19928,17.78334,10972.8
          -156.253937,17.730444,10972.8
          -156.306366,17.679655,10972.8
          -156.359879,17.627796,10972.8
          -156.38974,17.598841,10972.8
          -156.520599,17.465065,10972.8
          -156.591217,17.40309,10972.8
          -156.720947,17.261007,10972.8
          -156.825134,17.155077,10972.8
          -156.92186,17.05846,11064.24
          -157.108063,16.872364,11460.48
          -157.206787,16.774494,11582.4
          -157.419144,16.572992,11582.4
          -157.504852,16.483992,11582.4
          -157.597534,16.396772,11582.4
          -157.692993,16.304918,11582.4
          -157.792358,16.20787,11582.4
          -157.884613,16.116831,11582.4
          -158.041763,15.975425,11582.4
          -158.150848,15.866772,11582.4
          -160.000336,14.005548,11582.4
          -161.708038,11.345374,11582.4
          -163.61615,8.26715,11582.4
          -165.595062,5.252067,11582.4
          -167.949326,2.467093,11887.2
          -170.247375,-0.264953,11887.2
          -172.790161,-2.790194,11887.2
          170.867615,-18.1604,12192
          170.820267,-18.206581,12192
          170.770798,-18.254745,12192
          170.724884,-18.299423,12192
          170.675446,-18.347488,12192
          170.628662,-18.392929,12192
          170.562241,-18.457403,12192
          170.513458,-18.504747,12192
          170.465073,-18.551626,12192
          170.416382,-18.598783,12192
          170.368271,-18.645264,12192
          170.32045,-18.691498,12192
          170.271454,-18.738811,12192
          170.246689,-18.76268,12192
          170.17807,-18.828873,12192
          170.130249,-18.874969,12199.62
          170.082489,-18.920929,12298.68
          170.032959,-18.968641,12390.12
          169.984467,-19.01524,12443.46
          169.939026,-19.061325,12496.8
          169.893463,-19.108566,12496.8
          169.847702,-19.155212,12496.8
          169.799545,-19.204056,12496.8
          169.753922,-19.25029,12496.8
          169.708511,-19.296368,12496.8
          169.659775,-19.345667,12496.8
          169.612381,-19.393661,12496.8
          169.565735,-19.440773,12496.8
          169.518356,-19.488602,12496.8
          169.472839,-19.534607,12496.8
          169.425812,-19.581966,12496.8
          169.378326,-19.629776,12496.8
          169.330383,-19.678049,12496.8
          169.285095,-19.723663,12496.8
          169.238937,-19.770037,12496.8
          169.192047,-19.817047,12496.8
          169.147125,-19.862137,12496.8
          169.099411,-19.909973,12496.8
          169.051636,-19.957809,12496.8
          169.00386,-20.005646,12496.8
          168.955399,-20.054077,12496.8
          168.906357,-20.103104,12496.8
          168.860641,-20.148697,12496.8
          168.812393,-20.196808,12496.8
          168.764771,-20.244278,12496.8
          168.716599,-20.29216,12496.8
          168.667999,-20.3405,12496.8
          168.596542,-20.411528,12496.8
          168.546661,-20.460983,12496.8
          168.486832,-20.520273,12496.8
          168.43576,-20.570755,12496.8
          168.388504,-20.617567,12496.8
          168.340424,-20.6651,12496.8
          168.295044,-20.709961,12496.8
          168.249527,-20.754822,12496.8
          168.202255,-20.801422,12496.8
          168.125275,-20.87719,12496.8
          168.076492,-20.925184,12496.8
          168.029739,-20.971085,12496.8
          167.982376,-21.01767,12496.8
          167.939758,-21.061537,12496.8
          167.892014,-21.111374,12496.8
          167.845932,-21.15889,12496.8
          167.801025,-21.204987,12496.8
          167.754715,-21.252493,12496.8
          167.709351,-21.298998,12496.8
          167.6651,-21.344341,12496.8
          167.618973,-21.391638,12496.8
          167.573395,-21.43819,12496.8
          167.527206,-21.485441,12496.8
          167.480881,-21.532654,12496.8
          167.435257,-21.579243,12496.8
          167.389099,-21.626266,12496.8
          167.329422,-21.687012,12496.8
          167.281235,-21.735939,12496.8
          167.236328,-21.78154,12496.8
          167.189835,-21.828827,12496.8
          167.143799,-21.875427,12496.8
          167.095291,-21.92452,12496.8
          167.05043,-21.970049,12496.8
          167.006317,-22.014679,12496.8
          166.960281,-22.061096,12496.8
          166.9133,-22.108496,12496.8
          166.867493,-22.154663,12496.8
          166.820221,-22.202251,12496.8
          166.773117,-22.249695,12496.8
          166.725769,-22.297256,12496.8
          166.677734,-22.345505,12496.8
          166.631592,-22.391876,12496.8
          166.584427,-22.43911,12496.8
          166.537277,-22.486313,12496.8
          166.490265,-22.533417,12496.8
          166.442459,-22.581186,12496.8
          166.397324,-22.626205,12496.8
          166.351379,-22.672073,12496.8
          166.301834,-22.721495,12496.8
          166.254349,-22.768616,12496.8
          166.206268,-22.816498,12496.8
          166.157791,-22.864691,12496.8
          166.11174,-22.910385,12496.8
          166.064453,-22.957329,12496.8
          166.016403,-23.004868,12496.8
          165.968613,-23.052109,12496.8
          165.920914,-23.099258,12496.8
          165.875595,-23.144051,12496.8
          165.827682,-23.19136,12496.8
          165.779678,-23.238691,12496.8
          165.7323,-23.285248,12496.8
          165.684113,-23.332672,12496.8
          165.638626,-23.377371,12496.8
          165.590866,-23.424295,12496.8
          165.542603,-23.471592,12496.8
          165.494949,-23.518295,12496.8
          165.447281,-23.564941,12496.8
          165.400345,-23.610901,12496.8
          165.354294,-23.655846,12496.8
          165.306137,-23.702774,12496.8
          165.259247,-23.748459,12496.8
          165.214218,-23.792337,12496.8
          165.166977,-23.838272,12496.8
          165.119171,-23.884789,12496.8
          165.072693,-23.929899,12496.8
          165.028687,-23.97254,12496.8
          164.981583,-24.018301,12496.8
          164.936493,-24.064341,12496.8
          164.893845,-24.10866,12496.8
          164.84845,-24.155165,12496.8
          164.805145,-24.199219,12496.8
          164.759171,-24.246035,12496.8
          164.713303,-24.292681,12496.8
          164.668228,-24.338516,12496.8
          164.624069,-24.383286,12496.8
          164.577744,-24.430252,12496.8
          164.532333,-24.476236,12496.8
          164.487961,-24.521118,12496.8
          164.442688,-24.566874,12496.8
          164.396515,-24.613518,12496.8
          164.345398,-24.665085,12496.8
          164.299393,-24.711418,12496.8
          164.255783,-24.75531,12496.8
          164.186111,-24.825331,12496.8
          164.11412,-24.897537,12496.8
          163.870361,-25.141281,12496.8
          163.86409,-25.147522,12496.8
          163.785904,-25.225388,12496.8
          163.627975,-25.382309,12496.8
          163.465424,-25.543119,12496.8
          161.289612,-27.604393,12496.8
          161.196091,-27.690161,12496.8
          161.125977,-27.754383,12496.8
          161.055649,-27.81867,12496.8
          160.984955,-27.88315,12496.8
          160.914337,-27.947502,12496.8
          160.867188,-27.990396,12496.8
          160.820236,-28.033054,12496.8
          160.726532,-28.118004,12496.8
          160.656494,-28.181391,12496.8
          160.586304,-28.24482,12496.8
          160.539215,-28.28722,12496.8
          160.468201,-28.35125,12496.8
          160.396744,-28.415493,12496.8
          160.34874,-28.458624,12496.8
          160.252457,-28.544863,12496.8
          160.180099,-28.609535,12496.8
          160.107407,-28.674446,12496.8
          160.034622,-28.739269,12496.8
          159.961746,-28.804092,12496.8
          159.889069,-28.868658,12496.8
          159.865005,-28.890074,12496.8
          159.768372,-28.975517,12496.8
          159.696426,-29.039118,12496.8
          159.623886,-29.10302,12496.8
          159.551361,-29.166834,12496.8
          159.478638,-29.230629,12496.8
          159.405792,-29.294571,12496.8
          159.381317,-29.316051,12496.8
          159.28392,-29.401152,12496.8
          159.210953,-29.464817,12496.8
          159.162216,-29.507303,12496.8
          159.089111,-29.570839,12496.8
          159.015732,-29.634483,12496.8
          158.966675,-29.677032,12496.8
          158.917725,-29.719412,12496.8
          158.82019,-29.803677,12496.8
          158.747269,-29.866526,12496.8
          158.698547,-29.908476,12496.8
          158.641769,-29.957228,12496.8
          158.576538,-30.013189,12496.8
          158.503204,-30.075996,12496.8
          158.454422,-30.117838,12496.8
          158.405212,-30.159767,12496.8
          158.314438,-30.237122,12496.8
          158.252289,-30.289993,12496.8
          158.198013,-30.336092,12496.8
          158.145233,-30.380875,12496.8
          158.093475,-30.424713,12496.8
          158.040161,-30.469803,12496.8
          157.989777,-30.512384,12496.8
          157.907898,-30.58136,12496.8
          157.859421,-30.622179,12496.8
          157.77623,-30.692131,12496.8
          157.720642,-30.738785,12496.8
          157.664627,-30.785646,12496.8
          157.613098,-30.82869,12496.8
          157.558701,-30.874146,12496.8
          157.507156,-30.91713,12496.8
          157.478638,-30.940899,12496.8
          157.39502,-31.010447,12496.8
          157.337418,-31.056198,12496.8
          157.28598,-31.094925,12496.8
          157.212692,-31.150955,12496.8
          157.1586,-31.19256,12496.8
          157.102844,-31.235388,12496.8
          157.047516,-31.277847,12496.8
          156.991394,-31.320858,12496.8
          156.960114,-31.344772,12496.8
          156.857681,-31.423004,12496.8
          156.803802,-31.464052,12496.8
          156.748093,-31.506369,12496.8
          156.691422,-31.549438,12496.8
          156.638062,-31.58993,12496.8
          156.609467,-31.611603,12496.8
          156.504883,-31.690704,12496.8
          156.451843,-31.730703,12496.8
          156.395874,-31.772919,12496.8
          156.341934,-31.813522,12496.8
          156.287415,-31.854486,12496.8
          156.232422,-31.895779,12496.8
          156.177185,-31.937164,12496.8
          156.123016,-31.977663,12496.8
          156.065384,-32.020725,12496.8
          156.01059,-32.061584,12496.8
          155.956482,-32.101959,12496.8
          155.898849,-32.144806,12496.8
          155.840393,-32.188267,12496.8
          155.784042,-32.22995,12496.8
          155.726044,-32.272934,12496.8
          155.667969,-32.315865,12496.8
          155.610855,-32.357994,12496.8
          155.552338,-32.401104,12496.8
          155.497086,-32.441757,12496.8
          155.438385,-32.484898,12496.8
          155.382446,-32.525955,12496.8
          155.326675,-32.56678,12496.8
          155.267303,-32.610123,12496.8
          155.207947,-32.653461,12496.8
          155.14975,-32.695908,12496.8
          155.09288,-32.737301,12496.8
          155.033737,-32.780273,12496.8
          154.974075,-32.823532,12496.8
          154.915131,-32.862625,12496.8
          154.851303,-32.896362,12496.8
          154.784897,-32.931931,12496.8
          154.718704,-32.967499,12496.8
          154.656555,-33.000648,12496.8
          154.591537,-33.035248,12496.8
          154.528366,-33.068756,12496.8
          154.466507,-33.101532,12496.8
          154.402924,-33.135185,12496.8
          154.336975,-33.170013,12496.8
          154.273712,-33.203339,12496.8
          154.208496,-33.237671,12496.8
          154.14682,-33.270138,12496.8
          154.081711,-33.30423,12496.8
          154.016769,-33.338245,12496.8
          153.952347,-33.371933,12496.8
          153.889511,-33.404114,12496.8
          153.820129,-33.438309,12496.8
          153.756683,-33.469707,12496.8
          153.68959,-33.502995,12496.8
          153.626083,-33.534462,12496.8
          153.556366,-33.568913,12496.8
          153.491165,-33.601135,12496.8
          153.42807,-33.632175,12496.8
          153.359818,-33.665787,12496.8
          153.296387,-33.696899,12496.8
          153.227829,-33.730499,12496.8
          153.159607,-33.763874,12496.8
          153.095734,-33.795017,12496.8
          153.030914,-33.82663,12496.8
          152.965561,-33.858467,12496.8
          152.897232,-33.891541,12496.8
          152.826828,-33.925644,12496.8
          152.758362,-33.95874,12496.8
          152.691193,-33.991234,12496.8
          152.626648,-34.022285,12496.8
          152.557327,-34.055603,12496.8
          152.489731,-34.087967,12496.8
          152.42067,-34.121201,12496.8
          152.357162,-34.15155,12496.8
          152.290939,-34.183121,12496.8
          152.227127,-34.21344,12496.8
          152.158813,-34.246014,12496.8
          152.094498,-34.276505,12496.8
          152.026688,-34.308578,12496.8
          151.958405,-34.340836,12496.8
          151.892548,-34.371918,12496.8
          151.824875,-34.403828,12496.8
          151.758408,-34.435043,12496.8
          151.690872,-34.466721,12496.8
          151.621307,-34.499359,12496.8
          151.556,-34.529842,12496.8
          151.487457,-34.561798,12496.8
          151.419693,-34.593388,12496.8
          151.351578,-34.625015,12496.8
          151.283447,-34.656651,12496.8
          151.215424,-34.688049,12496.8
          151.147049,-34.719635,12496.8
          151.082077,-34.749573,12496.8
          151.015381,-34.780293,12496.8
          150.944199,-34.812973,12496.8
          150.875183,-34.844582,12496.8
          150.80481,-34.876751,12496.8
          150.740601,-34.906082,12496.8
          150.671494,-34.937485,12496.8
          150.6035,-34.96843,12496.8
          150.535065,-34.999512,12496.8
          150.464935,-35.031235,12496.8
          150.396729,-35.062042,12496.8
          150.329132,-35.092567,12496.8
          150.257782,-35.124641,12496.8
          150.188538,-35.155739,12496.8
          150.12207,-35.185501,12496.8
          150.050369,-35.21759,12496.8
          149.985977,-35.246292,12496.8
          149.918854,-35.27626,12496.8
          149.847794,-35.307777,12496.8
          149.777985,-35.338806,12496.8
          149.712326,-35.367878,12496.8
          149.647171,-35.396645,12496.8
          149.576508,-35.42775,12496.8
          149.507385,-35.458187,12496.8
          149.439697,-35.487991,12496.8
          149.375092,-35.516281,12496.8
          149.305542,-35.546684,12496.8
          149.237991,-35.576202,12496.8
          149.173965,-35.604034,12496.8
          149.107239,-35.633102,12496.8
          149.040649,-35.662041,12496.8
          148.973083,-35.691227,12496.8
          148.904602,-35.720882,12496.8
          148.837799,-35.749653,12496.8
          148.770447,-35.778717,12496.8
          148.70401,-35.80719,12496.8
          148.635742,-35.836487,12496.8
          148.567596,-35.865601,12496.8
          148.501511,-35.897415,12496.8
          148.438202,-35.933998,12496.8
          148.376083,-35.968826,12496.8
          148.310104,-36.005688,12496.8
          148.249222,-36.039825,12496.8
          148.18277,-36.077007,12496.8
          148.117905,-36.113205,12496.8
          148.05246,-36.149723,12496.8
          147.987671,-36.185989,12496.8
          147.921326,-36.222946,12496.8
          147.854294,-36.260284,12496.8
          147.787796,-36.297245,12496.8
          147.722458,-36.333462,12496.8
          147.655029,-36.370659,12496.8
          147.590332,-36.406269,12496.8
          147.526825,-36.441238,12496.8
          147.462006,-36.476799,12496.8
          147.396378,-36.512783,12496.8
          147.329407,-36.549324,12496.8
          147.263779,-36.585125,12496.8
          147.197052,-36.621529,12443.46
          147.129028,-36.658585,12275.82
          147.06459,-36.69342,12123.42
          147.002625,-36.727016,11971.02
          146.937286,-36.762257,11803.38
          146.87265,-36.797215,11643.36
          146.805862,-36.833157,11422.38
          146.740112,-36.868423,10995.66
          146.677475,-36.902023,10553.7
          146.613831,-36.936081,10020.3
          146.550095,-36.970158,9570.72
          146.483688,-37.005615,9159.24
          146.416702,-37.04129,8747.76
          146.350754,-37.076248,8343.9
          146.285995,-37.11058,7962.9
          146.222122,-37.144402,7597.14
          146.159119,-37.177643,7208.52
          146.100342,-37.208542,6858
          146.039276,-37.240585,6507.48
          145.978027,-37.272812,6149.34
          145.919235,-37.303711,5806.44
          145.860748,-37.334381,5448.3
          145.803482,-37.364456,5097.78
          145.747253,-37.393925,4754.88
          145.694595,-37.421436,4427.22
          145.642227,-37.446758,4084.32
          145.638535,-37.44783,4069.08
          145.63501,-37.448669,4046.22
          145.630096,-37.449646,4015.74
          145.626053,-37.450241,3992.88
          145.621262,-37.450699,3970.02
          145.617096,-37.450951,3947.16
          145.613495,-37.451019,3924.3
          145.609406,-37.450974,3901.44
          145.605331,-37.450855,3878.58
          145.601334,-37.450623,3855.72
          145.596481,-37.450378,3832.86
          145.593506,-37.450195,3817.62
          145.588791,-37.449924,3794.76
          145.584854,-37.449738,3771.9
          145.580353,-37.449554,3749.04
          145.57637,-37.449368,3726.18
          145.572784,-37.449272,3703.32
          145.568665,-37.449135,3688.08
          145.564423,-37.449039,3665.22
          145.560486,-37.448948,3642.36
          145.536469,-37.448776,3512.82
          145.508667,-37.448807,3383.28
          145.481079,-37.448856,3307.08
          145.457809,-37.448776,3261.36
          145.435043,-37.448669,3215.64
          145.413132,-37.448483,3177.54
          145.392654,-37.448273,3147.06
          145.371811,-37.448017,3116.58
          145.352219,-37.447784,3086.1
          145.333237,-37.447506,3017.52
          145.311493,-37.44722,2918.46
          145.291626,-37.446945,2827.02
          145.272278,-37.446625,2735.58
          145.253052,-37.44635,2636.52
          145.234482,-37.44606,2552.7
          145.214417,-37.445827,2453.64
          145.193268,-37.445618,2354.58
          145.174957,-37.445362,2263.14
          145.155731,-37.445084,2171.7
          145.133713,-37.444794,2080.26
          145.114349,-37.444477,1996.44
          145.096085,-37.444153,1912.62
          145.077042,-37.443787,1828.8
          145.056793,-37.443501,1737.36
          145.03894,-37.443268,1706.88
          145.020554,-37.443081,1676.4
          145.002991,-37.442825,1645.92
          144.985458,-37.442596,1577.34
          144.968597,-37.442337,1508.76
          144.960571,-37.442184,1478.28
          144.949234,-37.442047,1447.8
          144.941132,-37.442291,1432.56
          144.938751,-37.442478,1432.56
          144.936111,-37.442757,1424.94
          144.933868,-37.443008,1417.32
          144.930817,-37.443466,1409.7
          144.928024,-37.443924,1402.08
          144.925369,-37.44434,1394.46
          144.922989,-37.44471,1394.46
          144.920654,-37.445114,1386.84
          144.918152,-37.445503,1379.22
          144.915405,-37.445969,1379.22
          144.912186,-37.446487,1371.6
          144.91008,-37.446808,1363.98
          144.907394,-37.44722,1356.36
          144.904953,-37.447598,1356.36
          144.902069,-37.448044,1348.74
          144.894592,-37.449097,1333.5
          144.885483,-37.45039,1310.64
          144.878021,-37.451416,1295.4
          144.86911,-37.452576,1280.16
          144.859818,-37.453835,1257.3
          144.853561,-37.454681,1249.68
          144.844162,-37.455978,1226.82
          144.837738,-37.456879,1203.96
          144.829605,-37.458027,1188.72
          144.821075,-37.459396,1173.48
          144.819336,-37.459843,1173.48
          144.81781,-37.460266,1165.86
          144.815628,-37.461052,1158.24
          144.813721,-37.461937,1150.62
          144.812225,-37.462772,1150.62
          144.81044,-37.463928,1143
          144.809113,-37.464962,1135.38
          144.8078,-37.46608,1127.76
          144.80661,-37.467381,1127.76
          144.805481,-37.468872,1120.14
          144.804657,-37.470245,1112.52
          144.803726,-37.472214,1104.9
          144.80307,-37.474182,1089.66
          144.802734,-37.475807,1082.04
          144.802551,-37.477386,1074.42
          144.80249,-37.47958,1066.8
          144.802551,-37.480881,1066.8
          144.802719,-37.483017,1059.18
          144.803024,-37.48494,1051.56
          144.803375,-37.486633,1043.94
          144.80368,-37.488377,1043.94
          144.804077,-37.490112,1036.32
          144.804657,-37.492447,1028.7
          144.805008,-37.494003,1021.08
          144.805481,-37.495918,1021.08
          144.805817,-37.497437,1013.46
          144.80629,-37.499588,1005.84
          144.80661,-37.501087,1005.84
          144.807053,-37.503113,998.22
          144.807343,-37.504623,990.6
          144.807693,-37.506252,982.98
          144.808044,-37.508057,982.98
          144.80835,-37.509605,975.36
          144.809418,-37.515751,960.12
          144.810379,-37.521244,937.26
          144.81163,-37.528088,906.78
          144.812515,-37.533115,883.92
          144.813721,-37.539398,845.82
          144.814941,-37.546097,800.1
          144.815765,-37.550766,769.62
          144.817001,-37.557137,739.14
          144.817841,-37.561604,708.66
          144.81868,-37.566055,685.8
          144.819733,-37.57164,655.32
          144.820526,-37.575897,624.84
          144.821533,-37.581436,586.74
          144.82254,-37.586792,556.26
          144.823532,-37.592194,525.78
          144.824295,-37.596222,502.92
          144.825226,-37.601257,472.44
          144.826248,-37.606667,441.96
          144.827148,-37.611881,411.48
          144.82811,-37.617466,381
          144.829086,-37.622498,350.52
          144.830139,-37.62767,320.04
          144.831146,-37.63311,281.94
          144.832062,-37.638107,251.46
          144.833054,-37.64328,228.6
          144.833832,-37.647446,198.12
          144.834808,-37.652481,167.64
          144.835815,-37.658012,137.16
          144.836761,-37.663227,114.3
          144.83786,-37.668964,0
          144.838409,-37.671913,0
          144.838791,-37.674088,0
          144.839142,-37.675888,0
          144.839447,-37.677532,0
          144.839676,-37.67831,0
          144.839844,-37.678543,0
          144.840073,-37.67873,0
          144.840317,-37.678802,0
          144.840561,-37.678799,0
          144.840805,-37.678753,0
          144.841064,-37.678719,0
          144.841324,-37.678699,0
          144.841537,-37.678665,0
          144.841782,-37.678642,0
          144.841995,-37.678612,0
          144.842255,-37.678577,0
          144.842545,-37.678555,0
          144.842834,-37.678505,0
          144.843079,-37.678402,0
          144.843323,-37.678242,0
          144.843536,-37.678047,0
          144.843643,-37.67783,0
          144.843689,-37.677601,0
          144.843643,-37.677143,0
          144.843613,-37.676914,0
          144.843567,-37.67667,0
          144.843536,-37.676434,0
          144.843475,-37.676182,0
          144.843414,-37.675827,0
          144.843353,-37.675541,0
          144.843292,-37.675156,0
          144.843231,-37.674786,0
          144.84314,-37.674389,0
          144.843048,-37.67387,0
          144.843002,-37.67363,0
          144.842957,-37.673401,0
          144.84288,-37.672943,0
          144.842834,-37.67268,0
          144.842758,-37.672318,0
          144.842621,-37.671604,0
          144.84256,-37.671329,0
          144.842529,-37.671055,0
          144.842484,-37.670815,0
          144.842377,-37.670254,0
          144.842316,-37.669941,0
          144.842239,-37.669582,0
          144.842178,-37.669254,0
          144.842102,-37.668835,0
          144.841995,-37.668278,0
          144.841949,-37.668045,0
          144.84198,-37.667835,0
          144.842239,-37.667686,0
          144.842484,-37.667698,0
          144.842728,-37.667679,0
          144.842941,-37.667645,0
          144.843185,-37.667614,0
          144.843399,-37.667587,0
        </coordinates>
      </LineString>
    </Placemark>
  </Document>
</kml>