<?xml version='1.0' encoding='utf-8'?>
<kml xmlns="http://www.opengis.net/kml/2.2">
  <Document>
    <Placemark>
      <name>DL1137-2025-01-17</name>
      <TimeStamp>
        <when>2025-01-17</when>
      </TimeStamp>
      <LineString>
        <altitudeMode>absolute</altitudeMode>
        <coordinates>
          -84.436348,33.638752,0
          -84.436577,33.638752,0
          -84.436798,33.638741,0
          -84.437057,33.638809,0
          -84.437164,33.639015,0
          -84.437202,33.638741,0
          -84.437218,33.6385,0
          -84.437218,33.638283,0
          -84.43721,33.638077,0
          -84.437218,33.637825,0
          -84.437218,33.637608,0
          -84.437225,33.637402,0
          -84.437225,33.63718,0
          -84.437202,33.636967,0
          -84.436882,33.636681,0
          -84.436646,33.636635,0
          -84.436348,33.636635,0
          -84.436111,33.636635,0
          -84.435898,33.636635,0
          -84.435661,33.636635,0
          -84.435425,33.636635,0
          -84.435051,33.636635,0
          -84.434807,33.636635,0
          -84.434219,33.636635,0
          -84.433609,33.636635,0
          -84.432892,33.636635,0
          -84.432205,33.636635,0
          -84.43132,33.636635,0
          -84.43045,33.636635,0
          -84.429634,33.636635,0
          -84.428894,33.636635,0
          -84.428116,33.636623,0
          -84.427521,33.636589,0
          -84.427231,33.636566,0
          -84.426971,33.636551,0
          -84.426193,33.636532,0
          -84.425514,33.636539,0
          -84.424721,33.63657,0
          -84.424339,33.636543,0
          -84.423798,33.636543,0
          -84.423065,33.636543,0
          -84.422379,33.636532,0
          -84.421837,33.636448,0
          -84.421509,33.636295,0
          -84.421112,33.636082,0
          -84.420578,33.635872,0
          -84.420357,33.63586,0
          -84.420052,33.635792,0
          -84.419502,33.635799,0
          -84.419296,33.635799,0
          -84.418945,33.635807,0
          -84.418694,33.635811,0
          -84.418404,33.635807,0
          -84.417732,33.635811,0
          -84.417503,33.635811,0
          -84.417274,33.635811,0
          -84.41703,33.635807,0
          -84.416412,33.635807,0
          -84.415665,33.635811,0
          -84.415283,33.635818,0
          -84.414398,33.635807,0
          -84.413567,33.635818,0
          -84.412811,33.635811,0
          -84.412178,33.635811,0
          -84.411705,33.635818,0
          -84.411125,33.635822,0
          -84.410591,33.635807,0
          -84.409958,33.63578,0
          -84.409622,33.635811,0
          -84.409363,33.635807,0
          -84.409134,33.635696,0
          -84.409035,33.635448,0
          -84.409027,33.635239,0
          -84.40905,33.634991,0
          -84.40905,33.63475,0
          -84.409271,33.634682,0
          -84.409477,33.634689,0
          -84.409698,33.634712,0
          -84.410019,33.634712,0
          -84.410324,33.634712,0
          -84.410843,33.634712,0
          -84.412033,33.634712,0
          -84.412376,33.634712,0
          -84.413239,33.634712,0
          -84.413971,33.634712,0
          -84.414192,33.634712,0
          -84.416595,33.634689,243.84
          -84.419464,33.634689,243.84
          -84.420906,33.634735,243.84
          -84.423637,33.634735,243.84
          -84.431389,33.634735,243.84
          -84.439178,33.634735,335.28
          -84.444901,33.634689,426.72
          -84.452354,33.634552,502.92
          -84.460663,33.634224,594.36
          -84.464432,33.633991,624.84
          -84.466537,33.633774,640.08
          -84.468613,33.633339,655.32
          -84.470627,33.632858,670.56
          -84.472641,33.632172,685.8
          -84.474907,33.63129,701.04
          -84.476791,33.630524,716.28
          -84.478745,33.629707,731.52
          -84.480881,33.628784,746.76
          -84.483032,33.627895,754.38
          -84.484924,33.627056,769.62
          -84.48732,33.62608,784.86
          -84.489456,33.625214,800.1
          -84.491615,33.624355,807.72
          -84.493942,33.623428,822.96
          -84.495964,33.622635,830.58
          -84.498764,33.621468,845.82
          -84.500557,33.620728,853.44
          -84.508041,33.617653,899.16
          -84.518906,33.613228,960.12
          -84.529709,33.609192,1051.56
          -84.539909,33.60553,1150.62
          -84.551582,33.601219,1280.16
          -84.55941,33.597931,1379.22
          -84.56205,33.596558,1409.7
          -84.564171,33.595352,1432.56
          -84.567093,33.593445,1470.66
          -84.569504,33.591705,1501.14
          -84.572128,33.589535,1531.62
          -84.574043,33.587677,1562.1
          -84.575844,33.585716,1592.58
          -84.577461,33.583694,1615.44
          -84.579201,33.581131,1653.54
          -84.580597,33.57864,1684.02
          -84.581726,33.576324,1714.5
          -84.582886,33.573196,1752.6
          -84.58345,33.571053,1783.08
          -84.584023,33.568314,1821.18
          -84.584297,33.565796,1859.28
          -84.584412,33.563095,1897.38
          -84.584488,33.560345,1943.1
          -84.584473,33.557236,1988.82
          -84.584473,33.554535,2026.92
          -84.584473,33.552109,2065.02
          -84.584427,33.550289,2087.88
          -84.584412,33.546799,2133.6
          -84.584427,33.544147,2164.08
          -84.584412,33.541534,2194.56
          -84.584412,33.538933,2232.66
          -84.584412,33.536419,2263.14
          -84.584396,33.533432,2301.24
          -84.584526,33.515049,2514.6
          -84.583961,33.498459,2674.62
          -84.58297,33.493423,2712.72
          -84.582092,33.490402,2735.58
          -84.5811,33.487701,2750.82
          -84.579987,33.485256,2773.68
          -84.578636,33.482651,2796.54
          -84.577126,33.480183,2819.4
          -84.575333,33.477715,2842.26
          -84.573303,33.475296,2865.12
          -84.571075,33.472969,2895.6
          -84.568604,33.470688,2918.46
          -84.566025,33.468639,2941.32
          -84.564072,33.467194,2956.56
          -84.560646,33.465008,2987.04
          -84.557953,33.463516,3009.9
          -84.555069,33.462112,3025.14
          -84.551384,33.460556,3055.62
          -84.548035,33.459412,3070.86
          -84.544838,33.458443,3086.1
          -84.541473,33.457653,3101.34
          -84.537979,33.456985,3108.96
          -84.534355,33.456535,3116.58
          -84.530182,33.456207,3131.82
          -84.526512,33.456024,3139.44
          -84.522865,33.455929,3154.68
          -84.518974,33.455841,3169.92
          -84.515678,33.455795,3177.54
          -84.51178,33.455795,3192.78
          -84.507225,33.455837,3200.4
          -84.503304,33.455883,3215.64
          -84.499199,33.455933,3223.26
          -84.495346,33.455975,3238.5
          -84.491402,33.456024,3246.12
          -84.487335,33.45607,3253.74
          -84.483185,33.456116,3268.98
          -84.457565,33.456348,3329.94
          -84.427238,33.456345,3406.14
          -84.400673,33.456207,3497.58
          -84.373352,33.456482,3649.98
          -84.359253,33.458023,3718.56
          -84.35437,33.458862,3741.42
          -84.349945,33.459839,3764.28
          -84.345833,33.460831,3779.52
          -84.341492,33.462112,3794.76
          -84.337425,33.46344,3817.62
          -84.332344,33.465332,3840.48
          -84.328201,33.467148,3863.34
          -84.324959,33.468704,3878.58
          -84.320892,33.470901,3901.44
          -84.317154,33.473099,3924.3
          -84.31353,33.475433,3947.16
          -84.309578,33.478317,3970.02
          -84.306335,33.480789,3992.88
          -84.303085,33.483349,4015.74
          -84.300285,33.48563,4038.6
          -84.296974,33.488331,4061.46
          -84.293098,33.491455,4084.32
          -84.289909,33.494102,4107.18
          -84.286667,33.496719,4122.42
          -84.283371,33.49942,4145.28
          -84.279655,33.502483,4175.76
          -84.27668,33.504948,4191
          -84.27327,33.507751,4213.86
          -84.221748,33.549957,4511.04
          -84.170547,33.591816,4884.42
          -84.117554,33.635193,5158.74
          -84.0634,33.679321,5486.4
          -84.008865,33.723816,5768.34
          -83.953148,33.76918,6065.52
          -83.896408,33.815266,6324.6
          -83.838501,33.862331,6576.06
          -83.780762,33.90921,6774.18
          -83.720055,33.955853,6972.3
          -83.650589,33.999519,7185.66
          -83.585106,34.039719,7391.4
          -83.515488,34.082382,7604.76
          -83.444916,34.125504,7795.26
          -83.374626,34.168396,7955.28
          -83.304863,34.210915,8115.3
          -83.238472,34.251297,8267.7
          -83.165329,34.295746,8397.24
          -83.097,34.337357,8595.36
          -83.025642,34.381119,8770.62
          -82.95536,34.424076,8945.88
          -82.884407,34.467278,9105.9
          -82.811218,34.51178,9265.92
          -82.740845,34.554562,9425.94
          -82.671165,34.596725,9448.8
          -82.600822,34.639194,9448.8
          -82.530922,34.68132,9448.8
          -82.460129,34.722748,9448.8
          -82.388321,34.764771,9448.8
          -82.317062,34.806503,9448.8
          -82.244827,34.848679,9464.04
          -82.176987,34.888294,9578.34
          -82.105011,34.930099,9700.26
          -82.033707,34.971485,9852.66
          -81.961372,35.013474,10005.06
          -81.890091,35.05537,10149.84
          -81.819992,35.099548,10271.76
          -81.749657,35.143295,10363.2
          -81.679092,35.186874,10530.84
          -81.610184,35.229385,10660.38
          -81.540588,35.272305,10668
          -81.471634,35.314728,10668
          -81.402557,35.357029,10668
          -81.331215,35.400604,10668
          -81.263237,35.442268,10675.62
          -81.193993,35.484489,10675.62
          -81.124275,35.526806,10683.24
          -81.054382,35.56926,10675.62
          -80.986115,35.61058,10660.38
          -80.91568,35.653244,10668
          -80.844009,35.696442,10668
          -80.774467,35.738338,10675.62
          -80.704765,35.780228,10675.62
          -80.632439,35.823578,10668
          -80.561928,35.865799,10668
          -80.490105,35.908722,10668
          -80.419922,35.950523,10660.38
          -80.348396,35.993134,10668
          -80.278503,36.034782,10668
          -80.208374,36.076496,10675.62
          -80.137421,36.118561,10668
          -80.065956,36.160858,10668
          -79.996834,36.201721,10675.62
          -79.926392,36.24321,10668
          -79.854942,36.285282,10660.38
          -79.784546,36.32666,10668
          -79.714111,36.367958,10668
          -79.643692,36.409157,10660.38
          -79.573799,36.449982,10660.38
          -79.503853,36.490765,10668
          -79.433662,36.531544,10675.62
          -79.362251,36.572929,10675.62
          -79.29039,36.614548,10668
          -79.219078,36.655743,10668
          -79.14814,36.696625,10668
          -79.077469,36.737228,10668
          -79.005142,36.778748,10668
          -78.933434,36.819935,10660.38
          -78.860817,36.861271,10660.38
          -78.78997,36.901428,10660.38
          -78.717758,36.942226,10660.38
          -78.646767,36.982262,10668
          -78.573807,37.023285,10675.62
          -78.504478,37.065868,10675.62
          -78.440948,37.113491,10675.62
          -78.376167,37.163815,10675.62
          -78.314011,37.212044,10675.62
          -78.252151,37.259991,10668
          -78.190224,37.307877,10675.62
          -78.127121,37.356586,10675.62
          -78.064728,37.404583,10675.62
          -78.002396,37.452438,10675.62
          -77.940285,37.500092,10668
          -77.878441,37.547592,10660.38
          -77.815521,37.595673,10652.76
          -77.753586,37.642838,10660.38
          -77.692032,37.689716,10660.38
          -77.631424,37.735802,10668
          -77.567833,37.783985,10668
          -77.505562,37.831055,10675.62
          -77.442688,37.878571,10668
          -77.379814,37.925922,10660.38
          -77.315445,37.974335,10668
          -77.255219,38.019562,10675.62
          -77.190758,38.067856,10675.62
          -77.127533,38.115143,10675.62
          -77.063599,38.162796,10668
          -76.999786,38.210358,10668
          -76.936775,38.257187,10668
          -76.873726,38.303925,10660.38
          -76.811333,38.350105,10660.38
          -76.747322,38.397404,10660.38
          -76.6828,38.444981,10660.38
          -76.619186,38.491745,10668
          -76.558167,38.53656,10675.62
          -76.494263,38.583332,10675.62
          -76.43129,38.629395,10675.62
          -76.367821,38.675766,10675.62
          -76.304749,38.721733,10675.62
          -76.242012,38.767273,10668
          -76.179382,38.812649,10660.38
          -76.115135,38.859146,10660.38
          -76.05249,38.904449,10660.38
          -75.988136,38.950974,10668
          -75.92675,39.001007,10668
          -75.866928,39.051178,10675.62
          -75.806763,39.101597,10675.62
          -75.748413,39.150478,10675.62
          -75.689651,39.199539,10675.62
          -75.629822,39.24931,10683.24
          -75.571487,39.297775,10675.62
          -75.512314,39.346893,10668
          -75.452576,39.396366,10668
          -75.394753,39.444168,10660.38
          -75.338387,39.490677,10660.38
          -75.28009,39.538631,10652.76
          -75.222351,39.586067,10660.38
          -75.165054,39.633087,10668
          -75.108093,39.680145,10668
          -75.056328,39.726013,10675.62
          -75.002228,39.774078,10668
          -74.948494,39.821732,10668
          -74.893005,39.870735,10668
          -74.84198,39.9198,10660.38
          -74.796043,39.969891,10660.38
          -74.746948,40.020035,10668
          -74.693489,40.067463,10675.62
          -74.639114,40.115646,10675.62
          -74.588303,40.160614,10675.62
          -74.533562,40.208939,10675.62
          -74.479919,40.256149,10668
          -74.425781,40.303894,10668
          -74.370972,40.351913,10668
          -74.316582,40.399475,10660.38
          -74.261658,40.447632,10584.18
          -74.20784,40.49472,10233.66
          -74.153381,40.54216,9867.9
          -74.098412,40.589455,9509.76
          -74.045532,40.635361,9174.48
          -73.991943,40.682007,8801.1
          -73.938736,40.728043,8435.34
          -73.883911,40.775299,8039.1
          -73.828613,40.822815,7642.86
          -73.773987,40.869598,7353.3
          -73.717834,40.915283,7299.96
          -73.669388,40.957729,7101.84
          -73.666824,40.96085,7086.6
          -73.663765,40.964851,7071.36
          -73.661331,40.96825,7063.74
          -73.659302,40.971268,7056.12
          -73.657166,40.974747,7048.5
          -73.654907,40.978775,7033.26
          -73.653503,40.981476,7033.26
          -73.651779,40.985149,7025.64
          -73.649963,40.989578,7018.02
          -73.64872,40.993156,7010.4
          -73.647537,40.996834,7010.4
          -73.646538,41.000744,7010.4
          -73.645729,41.004421,7002.78
          -73.645164,41.007961,7002.78
          -73.6446,41.011871,7002.78
          -73.644165,41.015408,7002.78
          -73.64373,41.018948,7002.78
          -73.643356,41.022484,7002.78
          -73.642853,41.026718,7010.4
          -73.642517,41.029999,7010.4
          -73.64209,41.033524,7010.4
          -73.641724,41.036865,7010.4
          -73.641167,41.041756,7010.4
          -73.634766,41.096054,6926.58
          -73.628563,41.15213,6774.18
          -73.622437,41.208023,6598.92
          -73.616455,41.263687,6446.52
          -73.610397,41.318974,6294.12
          -73.60437,41.374374,6141.72
          -73.598434,41.428001,5981.7
          -73.592682,41.481907,5829.3
          -73.586937,41.53521,5669.28
          -73.581184,41.588421,5516.88
          -73.575249,41.641582,5356.86
          -73.569633,41.694214,5196.84
          -73.563828,41.747131,5044.44
          -73.558067,41.799625,4884.42
          -73.552315,41.852604,4724.4
          -73.546761,41.902973,4564.38
          -73.541046,41.954681,4320.54
          -73.535423,42.003433,4061.46
          -73.530472,42.050125,3535.68
          -73.528496,42.068298,3398.52
          -73.526253,42.088531,3322.32
          -73.526497,42.108215,3329.94
          -73.526962,42.111294,3329.94
          -73.527473,42.113995,3329.94
          -73.527916,42.1166,3329.94
          -73.528557,42.119534,3329.94
          -73.528999,42.121811,3322.32
          -73.52964,42.124935,3322.32
          -73.530182,42.127441,3322.32
          -73.530746,42.130142,3322.32
          -73.531242,42.132477,3322.32
          -73.531807,42.134903,3322.32
          -73.535179,42.150101,3314.7
          -73.539223,42.168552,3314.7
          -73.542358,42.183746,3299.46
          -73.545479,42.198906,3208.02
          -73.548973,42.215012,3055.62
          -73.552719,42.231949,2903.22
          -73.556404,42.248108,2750.82
          -73.560112,42.26366,2644.14
          -73.563942,42.27916,2545.08
          -73.568031,42.295082,2430.78
          -73.572006,42.310593,2331.72
          -73.576317,42.327667,2194.56
          -73.579872,42.341904,2072.64
          -73.584,42.358952,1912.62
          -73.587578,42.373569,1798.32
          -73.591293,42.388779,1684.02
          -73.595352,42.403702,1577.34
          -73.599533,42.417938,1516.38
          -73.60228,42.427231,1501.14
          -73.605331,42.43758,1493.52
          -73.60746,42.444809,1493.52
          -73.609581,42.452042,1493.52
          -73.612518,42.461792,1493.52
          -73.615555,42.472073,1493.52
          -73.61776,42.479553,1485.9
          -73.620026,42.487202,1485.9
          -73.62188,42.493561,1493.52
          -73.624496,42.502613,1493.52
          -73.626442,42.509216,1493.52
          -73.628563,42.517044,1493.52
          -73.629372,42.521347,1493.52
          -73.629608,42.523327,1493.52
          -73.62973,42.525097,1493.52
          -73.629875,42.526932,1493.52
          -73.629997,42.528717,1493.52
          -73.630058,42.530823,1493.52
          -73.630119,42.532791,1493.52
          -73.63018,42.534454,1493.52
          -73.63018,42.53669,1493.52
          -73.630249,42.538422,1493.52
          -73.630249,42.540115,1493.52
          -73.630241,42.542042,1501.14
          -73.630249,42.54364,1508.76
          -73.63018,42.545254,1508.76
          -73.63018,42.547028,1501.14
          -73.630051,42.552608,1501.14
          -73.62999,42.559731,1478.28
          -73.62999,42.565086,1455.42
          -73.630058,42.570007,1417.32
          -73.630249,42.577332,1356.36
          -73.63031,42.582169,1310.64
          -73.630432,42.589462,1242.06
          -73.630432,42.594273,1219.2
          -73.630432,42.601227,1203.96
          -73.63031,42.606445,1196.34
          -73.63018,42.61377,1188.72
          -73.630051,42.620762,1188.72
          -73.62999,42.626907,1188.72
          -73.62986,42.633701,1188.72
          -73.62973,42.640919,1188.72
          -73.629608,42.648273,1188.72
          -73.629494,42.653732,1188.72
          -73.629311,42.660645,1188.72
          -73.629158,42.666523,1188.72
          -73.629028,42.671875,1188.72
          -73.628876,42.678955,1188.72
          -73.628708,42.68412,1188.72
          -73.628563,42.691086,1188.72
          -73.628372,42.696899,1188.72
          -73.628136,42.702553,1188.72
          -73.627815,42.709629,1188.72
          -73.627625,42.71489,1188.72
          -73.627312,42.722031,1188.72
          -73.626984,42.729275,1188.72
          -73.626732,42.734489,1188.72
          -73.626411,42.741798,1188.72
          -73.626129,42.748764,1188.72
          -73.625938,42.754303,1188.72
          -73.625626,42.761536,1181.1
          -73.625443,42.7668,1158.24
          -73.625069,42.773918,1112.52
          -73.624748,42.781227,1059.18
          -73.624817,42.788395,998.22
          -73.62513,42.790073,982.98
          -73.625504,42.791473,967.74
          -73.626129,42.793488,952.5
          -73.626747,42.795135,937.26
          -73.627243,42.79631,929.64
          -73.628189,42.798569,914.4
          -73.628876,42.800079,906.78
          -73.629608,42.801571,899.16
          -73.63018,42.802921,899.16
          -73.630943,42.804459,899.16
          -73.631775,42.80632,891.54
          -73.632477,42.807808,891.54
          -73.633247,42.809326,891.54
          -73.633949,42.810883,891.54
          -73.634819,42.812649,891.54
          -73.635475,42.814095,891.54
          -73.636246,42.815689,891.54
          -73.638741,42.820908,883.92
          -73.641037,42.82576,883.92
          -73.643387,42.830807,883.92
          -73.646591,42.837555,883.92
          -73.649536,42.843842,883.92
          -73.652016,42.849194,883.92
          -73.65509,42.85585,883.92
          -73.657509,42.861252,883.92
          -73.659538,42.865814,883.92
          -73.662689,42.872681,868.68
          -73.664925,42.877762,838.2
          -73.667839,42.884342,784.86
          -73.670868,42.891129,716.28
          -73.67366,42.897282,655.32
          -73.675819,42.902031,617.22
          -73.678146,42.906601,594.36
          -73.679092,42.907944,594.36
          -73.680466,42.909618,586.74
          -73.682167,42.911106,586.74
          -73.683342,42.911991,586.74
          -73.685303,42.913155,586.74
          -73.687004,42.913994,586.74
          -73.68988,42.91502,579.12
          -73.692009,42.915573,579.12
          -73.69426,42.915951,579.12
          -73.696358,42.916134,579.12
          -73.698524,42.91626,579.12
          -73.701401,42.916306,579.12
          -73.703125,42.916306,579.12
          -73.705872,42.91626,579.12
          -73.708107,42.916214,579.12
          -73.709831,42.916122,579.12
          -73.712379,42.916042,579.12
          -73.715187,42.915901,579.12
          -73.71769,42.915802,579.12
          -73.719666,42.91571,579.12
          -73.721199,42.915619,579.12
          -73.724342,42.915485,579.12
          -73.726631,42.915344,579.12
          -73.728737,42.915253,579.12
          -73.730949,42.915157,579.12
          -73.733849,42.915024,579.12
          -73.740425,42.914658,579.12
          -73.749847,42.914227,579.12
          -73.756454,42.913902,579.12
          -73.765465,42.913467,579.12
          -73.772873,42.913101,579.12
          -73.77993,42.912643,579.12
          -73.782608,42.912132,579.12
          -73.7845,42.911636,579.12
          -73.787056,42.910782,579.12
          -73.788956,42.909897,579.12
          -73.790245,42.909164,579.12
          -73.792549,42.907524,579.12
          -73.793953,42.906326,579.12
          -73.794846,42.905365,579.12
          -73.797844,42.90152,579.12
          -73.799026,42.899704,579.12
          -73.800003,42.898167,579.12
          -73.80098,42.896622,579.12
          -73.801964,42.894863,579.12
          -73.802818,42.893463,579.12
          -73.803726,42.891815,579.12
          -73.80452,42.890347,579.12
          -73.805511,42.888474,579.12
          -73.806152,42.886948,579.12
          -73.806808,42.885365,579.12
          -73.807365,42.883575,579.12
          -73.807938,42.881378,579.12
          -73.808243,42.87978,579.12
          -73.80851,42.878147,579.12
          -73.808708,42.876389,579.12
          -73.808899,42.874557,579.12
          -73.80896,42.872818,579.12
          -73.809029,42.87154,579.12
          -73.809097,42.869442,579.12
          -73.809029,42.867863,579.12
          -73.809029,42.866226,579.12
          -73.808968,42.864414,579.12
          -73.808899,42.862972,579.12
          -73.808899,42.861156,579.12
          -73.808838,42.859726,579.12
          -73.80883,42.858223,579.12
          -73.80883,42.856781,579.12
          -73.808838,42.855057,586.74
          -73.80883,42.853382,579.12
          -73.80883,42.849007,579.12
          -73.808517,42.842789,579.12
          -73.808449,42.838577,571.5
          -73.808388,42.833176,533.4
          -73.808182,42.828571,495.3
          -73.807854,42.823124,457.2
          -73.807594,42.818703,434.34
          -73.807304,42.813721,403.86
          -73.807236,42.809372,381
          -73.807213,42.804199,350.52
          -73.80703,42.800262,327.66
          -73.806854,42.795052,289.56
          -73.806717,42.791382,266.7
          -73.806526,42.786392,236.22
          -73.806282,42.782486,205.74
          -73.806023,42.777458,175.26
          -73.80584,42.773529,160.02
          -73.805717,42.76973,137.16
          -73.805466,42.764511,99.06
          -73.80526,42.759998,60.96
          -73.805069,42.756088,45.72
          -73.804901,42.751923,45.72
          -73.804794,42.749317,0
          -73.804703,42.747128,0
          -73.804588,42.744091,0
          -73.804527,42.742577,0
          -73.804443,42.740749,0
          -73.804359,42.739117,0
          -73.804314,42.738224,0
          -73.80439,42.737526,0
          -73.80468,42.737328,0
          -73.804955,42.737282,0
          -73.805176,42.737282,0
          -73.805405,42.737316,0
          -73.805687,42.737514,0
          -73.805817,42.739143,0
          -73.805855,42.739906,0
          -73.805878,42.740669,0
          -73.805984,42.742653,0
          -73.806023,42.743427,0
          -73.806061,42.744198,0
          -73.806091,42.744926,0
          -73.806107,42.745697,0
          -73.806137,42.746235,0
          -73.806152,42.746826,0
          -73.806168,42.747288,0
          -73.806198,42.747791,0
          -73.806244,42.748032,0
          -73.80648,42.74818,0
          -73.806763,42.748203,0
          -73.807152,42.748192,0
          -73.807388,42.74818,0
          -73.807602,42.748169,0
          -73.807816,42.748165,0
          -73.808052,42.748165,0
          -73.808487,42.748154,0
          -73.808762,42.748123,0
          -73.809021,42.747963,0
          -73.80912,42.747746,0
          -73.809059,42.747524,0
          -73.808975,42.747314,0
          -73.808868,42.74707,0
        </coordinates>
      </LineString>
    </Placemark>
  </Document>
</kml>