<?xml version='1.0' encoding='utf-8'?>
<kml xmlns="http://www.opengis.net/kml/2.2">
  <Document>
    <Placemark>
      <name>DL2130-2023-09-10</name>
      <TimeStamp>
        <when>2023-09-10</when>
      </TimeStamp>
      <LineString>
        <altitudeMode>absolute</altitudeMode>
        <coordinates>
          -117.61013,34.05508,289.56
          -117.610283,34.055374,0
          -117.610229,34.055626,0
          -117.610176,34.055859,0
          -117.610161,34.056103,0
          -117.610153,34.056347,0
          -117.610153,34.056599,0
          -117.610161,34.05706,0
          -117.610153,34.057549,0
          -117.610077,34.057781,0
          -117.609848,34.057938,0
          -117.607368,34.057995,0
          -117.606918,34.057995,0
          -117.60601,34.057995,0
          -117.604889,34.057995,0
          -117.603882,34.057995,0
          -117.602707,34.057991,0
          -117.601547,34.057991,0
          -117.600334,34.057991,0
          -117.59903,34.058002,0
          -117.596802,34.058002,0
          -117.596237,34.058006,0
          -117.595985,34.058094,0
          -117.595795,34.058315,0
          -117.595779,34.058544,0
          -117.595825,34.058826,0
          -117.5961,34.05899,0
          -117.596283,34.059208,0
          -117.596298,34.059422,0
          -117.596413,34.059986,0
          -117.596313,34.059769,0
          -117.596313,34.059547,0
          -117.596313,34.059334,0
          -117.596329,34.059128,0
          -117.59655,34.058968,0
          -117.596329,34.058979,0
          -117.596123,34.058979,0
          -117.595894,34.058872,0
          -117.595795,34.058636,0
          -117.595795,34.058418,0
          -117.595612,34.058109,0
          -117.595314,34.058006,0
          -117.595078,34.057995,0
          -117.594841,34.057995,0
          -117.594612,34.058002,0
          -117.59436,34.057995,0
          -117.594093,34.057995,0
          -117.593437,34.057995,0
          -117.592804,34.058002,0
          -117.592079,34.057991,0
          -117.591446,34.057995,0
          -117.590721,34.057995,0
          -117.589905,34.058002,0
          -117.58918,34.057995,0
          -117.588364,34.057995,0
          -117.587517,34.058002,0
          -117.5867,34.058006,0
          -117.5858,34.058002,0
          -117.585045,34.058006,0
          -117.584244,34.058006,0
          -117.583542,34.058006,0
          -117.583153,34.057991,0
          -117.582939,34.057903,0
          -117.582764,34.057697,0
          -117.582718,34.057419,0
          -117.582718,34.057194,0
          -117.582718,34.056976,0
          -117.582718,34.056698,0
          -117.582718,34.056473,0
          -117.582718,34.056095,0
          -117.582718,34.05574,0
          -117.582733,34.055428,0
          -117.58287,34.05518,0
          -117.583138,34.055035,0
          -117.583397,34.054989,0
          -117.583626,34.054989,0
          -117.583862,34.054989,0
          -117.58419,34.054985,0
          -117.584579,34.054989,0
          -117.58493,34.054985,0
          -117.585213,34.054989,0
          -117.58551,34.054989,0
          -117.585854,34.054985,0
          -117.586197,34.054985,0
          -117.586555,34.054989,0
          -117.586975,34.054985,0
          -117.590904,34.054962,297.18
          -117.598114,34.054962,289.56
          -117.603149,34.054962,289.56
          -117.611557,34.055012,350.52
          -117.619965,34.055099,495.3
          -117.628265,34.055382,624.84
          -117.636841,34.055786,708.66
          -117.645973,34.056244,792.48
          -117.656288,34.056656,868.68
          -117.666824,34.057068,929.64
          -117.678452,34.057617,1013.46
          -117.690536,34.058258,1104.9
          -117.698822,34.059013,1158.24
          -117.703148,34.059586,1203.96
          -117.707458,34.060223,1234.44
          -117.711838,34.061005,1272.54
          -117.716148,34.061829,1303.02
          -117.720734,34.062832,1333.5
          -117.725235,34.063934,1371.6
          -117.729553,34.065018,1409.7
          -117.733749,34.06604,1447.8
          -117.738304,34.067162,1501.14
          -117.747314,34.06929,1607.82
          -117.767387,34.074051,1882.14
          -117.782967,34.079453,2057.4
          -117.785736,34.080753,2103.12
          -117.790703,34.083298,2156.46
          -117.794662,34.085548,2202.18
          -117.798096,34.087688,2247.9
          -117.801743,34.090164,2293.62
          -117.806,34.093277,2339.34
          -117.809311,34.095791,2392.68
          -117.812744,34.098442,2430.78
          -117.816467,34.101238,2484.12
          -117.820015,34.103897,2529.84
          -117.823494,34.106552,2583.18
          -117.827057,34.109245,2628.9
          -117.846054,34.122837,2849.88
          -117.866539,34.134842,3093.72
          -117.886902,34.146717,3307.08
          -117.909164,34.159706,3535.68
          -117.93074,34.172417,3802.38
          -117.979263,34.200672,4320.54
          -118.02858,34.229534,4808.22
          -118.077637,34.258438,5394.96
          -118.12294,34.285675,5760.72
          -118.172546,34.323524,5966.46
          -118.226509,34.364349,6179.82
          -118.284241,34.406757,6416.04
          -118.344666,34.451962,6873.24
          -118.402573,34.496418,7421.88
          -118.45784,34.538956,7734.3
          -118.473312,34.554428,7825.74
          -118.477463,34.559097,7856.22
          -118.481827,34.564293,7886.7
          -118.485832,34.569321,7924.8
          -118.489906,34.574707,7962.9
          -118.493774,34.580109,7993.38
          -118.49585,34.583191,8016.24
          -118.500107,34.589676,8039.1
          -118.50425,34.59613,8077.2
          -118.507164,34.600616,8122.92
          -118.542091,34.654175,8503.92
          -118.580032,34.711716,8778.24
          -118.617897,34.768703,9052.56
          -118.658226,34.828629,9334.5
          -118.695786,34.885254,9601.2
          -118.731262,34.948242,9936.48
          -118.733231,34.952957,9959.34
          -118.735771,34.95966,9997.44
          -118.737885,34.965714,10027.92
          -118.740005,34.972229,10058.4
          -118.741776,34.978142,10088.88
          -118.743431,34.984039,10119.36
          -118.744995,34.990265,10142.22
          -118.746353,34.995972,10157.46
          -118.747971,35.003448,10187.94
          -118.763062,35.07362,10370.82
          -118.778,35.144146,10363.2
          -118.792305,35.212299,10363.2
          -118.807526,35.284103,10393.68
          -118.822693,35.355515,10622.28
          -118.837799,35.428894,10881.36
          -118.852844,35.500488,11170.92
          -118.866577,35.564701,11407.14
          -118.881599,35.634621,11582.4
          -118.896561,35.704559,11582.4
          -118.911957,35.775101,11582.4
          -118.927116,35.844452,11582.4
          -118.941788,35.911095,11582.4
          -118.955696,35.975056,11582.4
          -118.96946,36.03804,11582.4
          -118.984444,36.106522,11582.4
          -118.999466,36.175789,11582.4
          -119.013176,36.238358,11582.4
          -119.028687,36.309162,11582.4
          -119.042244,36.372288,11582.4
          -119.057861,36.443298,11582.4
          -119.072113,36.507248,11582.4
          -119.086067,36.570694,11582.4
          -119.100388,36.635635,11582.4
          -119.114647,36.700851,11582.4
          -119.130081,36.770828,11582.4
          -119.145187,36.83931,11582.4
          -119.160759,36.909222,11582.4
          -119.176178,36.97934,11582.4
          -119.192017,37.050247,11582.4
          -119.206566,37.115158,11582.4
          -119.22229,37.185196,11582.4
          -119.238594,37.256744,11582.4
          -119.254723,37.328201,11582.4
          -119.270683,37.399696,11582.4
          -119.286453,37.469971,11582.4
          -119.302345,37.541061,11582.4
          -119.318153,37.611649,11582.4
          -119.333611,37.678802,11582.4
          -119.349861,37.749252,11582.4
          -119.365814,37.819885,11582.4
          -119.381004,37.886765,11582.4
          -119.39595,37.952362,11582.4
          -119.412445,38.023544,11582.4
          -119.427055,38.086994,11582.4
          -119.442947,38.156387,11574.78
          -119.458946,38.226089,11582.4
          -119.475967,38.29953,11582.4
          -119.489586,38.358994,11582.4
          -119.506111,38.430313,11582.4
          -119.522354,38.500259,11582.4
          -119.53746,38.564987,11582.4
          -119.554062,38.636261,11582.4
          -119.569046,38.700943,11582.4
          -119.585266,38.771824,11582.4
          -119.600159,38.835087,11582.4
          -119.616814,38.904694,11582.4
          -119.632446,38.969997,11582.4
          -119.649055,39.040283,11582.4
          -119.665955,39.112026,11582.4
          -119.681396,39.177433,11582.4
          -119.698364,39.247913,11582.4
          -119.719116,39.311642,11582.4
          -119.741959,39.380493,11582.4
          -119.762917,39.443985,11582.4
          -119.785904,39.513245,11582.4
          -119.80925,39.583466,11582.4
          -119.8302,39.646355,11582.4
          -119.853493,39.716492,11582.4
          -119.876427,39.785477,11582.4
          -119.89756,39.848465,11582.4
          -119.920486,39.916946,11582.4
          -119.942055,39.98032,11582.4
          -119.965401,40.04945,11582.4
          -119.988434,40.118301,11582.4
          -120.01178,40.187119,11582.4
          -120.032532,40.247818,11582.4
          -120.056458,40.318268,11582.4
          -120.080139,40.38826,11582.4
          -120.10022,40.447769,11582.4
          -120.124947,40.519951,11582.4
          -120.146667,40.582626,11582.4
          -120.169067,40.647812,11582.4
          -120.193176,40.717987,11582.4
          -120.21534,40.782135,11582.4
          -120.239372,40.851639,11582.4
          -120.261528,40.915226,11582.4
          -120.284126,40.980309,11582.4
          -120.308105,41.049774,11582.4
          -120.332642,41.120407,11590.02
          -120.354797,41.184082,11582.4
          -120.378845,41.253296,11582.4
          -120.403015,41.322189,11582.4
          -120.425354,41.38559,11582.4
          -120.449486,41.453751,11582.4
          -120.474075,41.523056,11582.4
          -120.496002,41.585209,11582.4
          -120.520149,41.653641,11582.4
          -120.544678,41.722816,11582.4
          -120.569206,41.791248,11582.4
          -120.591309,41.85347,11582.4
          -120.615898,41.922291,11582.4
          -120.640747,41.991577,11582.4
          -120.663589,42.055069,11582.4
          -120.688126,42.123871,11582.4
          -120.711403,42.188644,11582.4
          -120.734566,42.252777,11582.4
          -120.75766,42.316177,11582.4
          -120.783051,42.385952,11582.4
          -120.80629,42.449387,11582.4
          -120.831657,42.518486,11582.4
          -120.854851,42.581753,11582.4
          -120.880196,42.651306,11582.4
          -120.902817,42.713493,11582.4
          -120.927826,42.781586,11582.4
          -120.951935,42.847183,11582.4
          -120.978058,42.917725,11582.4
          -121.000481,42.97879,11582.4
          -121.025719,43.046715,11582.4
          -121.051071,43.114426,11582.4
          -121.073746,43.175171,11582.4
          -121.097191,43.236927,11582.4
          -121.122795,43.305634,11582.4
          -121.145668,43.366745,11582.4
          -121.168282,43.427231,11582.4
          -121.193573,43.494919,11582.4
          -121.217331,43.556534,11582.4
          -121.241287,43.619019,11582.4
          -121.266762,43.68541,11582.4
          -121.291878,43.751934,11582.4
          -121.320938,43.810959,11582.4
          -121.360275,43.873062,11582.4
          -121.399712,43.935722,11582.4
          -121.43853,43.996307,11582.4
          -121.477135,44.056805,11582.4
          -121.516899,44.1194,11582.4
          -121.553719,44.176769,11582.4
          -121.591187,44.235146,11582.4
          -121.630173,44.295292,11582.4
          -121.666618,44.351898,11582.4
          -121.707748,44.415535,11582.4
          -121.74707,44.476425,11582.4
          -121.787537,44.53997,11582.4
          -121.827919,44.602386,11582.4
          -121.865913,44.659927,11582.4
          -121.906303,44.721523,11582.4
          -121.942947,44.777664,11582.4
          -121.984406,44.840652,11582.4
          -122.025482,44.902939,11582.4
          -122.062798,44.959175,11582.4
          -122.103928,45.021927,11582.4
          -122.144859,45.083889,11582.4
          -122.182686,45.141129,11582.4
          -122.224533,45.20343,11582.4
          -122.266441,45.265999,11582.4
          -122.308632,45.328262,11582.4
          -122.351334,45.391525,11582.4
          -122.393715,45.45433,11582.4
          -122.432098,45.511871,11574.78
          -122.474487,45.575291,11407.14
          -122.516785,45.637764,11209.02
          -122.554962,45.694744,10782.3
          -122.590805,45.759155,10233.66
          -122.593285,45.765427,10180.32
          -122.595695,45.771973,10126.98
          -122.597778,45.778107,10073.64
          -122.599731,45.784405,10012.68
          -122.601662,45.79097,9966.96
          -122.603134,45.796783,9921.24
          -122.618874,45.860275,9525
          -122.636292,45.929947,9113.52
          -122.651436,45.990585,8747.76
          -122.668114,46.056702,8351.52
          -122.680824,46.111809,8023.86
          -122.69297,46.174484,7642.86
          -122.705162,46.235458,7261.86
          -122.716599,46.291683,6926.58
          -122.723396,46.353043,6553.2
          -122.725388,46.413979,6179.82
          -122.727585,46.473331,5814.06
          -122.729614,46.531219,5448.3
          -122.731758,46.587799,5074.92
          -122.733765,46.644928,4709.16
          -122.73584,46.700089,4351.02
          -122.737785,46.751266,4023.36
          -122.735107,46.775803,3916.68
          -122.733147,46.780624,3901.44
          -122.730949,46.785049,3886.2
          -122.72847,46.789261,3863.34
          -122.725662,46.793335,3832.86
          -122.722298,46.79752,3802.38
          -122.719894,46.800175,3779.52
          -122.714607,46.805283,3756.66
          -122.711174,46.808228,3718.56
          -122.70623,46.81242,3695.7
          -122.701836,46.816097,3665.22
          -122.698395,46.819016,3642.36
          -122.693527,46.823124,3611.88
          -122.689079,46.826843,3581.4
          -122.684593,46.830643,3550.92
          -122.680481,46.83416,3528.06
          -122.658669,46.851608,3383.28
          -122.636398,46.867859,3246.12
          -122.613617,46.884434,3139.44
          -122.591789,46.900169,3101.34
          -122.570068,46.915329,3048
          -122.548851,46.929291,2987.04
          -122.528046,46.942932,2887.98
          -122.511772,46.95369,2804.16
          -122.497772,46.965061,2682.24
          -122.493645,46.969299,2659.38
          -122.490486,46.972778,2636.52
          -122.488014,46.9758,2613.66
          -122.484924,46.979919,2590.8
          -122.482841,46.982986,2567.94
          -122.480324,46.986969,2552.7
          -122.478264,46.99062,2537.46
          -122.476135,46.994339,2522.22
          -122.473969,46.99802,2506.98
          -122.471924,47.00156,2484.12
          -122.469955,47.004913,2461.26
          -122.459106,47.022976,2407.92
          -122.448601,47.040298,2339.34
          -122.438332,47.057281,2247.9
          -122.428482,47.074036,2141.22
          -122.418327,47.091034,2042.16
          -122.408775,47.106628,1889.76
          -122.398682,47.122147,1699.26
          -122.388893,47.137585,1524
          -122.379524,47.15332,1417.32
          -122.374176,47.162445,1341.12
          -122.369087,47.171036,1280.16
          -122.363663,47.180145,1211.58
          -122.360092,47.186138,1188.72
          -122.354942,47.194885,1181.1
          -122.349792,47.203537,1181.1
          -122.344597,47.212116,1181.1
          -122.339386,47.22073,1181.1
          -122.334206,47.229172,1181.1
          -122.32917,47.237766,1181.1
          -122.324524,47.246567,1181.1
          -122.323494,47.250092,1181.1
          -122.32283,47.253174,1173.48
          -122.322327,47.256088,1165.86
          -122.321846,47.258995,1158.24
          -122.321426,47.261974,1143
          -122.321075,47.265091,1127.76
          -122.320679,47.26799,1112.52
          -122.320229,47.271191,1097.28
          -122.319878,47.273796,1082.04
          -122.31958,47.276871,1059.18
          -122.319313,47.279755,1036.32
          -122.319168,47.282455,1013.46
          -122.318619,47.291336,952.5
          -122.318413,47.300491,899.16
          -122.318398,47.309132,845.82
          -122.318535,47.31723,800.1
          -122.318687,47.325577,746.76
          -122.318817,47.333477,701.04
          -122.318962,47.340973,655.32
          -122.319031,47.349445,609.6
          -122.319031,47.356613,571.5
          -122.318893,47.363297,533.4
          -122.318825,47.369888,495.3
          -122.318756,47.375198,457.2
          -122.318619,47.382248,426.72
          -122.318466,47.388222,396.24
          -122.318466,47.394043,358.14
          -122.318413,47.399139,327.66
          -122.318329,47.406147,289.56
          -122.318275,47.411865,259.08
          -122.318329,47.41769,228.6
          -122.318275,47.42308,190.5
          -122.318253,47.427746,160.02
          -122.318138,47.433197,137.16
          -122.318115,47.438313,106.68
          -122.318047,47.442177,83.82
          -122.318001,47.447479,76.2
          -122.317963,47.450603,0
          -122.317886,47.451836,0
          -122.317795,47.45224,0
          -122.317749,47.452442,0
          -122.317619,47.452801,0
          -122.317467,47.453152,0
          -122.317352,47.453396,0
          -122.317177,47.453659,0
          -122.316933,47.453941,0
          -122.316704,47.454174,0
          -122.316475,47.454369,0
          -122.316269,47.454494,0
          -122.315979,47.454643,0
          -122.315666,47.454781,0
          -122.315369,47.454887,0
          -122.315071,47.454956,0
          -122.314857,47.454998,0
          -122.31456,47.455036,0
          -122.314316,47.455059,0
          -122.314087,47.455048,0
          -122.313835,47.455002,0
          -122.313606,47.454849,0
          -122.313522,47.454609,0
          -122.313522,47.454315,0
          -122.313522,47.454105,0
          -122.313522,47.453861,0
          -122.313522,47.453579,0
          -122.313522,47.453373,0
          -122.313522,47.452778,0
          -122.313538,47.452091,0
          -122.313538,47.45137,0
          -122.313538,47.450523,0
          -122.313553,47.449677,0
          -122.313553,47.448902,0
          -122.313568,47.447926,0
          -122.313576,47.44717,0
          -122.313553,47.446838,0
          -122.313347,47.446575,0
          -122.31308,47.446484,0
          -122.312866,47.446472,0
          -122.312576,47.446461,0
          -122.312271,47.446461,0
          -122.31192,47.446449,0
          -122.3116,47.446404,0
          -122.311371,47.446342,0
          -122.311142,47.446262,0
          -122.310913,47.44614,0
          -122.310684,47.446003,0
          -122.310432,47.445774,0
          -122.310173,47.445488,0
          -122.309982,47.445259,0
          -122.309807,47.445042,0
          -122.309608,47.444794,0
          -122.309387,47.444527,0
          -122.309196,47.444309,0
          -122.309006,47.444103,0
          -122.308784,47.443874,0
          -122.30854,47.443726,0
          -122.308327,47.44363,0
          -122.308113,47.443565,0
          -122.307884,47.443516,0
          -122.307648,47.443485,0
          -122.307442,47.443485,0
          -122.307167,47.443485,0
          -122.3069,47.443447,0
          -122.306686,47.443394,0
          -122.306442,47.443295,0
          -122.306206,47.443222,0
          -122.305969,47.443165,0
          -122.305679,47.443108,0
          -122.305466,47.443062,0
          -122.305176,47.442936,0
          -122.304962,47.442806,0
          -122.304703,47.442642,0
          -122.305054,47.442867,0
        </coordinates>
      </LineString>
    </Placemark>
  </Document>
</kml>