<?xml version='1.0' encoding='utf-8'?>
<kml xmlns="http://www.opengis.net/kml/2.2">
  <Document>
    <Placemark>
      <name>DL2389-2026-01-04</name>
      <TimeStamp>
        <when>2026-01-04</when>
      </TimeStamp>
      <LineString>
        <altitudeMode>absolute</altitudeMode>
        <coordinates>
          -84.43026,33.640705,0
          -84.430481,33.640766,0
          -84.430649,33.641018,0
          -84.430649,33.641762,0
          -84.430649,33.642498,0
          -84.430649,33.642815,0
          -84.430649,33.643688,0
          -84.430321,33.644531,0
          -84.429893,33.644619,0
          -84.429642,33.644581,0
          -84.429283,33.6446,0
          -84.429077,33.6446,0
          -84.428772,33.6446,0
          -84.42836,33.644619,0
          -84.428131,33.6446,0
          -84.42791,33.6446,0
          -84.427559,33.64463,0
          -84.427322,33.644661,0
          -84.426964,33.644699,0
          -84.426537,33.644691,0
          -84.42614,33.64468,0
          -84.425873,33.64468,0
          -84.425423,33.64468,0
          -84.424973,33.64468,0
          -84.423447,33.644691,0
          -84.423111,33.644691,0
          -84.422729,33.644714,0
          -84.422424,33.644794,0
          -84.42202,33.644978,0
          -84.421555,33.645218,0
          -84.420769,33.645458,0
          -84.420349,33.645409,0
          -84.420082,33.645409,0
          -84.419807,33.64542,0
          -84.419373,33.645432,0
          -84.419052,33.645432,0
          -84.418732,33.645439,0
          -84.418243,33.645439,0
          -84.4179,33.64542,0
          -84.417572,33.645432,0
          -84.416931,33.645435,0
          -84.416359,33.645432,0
          -84.416039,33.645432,0
          -84.415611,33.645432,0
          -84.415298,33.645424,0
          -84.414291,33.645439,0
          -84.41317,33.645432,0
          -84.412888,33.645432,0
          -84.411659,33.645432,0
          -84.410675,33.645432,0
          -84.409645,33.645432,0
          -84.408562,33.645432,0
          -84.408325,33.645458,0
          -84.407623,33.645649,0
          -84.407257,33.645699,0
          -84.406868,33.645699,0
          -84.406616,33.64571,0
          -84.406349,33.64571,0
          -84.406113,33.64571,0
          -84.405869,33.645771,0
          -84.405678,33.645973,0
          -84.405655,33.646175,0
          -84.405685,33.646385,0
          -84.40583,33.646641,0
          -84.406067,33.646782,0
          -84.406319,33.64682,0
          -84.406586,33.646805,0
          -84.40696,33.646805,0
          -84.407204,33.646809,0
          -84.40789,33.646805,0
          -84.408241,33.646809,0
          -84.40876,33.646805,0
          -84.410065,33.646809,0
          -84.410522,33.646809,0
          -84.411034,33.646805,0
          -84.412369,33.646793,266.7
          -84.41362,33.646793,266.7
          -84.417183,33.646801,0
          -84.418701,33.64682,0
          -84.421173,33.64679,0
          -84.428284,33.646809,0
          -84.43425,33.64682,411.48
          -84.437943,33.646839,472.44
          -84.439743,33.64682,502.92
          -84.441536,33.64682,533.4
          -84.448601,33.64682,647.7
          -84.456192,33.646885,708.66
          -84.458199,33.64698,723.9
          -84.460144,33.647213,739.14
          -84.462143,33.647587,754.38
          -84.463562,33.647919,769.62
          -84.465981,33.648609,784.86
          -84.46804,33.649399,807.72
          -84.470177,33.650208,822.96
          -84.472137,33.651077,845.82
          -84.474159,33.651901,861.06
          -84.475769,33.652565,868.68
          -84.478081,33.653549,883.92
          -84.480042,33.654373,899.16
          -84.482178,33.65522,914.4
          -84.484581,33.656204,929.64
          -84.486237,33.656849,937.26
          -84.488922,33.657921,952.5
          -84.491669,33.658989,960.12
          -84.494003,33.659866,967.74
          -84.4963,33.660736,982.98
          -84.506439,33.664623,1059.18
          -84.513733,33.667465,1120.14
          -84.522415,33.671036,1226.82
          -84.533913,33.675613,1386.84
          -84.541809,33.678726,1493.52
          -84.552498,33.682919,1645.92
          -84.560104,33.686642,1752.6
          -84.562943,33.688385,1805.94
          -84.564972,33.689854,1836.42
          -84.566971,33.691437,1866.9
          -84.569092,33.693253,1905
          -84.571152,33.695301,1943.1
          -84.573151,33.697674,1988.82
          -84.574753,33.699863,2026.92
          -84.575951,33.701752,2057.4
          -84.577164,33.704052,2095.5
          -84.578247,33.706375,2133.6
          -84.579315,33.709442,2186.94
          -84.579926,33.71196,2225.04
          -84.580307,33.71434,2255.52
          -84.580536,33.716949,2301.24
          -84.58065,33.719555,2331.72
          -84.580597,33.721928,2369.82
          -84.580597,33.724907,2415.54
          -84.580544,33.727203,2446.02
          -84.58049,33.729813,2484.12
          -84.58049,33.73233,2522.22
          -84.580437,33.73494,2560.32
          -84.580421,33.737476,2590.8
          -84.580376,33.740433,2628.9
          -84.580376,33.743179,2667
          -84.580368,33.745483,2697.48
          -84.580307,33.748138,2735.58
          -84.580154,33.767349,2903.22
          -84.580017,33.786682,2994.66
          -84.579277,33.803535,3093.72
          -84.578644,33.806934,3116.58
          -84.577858,33.809647,3147.06
          -84.576904,33.812485,3169.92
          -84.576019,33.814663,3192.78
          -84.574753,33.81741,3223.26
          -84.573311,33.820038,3246.12
          -84.571411,33.823242,3276.6
          -84.569778,33.825882,3291.84
          -84.56852,33.827976,3307.08
          -84.566589,33.831024,3329.94
          -84.564568,33.834137,3352.8
          -84.563004,33.836609,3368.04
          -84.56131,33.839195,3383.28
          -84.559471,33.84201,3398.52
          -84.557251,33.845432,3413.76
          -84.555527,33.847992,3429
          -84.553474,33.851212,3444.24
          -84.541588,33.869339,3528.06
          -84.529259,33.888016,3604.26
          -84.51622,33.907673,3680.46
          -84.481895,33.959244,4084.32
          -84.448769,34.00882,4549.14
          -84.414429,34.060364,4953
          -84.379349,34.112827,5341.62
          -84.34433,34.165108,5753.1
          -84.308411,34.21875,6073.14
          -84.273827,34.270889,6332.22
          -84.263733,34.290756,6431.28
          -84.262558,34.293636,6446.52
          -84.261101,34.29744,6469.38
          -84.259758,34.301273,6492.24
          -84.258301,34.305862,6515.1
          -84.257187,34.309746,6530.34
          -84.256096,34.313889,6553.2
          -84.255051,34.318176,6568.44
          -84.254097,34.321976,6591.3
          -84.253235,34.32571,6606.54
          -84.252258,34.329716,6629.4
          -84.251343,34.33353,6644.64
          -84.250397,34.337448,6667.5
          -84.249214,34.342392,6690.36
          -84.234238,34.40527,6934.2
          -84.219231,34.469009,7216.14
          -84.20443,34.531952,7520.94
          -84.18972,34.594456,7734.3
          -84.1745,34.658978,7993.38
          -84.159477,34.722519,8221.98
          -84.144058,34.787045,8435.34
          -84.125809,34.850868,8732.52
          -84.108467,34.912445,8846.82
          -84.0905,34.976933,8839.2
          -84.073212,35.039246,8839.2
          -84.05542,35.102901,8839.2
          -84.037285,35.167877,8839.2
          -84.019638,35.230873,8839.2
          -84.001755,35.294601,8839.2
          -83.98378,35.358398,8839.2
          -83.966347,35.420387,8839.2
          -83.948578,35.48328,8839.2
          -83.930283,35.548233,8839.2
          -83.912491,35.61113,8839.2
          -83.894287,35.675446,8854.44
          -83.876266,35.737564,9113.52
          -83.851433,35.799408,9448.8
          -83.818848,35.857651,9692.64
          -83.780075,35.914627,9898.38
          -83.74231,35.969696,10058.4
          -83.703629,36.026093,10066.02
          -83.666969,36.079147,10058.4
          -83.628166,36.135662,10058.4
          -83.589127,36.192268,10058.4
          -83.550682,36.247879,10058.4
          -83.510452,36.305923,10066.02
          -83.472603,36.360558,10058.4
          -83.43251,36.418327,10058.4
          -83.39241,36.4758,10058.4
          -83.354759,36.529724,10058.4
          -83.31356,36.588684,10058.4
          -83.273849,36.645538,10066.02
          -83.234467,36.701691,10066.02
          -83.19368,36.759705,10058.4
          -83.152946,36.817699,10058.4
          -83.112228,36.874073,10050.78
          -83.065956,36.926586,10058.4
          -83.010071,36.97691,10058.4
          -82.946838,37.022186,10058.4
          -82.879723,37.064007,10058.4
          -82.809982,37.10693,10058.4
          -82.739113,37.149059,10058.4
          -82.669495,37.190491,10058.4
          -82.598442,37.232758,10058.4
          -82.529472,37.273727,10058.4
          -82.459084,37.315437,10058.4
          -82.387589,37.357773,10066.02
          -82.320557,37.402767,10066.02
          -82.262238,37.451569,10066.02
          -82.205727,37.500595,10058.4
          -82.14904,37.549713,10058.4
          -82.092468,37.598705,10058.4
          -82.035149,37.648315,10058.4
          -81.977821,37.697845,10058.4
          -81.92099,37.746788,10058.4
          -81.862114,37.797485,10058.4
          -81.803665,37.847759,10066.02
          -81.745583,37.89743,10066.02
          -81.688904,37.945938,10058.4
          -81.630806,37.995564,10050.78
          -81.572113,38.045609,10043.16
          -81.518318,38.091385,10043.16
          -81.458786,38.14183,10050.78
          -81.400871,38.190804,10066.02
          -81.342834,38.240009,10073.64
          -81.283112,38.290237,10073.64
          -81.224846,38.339352,10073.64
          -81.166351,38.388382,10066.02
          -81.107971,38.437344,10058.4
          -81.048592,38.487122,10058.4
          -80.991508,38.534866,10058.4
          -80.934082,38.582821,10058.4
          -80.874878,38.632027,10058.4
          -80.817322,38.679882,10058.4
          -80.756859,38.730011,10050.78
          -80.699593,38.77739,10050.78
          -80.639946,38.826691,10058.4
          -80.580177,38.875992,10058.4
          -80.521545,38.924141,10050.78
          -80.462402,38.972744,10058.4
          -80.402405,39.021946,10066.02
          -80.343872,39.069756,10058.4
          -80.284683,39.118103,10066.02
          -80.225281,39.166447,10058.4
          -80.164009,39.216293,10058.4
          -80.104858,39.264252,10058.4
          -80.044533,39.31311,10058.4
          -79.984764,39.361496,10058.4
          -79.927917,39.407352,10050.78
          -79.865952,39.457077,10058.4
          -79.807915,39.503769,10058.4
          -79.747543,39.552063,10066.02
          -79.687363,39.600128,10066.02
          -79.624451,39.650448,10066.02
          -79.563171,39.699284,10066.02
          -79.503044,39.745926,10058.4
          -79.440857,39.792435,10058.4
          -79.378479,39.839451,10058.4
          -79.314545,39.88765,10058.4
          -79.251709,39.934937,10050.78
          -79.190186,39.981125,10050.78
          -79.125671,40.029465,10050.78
          -79.063736,40.075844,10050.78
          -79.000435,40.123001,10058.4
          -78.936516,40.17067,10058.4
          -78.874344,40.216805,10058.4
          -78.81073,40.263977,10066.02
          -78.746071,40.311771,10066.02
          -78.682678,40.358551,10066.02
          -78.623352,40.402222,10066.02
          -78.560051,40.448822,10058.4
          -78.500122,40.492767,10050.78
          -78.438011,40.538246,10050.78
          -78.373466,40.585403,10050.78
          -78.310425,40.631351,10058.4
          -78.247002,40.677532,10058.4
          -78.1828,40.724121,10058.4
          -78.118347,40.770813,10066.02
          -78.055054,40.816582,10066.02
          -77.99115,40.86264,10066.02
          -77.927773,40.908291,10066.02
          -77.862289,40.955261,10058.4
          -77.797935,41.00135,9944.1
          -77.733643,41.047211,9829.8
          -77.669678,41.092896,9700.26
          -77.605423,41.13868,9570.72
          -77.538635,41.186069,9433.56
          -77.47406,41.231827,9243.06
          -77.409172,41.277775,9052.56
          -77.344238,41.323517,8862.06
          -77.28064,41.368378,8839.2
          -77.215302,41.414406,8839.2
          -77.150276,41.459934,8839.2
          -77.085693,41.50502,8839.2
          -77.021759,41.549641,8846.82
          -76.956482,41.594936,8763
          -76.89267,41.63916,8618.22
          -76.828926,41.683434,8458.2
          -76.764343,41.728088,8298.18
          -76.700424,41.772171,8145.78
          -76.639938,41.813782,7985.76
          -76.578766,41.855804,7840.98
          -76.515945,41.89883,7673.34
          -76.455421,41.940399,7520.94
          -76.394684,41.982101,7353.3
          -76.331345,42.025078,7315.2
          -76.273033,42.064743,7315.2
          -76.210037,42.107346,7315.2
          -76.14624,42.148682,7315.2
          -76.127136,42.158432,7315.2
          -76.122353,42.160686,7315.2
          -76.116089,42.163467,7315.2
          -76.111107,42.165527,7315.2
          -76.106102,42.167587,7315.2
          -76.100861,42.169556,7315.2
          -76.096802,42.171066,7315.2
          -76.091248,42.173035,7315.2
          -76.084877,42.175278,7315.2
          -76.080643,42.176792,7315.2
          -76.074142,42.179031,7315.2
          -76.068962,42.180817,7315.2
          -76.063843,42.182556,7315.2
          -76.057724,42.184708,7315.2
          -75.975891,42.213242,7315.2
          -75.892021,42.242432,7315.2
          -75.809471,42.27095,7315.2
          -75.725136,42.300156,7315.2
          -75.645599,42.327484,7315.2
          -75.562241,42.356205,7223.76
          -75.479271,42.384602,7063.74
          -75.395988,42.41304,6903.72
          -75.317833,42.43959,6743.7
          -75.234871,42.466782,6576.06
          -75.147507,42.487251,6385.56
          -75.060448,42.504662,6134.1
          -74.973701,42.522816,5753.1
          -74.888435,42.54097,5379.72
          -74.802971,42.558746,5013.96
          -74.724449,42.574493,4709.16
          -74.643486,42.590973,4366.26
          -74.564148,42.606491,4023.36
          -74.553734,42.607635,3977.64
          -74.548225,42.607956,3962.4
          -74.542236,42.608101,3939.54
          -74.537239,42.608047,3916.68
          -74.531059,42.607819,3893.82
          -74.5271,42.60754,3878.58
          -74.520645,42.606937,3855.72
          -74.515533,42.606285,3832.86
          -74.510429,42.605633,3817.62
          -74.505219,42.604889,3794.76
          -74.499054,42.603958,3771.9
          -74.494011,42.603165,3756.66
          -74.4888,42.602371,3733.8
          -74.483665,42.601582,3718.56
          -74.477814,42.600632,3703.32
          -74.472572,42.599808,3688.08
          -74.467758,42.599068,3680.46
          -74.462708,42.598251,3665.22
          -74.457413,42.597439,3657.6
          -74.381439,42.5858,3589.02
          -74.353035,42.581497,3558.54
          -74.325134,42.577286,3528.06
          -74.298477,42.573212,3421.38
          -74.270889,42.569046,3276.6
          -74.246117,42.565319,3131.82
          -74.219704,42.561356,2979.42
          -74.193169,42.55751,2804.16
          -74.167297,42.553959,2621.28
          -74.136368,42.549637,2430.78
          -74.111588,42.546387,2301.24
          -74.086243,42.543137,2171.7
          -74.058266,42.539669,1981.2
          -74.031372,42.536407,1805.94
          -74.006157,42.533615,1638.3
          -73.994484,42.533295,1554.48
          -73.988991,42.533524,1524
          -73.98436,42.533848,1501.14
          -73.980682,42.534164,1478.28
          -73.97612,42.534641,1455.42
          -73.972633,42.534988,1432.56
          -73.969223,42.535385,1417.32
          -73.965576,42.535812,1394.46
          -73.961113,42.536362,1371.6
          -73.956841,42.536865,1348.74
          -73.953529,42.537277,1325.88
          -73.948273,42.537945,1295.4
          -73.944542,42.538422,1264.92
          -73.940796,42.538879,1242.06
          -73.937416,42.539341,1226.82
          -73.922081,42.541203,1135.38
          -73.907585,42.542881,1043.94
          -73.897163,42.544189,982.98
          -73.883118,42.546047,922.02
          -73.873734,42.547256,899.16
          -73.859772,42.548996,876.3
          -73.849777,42.55019,861.06
          -73.846542,42.550598,861.06
          -73.843605,42.551102,861.06
          -73.840645,42.551723,853.44
          -73.837067,42.552654,838.2
          -73.83387,42.553726,822.96
          -73.831573,42.554611,815.34
          -73.829086,42.555775,800.1
          -73.82621,42.557312,792.48
          -73.824036,42.558754,777.24
          -73.822182,42.560246,769.62
          -73.820511,42.561722,762
          -73.818764,42.563461,754.38
          -73.817017,42.565292,746.76
          -73.815453,42.567032,731.52
          -73.813957,42.568726,723.9
          -73.812538,42.570347,716.28
          -73.811211,42.57193,708.66
          -73.809471,42.573978,701.04
          -73.808151,42.5755,693.42
          -73.806587,42.577423,685.8
          -73.805321,42.578957,678.18
          -73.804169,42.58054,678.18
          -73.803032,42.58223,670.56
          -73.801872,42.584312,662.94
          -73.801155,42.586029,655.32
          -73.800537,42.587723,647.7
          -73.799957,42.589756,640.08
          -73.79966,42.591476,632.46
          -73.799446,42.593109,624.84
          -73.799255,42.595203,617.22
          -73.799187,42.596832,609.6
          -73.799164,42.598526,609.6
          -73.799164,42.60022,601.98
          -73.799187,42.601536,594.36
          -73.799187,42.603958,586.74
          -73.799255,42.605633,579.12
          -73.799255,42.606888,579.12
          -73.799286,42.608597,571.5
          -73.799347,42.610245,571.5
          -73.799347,42.611893,571.5
          -73.799347,42.613861,563.88
          -73.799385,42.615456,563.88
          -73.799408,42.617386,563.88
          -73.799477,42.621918,556.26
          -73.799721,42.628189,556.26
          -73.799828,42.632168,563.88
          -73.799911,42.636703,563.88
          -73.800163,42.642059,563.88
          -73.800407,42.647095,563.88
          -73.800659,42.651161,556.26
          -73.80085,42.656067,556.26
          -73.801155,42.661285,533.4
          -73.801285,42.665176,518.16
          -73.801422,42.668804,495.3
          -73.80162,42.673599,457.2
          -73.80172,42.67717,434.34
          -73.801933,42.681793,403.86
          -73.802155,42.686417,373.38
          -73.802254,42.691288,342.9
          -73.802406,42.695847,320.04
          -73.802513,42.699203,289.56
          -73.80278,42.704041,259.08
          -73.802971,42.708618,236.22
          -73.803093,42.712006,213.36
          -73.803406,42.716949,182.88
          -73.803596,42.721893,152.4
          -73.803856,42.727039,114.3
          -73.803978,42.730534,99.06
          -73.804169,42.735374,60.96
          -73.804733,42.748001,0
          -73.804825,42.750286,0
          -73.804901,42.751934,0
          -73.804939,42.752762,0
          -73.804985,42.753307,0
          -73.805756,42.753494,0
          -73.805962,42.753494,0
          -73.806213,42.753468,0
          -73.806435,42.753284,0
          -73.80645,42.753033,0
          -73.806435,42.752792,0
          -73.806419,42.752575,0
          -73.806404,42.752308,0
          -73.806404,42.751991,0
          -73.806374,42.751667,0
          -73.806358,42.751377,0
          -73.806358,42.751072,0
          -73.806343,42.750839,0
          -73.806328,42.750561,0
          -73.806313,42.750351,0
          -73.806313,42.750072,0
          -73.80629,42.749725,0
          -73.806282,42.749512,0
          -73.806282,42.749268,0
          -73.806267,42.749046,0
          -73.806244,42.748787,0
          -73.806229,42.748581,0
          -73.806229,42.748352,0
          -73.80648,42.74818,0
          -73.806702,42.74818,0
          -73.806931,42.74818,0
          -73.807167,42.74818,0
          -73.807426,42.748177,0
          -73.807671,42.748165,0
          -73.807915,42.748158,0
          -73.808319,42.748146,0
          -73.808578,42.748138,0
          -73.808784,42.748116,0
          -73.809021,42.748032,0
          -73.809227,42.747906,0
          -73.80912,42.7477,0
          -73.809044,42.747467,0
          -73.808929,42.747219,0
          -73.808838,42.747013,0
        </coordinates>
      </LineString>
    </Placemark>
  </Document>
</kml>