<?xml version='1.0' encoding='utf-8'?>
<kml xmlns="http://www.opengis.net/kml/2.2">
  <Document>
    <Placemark>
      <name>DL2389-2026-01-03</name>
      <TimeStamp>
        <when>2026-01-03</when>
      </TimeStamp>
      <LineString>
        <altitudeMode>absolute</altitudeMode>
        <coordinates>
          -73.808945,42.747326,0
          -73.80896,42.747536,0
          -73.808754,42.747639,0
          -73.808548,42.747711,0
          -73.808304,42.747768,0
          -73.808083,42.747837,0
          -73.807861,42.747906,0
          -73.80764,42.747967,0
          -73.807396,42.748047,0
          -73.80719,42.748116,0
          -73.806946,42.748169,0
          -73.806725,42.748199,0
          -73.806458,42.748177,0
          -73.806252,42.748001,0
          -73.806198,42.747757,0
          -73.806198,42.747524,0
          -73.806183,42.747265,0
          -73.806183,42.746941,0
          -73.806168,42.746727,0
          -73.806152,42.74651,0
          -73.806137,42.746105,0
          -73.806122,42.745731,0
          -73.806091,42.745125,0
          -73.806053,42.744335,0
          -73.806046,42.743877,0
          -73.806015,42.74334,0
          -73.806,42.742893,0
          -73.805962,42.742378,0
          -73.806023,42.74189,0
          -73.806267,42.741798,0
          -73.806602,42.74181,0
          -73.806778,42.742031,0
          -73.806793,42.742252,0
          -73.806793,42.742542,0
          -73.806808,42.742756,0
          -73.806717,42.742973,0
          -73.806358,42.743179,0
          -73.806061,42.743568,0
          -73.806038,42.743835,0
          -73.806038,42.744137,0
          -73.806061,42.744358,0
          -73.806076,42.744564,0
          -73.806076,42.744823,0
          -73.806091,42.745056,0
          -73.806091,42.745365,0
          -73.806122,42.745731,0
          -73.806137,42.745983,0
          -73.806183,42.747128,0
          -73.806198,42.747665,0
          -73.806183,42.748001,0
          -73.805977,42.748165,0
          -73.805702,42.748215,0
          -73.805435,42.748215,0
          -73.805191,42.748222,0
          -73.804985,42.748226,0
          -73.804779,42.748238,0
          -73.804489,42.748245,0
          -73.803932,42.748257,0
          -73.80336,42.748272,0
          -73.802628,42.748283,0
          -73.801926,42.748306,0
          -73.801109,42.748325,0
          -73.80085,42.748325,0
          -73.800423,42.748341,0
          -73.800163,42.748341,0
          -73.799896,42.748348,0
          -73.799637,42.748348,0
          -73.799362,42.74836,0
          -73.799065,42.748371,0
          -73.798805,42.748371,0
          -73.798492,42.748386,0
          -73.797691,42.748409,0
          -73.796959,42.748421,0
          -73.79599,42.748444,0
          -73.795021,42.748466,0
          -73.793961,42.748489,0
          -73.792435,42.748524,0
          -73.792213,42.748535,0
          -73.790283,42.748581,0
          -73.789536,42.748592,0
          -73.788078,42.748638,0
          -73.787117,42.748653,0
          -73.78624,42.748665,0
          -73.785919,42.748676,0
          -73.78566,42.748753,0
          -73.785431,42.748981,0
          -73.785408,42.74921,0
          -73.785431,42.749462,0
          -73.785477,42.749714,0
          -73.785713,42.749817,0
          -73.785957,42.749783,0
          -73.786194,42.749771,0
          -73.78791,42.749725,0
          -73.790108,42.74968,0
          -73.797852,42.749477,137.16
          -73.807686,42.749294,205.74
          -73.820206,42.74892,426.72
          -73.831184,42.748398,624.84
          -73.838615,42.747849,708.66
          -73.850471,42.746796,815.34
          -73.860893,42.746475,899.16
          -73.868324,42.747803,960.12
          -73.870476,42.748501,975.36
          -73.872566,42.749359,990.6
          -73.881012,42.754414,1066.8
          -73.88382,42.756416,1097.28
          -73.891426,42.762188,1211.58
          -73.896164,42.765839,1318.26
          -73.902092,42.770645,1432.56
          -73.905968,42.773941,1508.76
          -73.91729,42.783928,1714.5
          -73.929619,42.79496,1950.72
          -73.942589,42.806644,2209.8
          -73.954979,42.817566,2461.26
          -73.968071,42.828804,2705.1
          -73.980972,42.839767,2933.7
          -73.994392,42.850754,3177.54
          -74.006844,42.861832,3307.08
          -74.019928,42.874287,3398.52
          -74.034317,42.8876,3482.34
          -74.042297,42.89328,3512.82
          -74.045235,42.895,3520.44
          -74.048439,42.896629,3528.06
          -74.05204,42.898308,3543.3
          -74.05584,42.899918,3558.54
          -74.059158,42.901199,3573.78
          -74.063438,42.902756,3589.02
          -74.066292,42.903706,3596.64
          -74.07061,42.904964,3611.88
          -74.074203,42.905941,3627.12
          -74.078522,42.906918,3634.74
          -74.082474,42.907654,3649.98
          -74.086632,42.908314,3665.22
          -74.090645,42.908798,3680.46
          -74.094414,42.909119,3703.32
          -74.09938,42.90934,3726.18
          -74.103294,42.909393,3749.04
          -74.107491,42.909245,3779.52
          -74.111855,42.908981,3810
          -74.116585,42.908455,3848.1
          -74.11998,42.907944,3878.58
          -74.124886,42.907059,3924.3
          -74.128876,42.906174,3962.4
          -74.133057,42.90509,4008.12
          -74.137505,42.903751,4053.84
          -74.141823,42.902218,4099.56
          -74.145615,42.900726,4145.28
          -74.149094,42.899185,4183.38
          -74.153664,42.896957,4236.72
          -74.157074,42.895065,4274.82
          -74.160919,42.892765,4312.92
          -74.164322,42.890438,4351.02
          -74.167107,42.888382,4381.5
          -74.170174,42.885956,4411.98
          -74.173744,42.882751,4450.08
          -74.175789,42.880646,4472.94
          -74.178841,42.877357,4503.42
          -74.181129,42.874519,4526.28
          -74.183609,42.870934,4556.76
          -74.185509,42.867863,4572
          -74.187546,42.863983,4602.48
          -74.18895,42.860687,4617.72
          -74.190216,42.857201,4640.58
          -74.191315,42.852722,4671.06
          -74.191917,42.849239,4693.92
          -74.192268,42.845718,4716.78
          -74.192436,42.841976,4739.64
          -74.192245,42.838116,4770.12
          -74.191788,42.833832,4800.6
          -74.191132,42.829922,4831.08
          -74.190163,42.825394,4861.56
          -74.18927,42.821457,4892.04
          -74.188316,42.81749,4922.52
          -74.187035,42.812714,4960.62
          -74.186012,42.808926,4991.1
          -74.184608,42.804085,5029.2
          -74.183617,42.800812,5052.06
          -74.182243,42.796078,5082.54
          -74.181091,42.792168,5105.4
          -74.179688,42.78751,5128.26
          -74.178566,42.783646,5151.12
          -74.161339,42.723175,5433.06
          -74.144173,42.660236,5836.92
          -74.127007,42.59642,6187.44
          -74.109871,42.532032,6499.86
          -74.092758,42.467186,6758.94
          -74.074753,42.398895,7048.5
          -74.057564,42.333488,7299.96
          -74.040611,42.26683,7498.08
          -74.034248,42.197182,7802.88
          -74.038338,42.129215,7947.66
          -74.042549,42.058178,8122.92
          -74.046539,41.987869,8282.94
          -74.050728,41.916145,8496.3
          -74.054909,41.843262,8702.04
          -74.059219,41.770485,8953.5
          -74.063759,41.698143,9243.06
          -74.069824,41.667847,9319.26
          -74.071297,41.663181,9326.88
          -74.072632,41.659195,9334.5
          -74.074554,41.654243,9349.74
          -74.076019,41.650661,9357.36
          -74.078255,41.645645,9372.6
          -74.080238,41.641441,9380.22
          -74.082214,41.637627,9387.84
          -74.084198,41.634041,9395.46
          -74.086365,41.630318,9410.7
          -74.08905,41.625942,9425.94
          -74.091484,41.622253,9433.56
          -74.094093,41.618401,9441.18
          -74.096588,41.614906,9456.42
          -74.099274,41.611324,9471.66
          -74.102592,41.607193,9486.9
          -74.1054,41.603783,9502.14
          -74.107712,41.601105,9509.76
          -74.11171,41.596664,9532.62
          -74.114517,41.593689,9547.86
          -74.117516,41.590622,9570.72
          -74.120667,41.587582,9585.96
          -74.123924,41.584461,9608.82
          -74.127632,41.580971,9624.06
          -74.130188,41.578583,9646.92
          -74.133568,41.575478,9662.16
          -74.137054,41.57222,9685.02
          -74.140404,41.569099,9707.88
          -74.189842,41.522781,9974.58
          -74.239487,41.476822,10096.5
          -74.285995,41.433655,10271.76
          -74.334839,41.388058,10370.82
          -74.382057,41.344208,10363.2
          -74.430061,41.299377,10363.2
          -74.478378,41.254452,10363.2
          -74.525818,41.209949,10363.2
          -74.573059,41.165771,10355.58
          -74.619514,41.121967,10347.96
          -74.665085,41.078903,10347.96
          -74.711548,41.035034,10347.96
          -74.756783,40.992413,10347.96
          -74.802162,40.949581,10363.2
          -74.849289,40.904987,10363.2
          -74.896484,40.860123,10363.2
          -74.942612,40.816257,10363.2
          -74.989738,40.771568,10370.82
          -75.037117,40.726273,10370.82
          -75.084656,40.680817,10363.2
          -75.130981,40.636414,10363.2
          -75.178345,40.590958,10370.82
          -75.22464,40.54644,10378.44
          -75.27124,40.501602,10378.44
          -75.317566,40.457062,10370.82
          -75.363091,40.413067,10363.2
          -75.408875,40.368851,10347.96
          -75.45459,40.324631,10347.96
          -75.499855,40.28072,10355.58
          -75.548828,40.237885,10363.2
          -75.601921,40.202187,10363.2
          -75.654663,40.167038,10355.58
          -75.708534,40.131195,10355.58
          -75.762527,40.095161,10363.2
          -75.816902,40.058712,10370.82
          -75.869957,40.023102,10378.44
          -75.923523,39.987167,10378.44
          -75.976387,39.951595,10370.82
          -76.030151,39.91547,10355.58
          -76.082832,39.880005,10347.96
          -76.135735,39.844208,10355.58
          -76.187798,39.809006,10355.58
          -76.239685,39.773758,10355.58
          -76.291153,39.738739,10347.96
          -76.343513,39.703079,10347.96
          -76.396538,39.666962,10347.96
          -76.450317,39.630478,10355.58
          -76.502869,39.594402,10370.82
          -76.556076,39.557831,10370.82
          -76.610054,39.520844,10378.44
          -76.66394,39.483791,10370.82
          -76.716934,39.447372,10370.82
          -76.77124,39.409866,10370.82
          -76.825066,39.372849,10370.82
          -76.878723,39.335617,10370.82
          -76.932739,39.298096,10363.2
          -76.986275,39.26088,10355.58
          -77.039734,39.223751,10363.2
          -77.093872,39.185989,10363.2
          -77.147095,39.148804,10363.2
          -77.200867,39.111282,10363.2
          -77.255737,39.072739,10370.82
          -77.309776,39.034882,10370.82
          -77.36483,38.996109,10370.82
          -77.41803,38.958542,10363.2
          -77.472961,38.919891,10363.2
          -77.526428,38.882107,10363.2
          -77.580322,38.843838,10363.2
          -77.635132,38.804966,10355.58
          -77.689087,38.766701,10363.2
          -77.742363,38.728775,10363.2
          -77.79586,38.690598,10363.2
          -77.849838,38.652145,10355.58
          -77.906143,38.617218,10363.2
          -77.963074,38.583752,10363.2
          -78.020569,38.549862,10363.2
          -78.078339,38.515915,10363.2
          -78.136139,38.481766,10363.2
          -78.193359,38.44796,10363.2
          -78.251282,38.413651,10363.2
          -78.308327,38.379913,10370.82
          -78.364883,38.346287,10363.2
          -78.422745,38.311844,10363.2
          -78.479225,38.278183,10363.2
          -78.53672,38.243782,10363.2
          -78.593681,38.209843,10363.2
          -78.649513,38.172321,10363.2
          -78.703842,38.133499,10363.2
          -78.758362,38.094536,10363.2
          -78.813286,38.055222,10363.2
          -78.868103,38.015854,10363.2
          -78.922615,37.976665,10363.2
          -78.97731,37.937374,10363.2
          -79.031227,37.898411,10355.58
          -79.088295,37.857193,10355.58
          -79.143112,37.817551,10363.2
          -79.199387,37.776718,10370.82
          -79.253265,37.737534,10370.82
          -79.308319,37.697525,10370.82
          -79.363441,37.657314,10378.44
          -79.41806,37.617462,10378.44
          -79.473518,37.577042,10370.82
          -79.527573,37.537445,10363.2
          -79.582336,37.497269,10355.58
          -79.636681,37.457336,10355.58
          -79.691719,37.416779,10355.58
          -79.745956,37.37677,10355.58
          -79.801003,37.336121,10355.58
          -79.853775,37.297119,10355.58
          -79.90947,37.255783,10363.2
          -79.966255,37.213627,10363.2
          -80.021782,37.172379,10370.82
          -80.076012,37.132004,10370.82
          -80.132118,37.090256,10363.2
          -80.18766,37.048737,10363.2
          -80.243027,37.007217,10363.2
          -80.299248,36.965038,10363.2
          -80.354996,36.923035,10363.2
          -80.411156,36.880783,10370.82
          -80.467026,36.838741,10370.82
          -80.523178,36.796238,10370.82
          -80.57975,36.753456,10363.2
          -80.635788,36.711002,10363.2
          -80.69149,36.66861,10363.2
          -80.744133,36.628738,10363.2
          -80.799927,36.586166,10363.2
          -80.856689,36.542854,10355.58
          -80.912148,36.500492,10355.58
          -80.969177,36.456802,10363.2
          -81.025284,36.413811,10363.2
          -81.080994,36.371109,10363.2
          -81.136017,36.328716,10363.2
          -81.192566,36.285187,10363.2
          -81.249619,36.241058,10370.82
          -81.305435,36.197811,10363.2
          -81.363083,36.153076,10363.2
          -81.419441,36.109314,10363.2
          -81.476013,36.065277,10370.82
          -81.531143,36.022385,10370.82
          -81.5867,35.978989,10363.2
          -81.643669,35.934372,10355.58
          -81.699715,35.890518,10355.58
          -81.755699,35.846619,10355.58
          -81.812965,35.801651,10355.58
          -81.865997,35.759903,10363.2
          -81.924934,35.713486,10370.82
          -81.980392,35.669582,10370.82
          -82.035675,35.625824,10370.82
          -82.092529,35.580761,10370.82
          -82.14933,35.535789,10363.2
          -82.205429,35.491241,10363.2
          -82.26236,35.445831,10363.2
          -82.318802,35.400742,10363.2
          -82.375198,35.355652,10370.82
          -82.430771,35.311131,10363.2
          -82.485352,35.267368,10355.58
          -82.541016,35.222672,10355.58
          -82.596245,35.178314,10363.2
          -82.650833,35.133625,10355.58
          -82.705421,35.087261,10355.58
          -82.759094,35.041916,10363.2
          -82.81208,34.997086,10370.82
          -82.866226,34.951355,10370.82
          -82.919533,34.905945,10378.44
          -82.972565,34.860123,10248.9
          -83.026489,34.813484,10088.88
          -83.079414,34.767727,9837.42
          -83.132706,34.721146,9364.98
          -83.185616,34.67514,8816.34
          -83.236771,34.630863,8313.42
          -83.2901,34.584354,7886.7
          -83.340622,34.540131,7482.84
          -83.390465,34.496792,6964.68
          -83.438133,34.455139,6568.44
          -83.48465,34.41444,6202.68
          -83.530312,34.374638,5814.06
          -83.573975,34.336559,5455.92
          -83.618431,34.297592,5074.92
          -83.660049,34.259674,4739.64
          -83.700256,34.221622,4381.5
          -83.737289,34.186523,4076.7
          -83.773438,34.152306,3870.96
          -83.808121,34.119812,3756.66
          -83.840042,34.089832,3657.6
          -83.871086,34.06105,3421.38
          -83.883583,34.049423,3307.08
          -83.89801,34.035969,3162.3
          -83.91008,34.024704,3048
          -83.922104,34.013485,2926.08
          -83.93692,33.99966,2804.16
          -83.949059,33.988312,2758.44
          -83.962212,33.974148,2750.82
          -83.963684,33.971786,2750.82
          -83.965141,33.968903,2750.82
          -83.966042,33.966522,2750.82
          -83.96666,33.964462,2750.82
          -83.967247,33.961765,2750.82
          -83.967606,33.959198,2750.82
          -83.967888,33.955856,2750.82
          -83.967934,33.953758,2750.82
          -83.968002,33.950638,2750.82
          -83.967934,33.947987,2758.44
          -83.967834,33.945007,2758.44
          -83.96772,33.942535,2758.44
          -83.967552,33.939468,2758.44
          -83.967422,33.936954,2758.44
          -83.967216,33.934204,2750.82
          -83.967049,33.931641,2750.82
          -83.966843,33.928528,2750.82
          -83.966675,33.926105,2750.82
          -83.966431,33.922943,2750.82
          -83.966263,33.920288,2750.82
          -83.966713,33.904358,2727.96
          -83.967018,33.90176,2712.72
          -83.967361,33.899155,2705.1
          -83.967834,33.896118,2697.48
          -83.968216,33.893566,2689.86
          -83.968674,33.890865,2682.24
          -83.969124,33.888107,2674.62
          -83.96965,33.885139,2667
          -83.970047,33.882767,2667
          -83.97271,33.867462,2621.28
          -83.975372,33.852787,2583.18
          -83.978287,33.836308,2537.46
          -83.980614,33.822418,2499.36
          -83.98291,33.809601,2461.26
          -83.985275,33.795994,2453.64
          -83.987511,33.782684,2446.02
          -83.989731,33.76918,2446.02
          -83.991989,33.754028,2385.06
          -83.994514,33.740524,2270.76
          -83.997261,33.727203,2156.46
          -84.000626,33.711273,2049.78
          -84.004601,33.698364,1958.34
          -84.006004,33.695984,1943.1
          -84.007347,33.694199,1920.24
          -84.009148,33.692139,1905
          -84.010773,33.690536,1889.76
          -84.012794,33.688877,1866.9
          -84.014397,33.687805,1851.66
          -84.016914,33.686272,1836.42
          -84.019119,33.685135,1821.18
          -84.020912,33.684311,1805.94
          -84.023323,33.683258,1790.7
          -84.026299,33.682022,1775.46
          -84.027977,33.681381,1767.84
          -84.031105,33.680172,1744.98
          -84.033279,33.679333,1737.36
          -84.035599,33.678452,1722.12
          -84.03801,33.677536,1706.88
          -84.040543,33.676586,1699.26
          -84.043221,33.675568,1684.02
          -84.045464,33.674698,1668.78
          -84.047821,33.673782,1661.16
          -84.050064,33.672958,1645.92
          -84.064575,33.667416,1569.72
          -84.079117,33.661877,1539.24
          -84.092491,33.656845,1531.62
          -84.108078,33.651627,1539.24
          -84.110245,33.651215,1539.24
          -84.112411,33.650845,1539.24
          -84.114693,33.650528,1539.24
          -84.117165,33.650238,1539.24
          -84.118782,33.65007,1539.24
          -84.121284,33.649868,1539.24
          -84.123459,33.649773,1539.24
          -84.126091,33.649632,1539.24
          -84.128265,33.64954,1539.24
          -84.130386,33.649448,1531.62
          -84.132568,33.649429,1531.62
          -84.134789,33.649353,1531.62
          -84.136902,33.649353,1531.62
          -84.138962,33.649307,1531.62
          -84.141769,33.649261,1531.62
          -84.143837,33.649246,1531.62
          -84.157631,33.649155,1531.62
          -84.173264,33.649338,1493.52
          -84.180107,33.649399,1470.66
          -84.18924,33.649429,1432.56
          -84.198013,33.649448,1386.84
          -84.204422,33.649448,1348.74
          -84.213295,33.649448,1295.4
          -84.221924,33.649429,1249.68
          -84.230942,33.649384,1203.96
          -84.237274,33.649399,1173.48
          -84.245796,33.649399,1135.38
          -84.254318,33.649429,1089.66
          -84.262726,33.649429,1036.32
          -84.270798,33.649429,998.22
          -84.279037,33.64954,960.12
          -84.28688,33.649494,929.64
          -84.292938,33.649521,899.16
          -84.301186,33.649494,853.44
          -84.309364,33.649521,822.96
          -84.314796,33.649521,792.48
          -84.322014,33.64954,754.38
          -84.328537,33.64954,723.9
          -84.33506,33.64954,693.42
          -84.340919,33.649521,662.94
          -84.346802,33.649475,640.08
          -84.352577,33.649475,617.22
          -84.358185,33.649521,586.74
          -84.364182,33.64954,556.26
          -84.369675,33.649567,525.78
          -84.37529,33.649632,502.92
          -84.381294,33.649586,472.44
          -84.387276,33.649567,441.96
          -84.391708,33.64954,419.1
          -84.39743,33.64954,396.24
          -84.403702,33.649521,358.14
          -84.409561,33.64954,327.66
          -84.414536,33.64954,304.8
          -84.419899,33.649567,289.56
          -84.425331,33.649559,0
          -84.427734,33.649555,0
          -84.428276,33.649555,0
          -84.429932,33.649559,0
          -84.430191,33.649559,0
          -84.43042,33.64954,0
          -84.430901,33.649464,0
          -84.431259,33.649399,0
          -84.431602,33.649315,0
          -84.431854,33.649235,0
          -84.43219,33.64912,0
          -84.432564,33.64896,0
          -84.432793,33.648853,0
          -84.433121,33.648712,0
          -84.433411,33.648598,0
          -84.433662,33.648537,0
          -84.433922,33.648491,0
          -84.434135,33.648468,0
          -84.434349,33.648457,0
          -84.434853,33.648445,0
          -84.43515,33.648445,0
          -84.435364,33.648445,0
          -84.435791,33.648457,0
          -84.436127,33.648457,0
          -84.436333,33.648457,0
          -84.436859,33.64846,0
          -84.437431,33.648457,0
          -84.437653,33.648445,0
          -84.437866,33.648445,0
          -84.438103,33.648422,0
          -84.438354,33.648354,0
          -84.438576,33.648251,0
          -84.438873,33.648121,0
          -84.439308,33.64793,0
          -84.439552,33.647881,0
          -84.439819,33.64785,0
          -84.440033,33.64785,0
          -84.440659,33.647839,0
          -84.440987,33.647839,0
          -84.44133,33.64785,0
          -84.441826,33.64785,0
          -84.442352,33.647839,0
          -84.442619,33.64782,0
          -84.443024,33.647518,0
          -84.443207,33.64727,0
          -84.443352,33.64687,0
          -84.443336,33.646584,0
          -84.442963,33.646,0
          -84.442688,33.645779,0
          -84.442307,33.645748,0
          -84.442017,33.64576,0
          -84.441589,33.645733,0
          -84.441254,33.64563,0
          -84.44104,33.645489,0
          -84.440804,33.64534,0
          -84.440582,33.64521,0
          -84.440376,33.644989,0
          -84.440392,33.644482,0
          -84.440117,33.644291,0
          -84.439812,33.644272,0
          -84.439583,33.64431,0
          -84.439331,33.644329,0
          -84.439072,33.644379,0
          -84.438828,33.644421,0
          -84.43853,33.644459,0
          -84.438316,33.644482,0
          -84.43811,33.644501,0
          -84.437843,33.64452,0
          -84.437561,33.64452,0
          -84.43734,33.644428,0
          -84.437187,33.644218,0
          -84.437202,33.643978,0
          -84.436981,33.643799,0
          -84.436768,33.643799,0
          -84.436562,33.643799,0
          -84.436348,33.64381,0
        </coordinates>
      </LineString>
    </Placemark>
  </Document>
</kml>