<?xml version='1.0' encoding='utf-8'?>
<kml xmlns="http://www.opengis.net/kml/2.2">
  <Document>
    <Placemark>
      <name>DL2322-2025-09-27</name>
      <TimeStamp>
        <when>2025-09-27</when>
      </TimeStamp>
      <LineString>
        <altitudeMode>absolute</altitudeMode>
        <coordinates>
          -74.187195,40.681278,0
          -74.186981,40.681274,0
          -74.186775,40.681278,0
          -74.186569,40.681137,0
          -74.186539,40.681351,0
          -74.186462,40.681618,0
          -74.186378,40.681862,0
          -74.186249,40.682133,0
          -74.185669,40.682499,0
          -74.18515,40.682537,0
          -74.184929,40.682526,0
          -74.184341,40.68248,0
          -74.184105,40.682465,0
          -74.183853,40.682442,0
          -74.183456,40.682419,0
          -74.183243,40.682396,0
          -74.182762,40.682373,0
          -74.182098,40.682339,0
          -74.181839,40.68235,0
          -74.181297,40.682442,0
          -74.181091,40.682571,0
          -74.181,40.682884,0
          -74.180984,40.683105,0
          -74.180954,40.683334,0
          -74.180908,40.683781,0
          -74.180878,40.684032,0
          -74.180832,40.684399,0
          -74.180786,40.684811,0
          -74.180725,40.685371,0
          -74.180283,40.685608,0
          -74.179947,40.685863,0
          -74.17981,40.686073,0
          -74.179688,40.686275,0
          -74.17952,40.68655,0
          -74.179382,40.686768,0
          -74.178955,40.687008,0
          -74.178612,40.686924,0
          -74.17791,40.686714,0
          -74.177704,40.686665,0
          -74.177475,40.6866,0
          -74.176804,40.686424,0
          -74.176453,40.686298,0
          -74.176163,40.686192,0
          -74.175934,40.686104,0
          -74.175598,40.685978,0
          -74.175072,40.685791,0
          -74.17482,40.685699,0
          -74.174568,40.685699,0
          -74.174339,40.685921,0
          -74.174171,40.686211,0
          -74.174042,40.686432,0
          -74.173843,40.686722,0
          -74.173714,40.686932,0
          -74.173431,40.687378,0
          -74.173279,40.687626,0
          -74.172867,40.688251,0
          -74.172424,40.688976,0
          -74.171951,40.68972,0
          -74.171478,40.690441,0
          -74.170982,40.691254,0
          -74.170425,40.692112,0
          -74.169983,40.69281,0
          -74.169388,40.69376,0
          -74.168861,40.694569,0
          -74.168541,40.695091,0
          -74.16819,40.69561,0
          -74.167763,40.696281,0
          -74.167412,40.69685,0
          -74.167084,40.69733,0
          -74.166862,40.697739,0
          -74.166702,40.697948,0
          -74.16658,40.698166,0
          -74.166443,40.698372,0
          -74.166321,40.698589,0
          -74.166161,40.698818,0
          -74.166016,40.699039,0
          -74.165802,40.699127,0
          -74.165588,40.699059,0
          -74.165367,40.699039,0
          -74.165161,40.69902,0
          -74.164932,40.69899,0
          -74.164719,40.698971,0
          -74.16449,40.698891,0
          -74.164238,40.698799,0
          -74.164001,40.698711,0
          -74.163788,40.698631,0
          -74.163551,40.698551,0
          -74.1633,40.69854,0
          -74.163086,40.698624,0
          -74.162926,40.698853,0
          -74.162796,40.699059,0
          -74.162659,40.699287,0
          -74.162521,40.699505,0
          -74.162361,40.69976,0
          -74.162178,40.700031,0
          -74.161987,40.700279,0
          -74.161728,40.700352,0
          -74.161438,40.700294,0
          -74.161163,40.700191,0
          -74.160934,40.7001,0
          -74.16069,40.70002,0
          -74.1604,40.699905,0
          -74.160088,40.69973,0
          -74.160301,40.699539,0
          -74.160431,40.699322,0
          -74.161072,40.698315,0
          -74.1623,40.696396,0
          -74.164673,40.692673,7.62
          -74.168663,40.68639,0
          -74.172592,40.68026,0
          -74.175659,40.675701,0
          -74.177429,40.67131,0
          -74.177544,40.669079,0
          -74.177681,40.667622,0
          -74.177902,40.665482,0
          -74.178101,40.66328,0
          -74.178223,40.661789,0
          -74.17836,40.659611,0
          -74.178711,40.658119,0
          -74.179138,40.656418,464.82
          -74.179939,40.654209,487.68
          -74.180847,40.652344,495.3
          -74.181824,40.650696,502.92
          -74.182747,40.649273,518.16
          -74.183594,40.647903,525.78
          -74.184555,40.646435,541.02
          -74.185493,40.645039,548.64
          -74.186302,40.643829,556.26
          -74.187561,40.642044,563.88
          -74.188805,40.640152,571.5
          -74.189796,40.638752,579.12
          -74.190674,40.637451,586.74
          -74.191772,40.63591,594.36
          -74.192749,40.634445,601.98
          -74.194397,40.632156,617.22
          -74.19548,40.630608,624.84
          -74.199036,40.625381,647.7
          -74.203911,40.618317,685.8
          -74.207214,40.614532,701.04
          -74.2089,40.612919,708.66
          -74.210838,40.611427,716.28
          -74.212769,40.610123,723.9
          -74.215454,40.608494,723.9
          -74.217712,40.607391,731.52
          -74.220009,40.606445,731.52
          -74.22245,40.60561,739.14
          -74.22583,40.604645,746.76
          -74.22937,40.603912,754.38
          -74.2323,40.603409,754.38
          -74.235291,40.603043,762
          -74.238304,40.602768,777.24
          -74.241333,40.602539,784.86
          -74.244568,40.60231,800.1
          -74.248604,40.60207,815.34
          -74.251587,40.601944,830.58
          -74.254845,40.601791,853.44
          -74.258789,40.601624,876.3
          -74.262024,40.601532,899.16
          -74.264465,40.60144,922.02
          -74.26889,40.601326,952.5
          -74.272324,40.60128,975.36
          -74.275566,40.601185,998.22
          -74.279724,40.60112,1028.7
          -74.28302,40.601028,1051.56
          -74.286369,40.600952,1082.04
          -74.296509,40.600754,1165.86
          -74.310341,40.600487,1287.78
          -74.323387,40.600163,1409.7
          -74.334534,40.599838,1508.76
          -74.348022,40.599472,1615.44
          -74.368408,40.598877,1783.08
          -74.393127,40.598099,1958.34
          -74.409966,40.598671,2072.64
          -74.414001,40.599289,2103.12
          -74.417145,40.599976,2125.98
          -74.420387,40.600765,2141.22
          -74.423279,40.601669,2164.08
          -74.427071,40.602955,2194.56
          -74.429939,40.604027,2217.42
          -74.432999,40.605236,2247.9
          -74.436523,40.606613,2278.38
          -74.439636,40.607895,2308.86
          -74.442673,40.609146,2339.34
          -74.445557,40.610367,2369.82
          -74.448486,40.611603,2400.3
          -74.452332,40.613205,2438.4
          -74.455261,40.614441,2461.26
          -74.457779,40.615524,2484.12
          -74.460754,40.616821,2514.6
          -74.464417,40.618378,2545.08
          -74.48468,40.626984,2720.34
          -74.503593,40.634937,2857.5
          -74.52533,40.644287,3009.9
          -74.547668,40.654221,3162.3
          -74.565956,40.662262,3261.36
          -74.585876,40.670929,3383.28
          -74.599724,40.675625,3467.1
          -74.603287,40.67646,3474.72
          -74.607544,40.677246,3489.96
          -74.611023,40.677719,3497.58
          -74.614586,40.678043,3505.2
          -74.61895,40.678276,3520.44
          -74.622498,40.678207,3528.06
          -74.626831,40.677933,3535.68
          -74.630188,40.677532,3535.68
          -74.634872,40.676647,3550.92
          -74.637558,40.67609,3558.54
          -74.6418,40.674973,3566.16
          -74.64624,40.673721,3581.4
          -74.649048,40.672897,3589.02
          -74.653442,40.67157,3604.26
          -74.656906,40.670502,3611.88
          -74.660278,40.669479,3627.12
          -74.664612,40.668137,3634.74
          -74.668335,40.666946,3642.36
          -74.67189,40.665848,3657.6
          -74.676086,40.66452,3665.22
          -74.679626,40.663425,3672.84
          -74.683411,40.662277,3688.08
          -74.742859,40.64447,3848.1
          -74.803474,40.626556,4259.58
          -74.862091,40.609238,4610.1
          -74.923698,40.590897,4907.28
          -74.98381,40.572975,5189.22
          -75.028503,40.557632,5318.76
          -75.032188,40.555843,5334
          -75.03656,40.553516,5349.24
          -75.039993,40.551514,5364.48
          -75.043175,40.549606,5379.72
          -75.047112,40.547138,5394.96
          -75.050537,40.545044,5410.2
          -75.053833,40.542938,5433.06
          -75.057983,40.540375,5448.3
          -75.061279,40.538269,5471.16
          -75.063835,40.536663,5486.4
          -75.067772,40.534149,5509.26
          -75.071266,40.532009,5532.12
          -75.074577,40.529915,5554.98
          -75.126633,40.497234,5821.68
          -75.18013,40.463577,5996.94
          -75.232567,40.430573,6202.68
          -75.286308,40.396587,6431.28
          -75.339905,40.362488,6522.72
          -75.396851,40.32637,6659.88
          -75.45491,40.289471,6819.9
          -75.511971,40.253117,6964.68
          -75.57196,40.216782,7101.84
          -75.637688,40.183567,7338.06
          -75.700623,40.151825,7612.38
          -75.765091,40.119324,7741.92
          -75.829201,40.086922,7871.46
          -75.895386,40.053452,8016.24
          -75.960411,40.020355,8153.4
          -76.025574,39.987213,8267.7
          -76.092163,39.953384,8420.1
          -76.158302,39.919601,8511.54
          -76.225594,39.885178,8641.08
          -76.292648,39.850845,8770.62
          -76.359459,39.816559,9029.7
          -76.423706,39.783497,9265.92
          -76.486816,39.750862,9509.76
          -76.549332,39.71846,9700.26
          -76.610901,39.686619,9860.28
          -76.672485,39.654686,10012.68
          -76.73291,39.62331,10279.38
          -76.792221,39.592392,10363.2
          -76.852287,39.561081,10363.2
          -76.911819,39.529953,10363.2
          -76.968422,39.496033,10363.2
          -77.018341,39.456757,10363.2
          -77.062378,39.415127,10355.58
          -77.106766,39.373077,10363.2
          -77.151855,39.330215,10355.58
          -77.195618,39.288506,10363.2
          -77.240234,39.24577,10363.2
          -77.284996,39.202972,10363.2
          -77.329361,39.160492,10363.2
          -77.374023,39.117706,10363.2
          -77.418274,39.075111,10363.2
          -77.462448,39.032593,10370.82
          -77.506409,38.990059,10370.82
          -77.550995,38.947083,10378.44
          -77.595093,38.904404,10378.44
          -77.638771,38.861984,10363.2
          -77.681343,38.820648,10363.2
          -77.724426,38.778805,10363.2
          -77.767029,38.737282,10363.2
          -77.808815,38.696503,10363.2
          -77.853836,38.654892,10370.82
          -77.903809,38.619179,10370.82
          -77.958687,38.586777,10370.82
          -78.012543,38.555008,10363.2
          -78.066696,38.523056,10363.2
          -78.120667,38.491158,10355.58
          -78.174866,38.459179,10355.58
          -78.229225,38.426971,10355.58
          -78.284019,38.39447,10363.2
          -78.337837,38.36261,10363.2
          -78.391869,38.33046,10363.2
          -78.444839,38.298981,10363.2
          -78.498543,38.266891,10363.2
          -78.552834,38.234482,10355.58
          -78.607819,38.201614,10355.58
          -78.66169,38.169296,10363.2
          -78.715637,38.136932,10363.2
          -78.768524,38.105164,10363.2
          -78.82093,38.069489,10370.82
          -78.870728,38.033504,10370.82
          -78.921516,37.996857,10370.82
          -78.971306,37.960648,10355.58
          -79.021973,37.923889,10355.58
          -79.071526,37.887909,10355.58
          -79.123116,37.850323,10363.2
          -79.173988,37.813267,10363.2
          -79.224167,37.776718,10370.82
          -79.274658,37.739777,10370.82
          -79.324799,37.703018,10363.2
          -79.375381,37.665974,10363.2
          -79.424225,37.62999,10363.2
          -79.474571,37.592834,10355.58
          -79.523643,37.556622,10355.58
          -79.574867,37.518822,10347.96
          -79.625107,37.481689,10363.2
          -79.675713,37.444244,10363.2
          -79.724197,37.408306,10370.82
          -79.776169,37.369675,10370.82
          -79.827438,37.331497,10363.2
          -79.878487,37.293415,10363.2
          -79.929222,37.255554,10363.2
          -79.981964,37.216045,10363.2
          -80.033188,37.177689,10370.82
          -80.085915,37.13821,10370.82
          -80.137138,37.09964,10363.2
          -80.186752,37.062286,10363.2
          -80.238945,37.022949,10363.2
          -80.29171,36.983185,10363.2
          -80.343956,36.943726,10355.58
          -80.396278,36.904053,10363.2
          -80.446159,36.863205,10363.2
          -80.451805,36.857224,10363.2
          -80.454552,36.854103,10363.2
          -80.457596,36.850517,10363.2
          -80.460533,36.846889,10363.2
          -80.462875,36.844002,10370.82
          -80.46521,36.841114,10370.82
          -80.468155,36.837387,10370.82
          -80.470566,36.83432,10370.82
          -80.473396,36.830734,10370.82
          -80.475967,36.827522,10370.82
          -80.513718,36.779572,10370.82
          -80.553276,36.72953,10370.82
          -80.591751,36.680969,10370.82
          -80.630379,36.632034,10370.82
          -80.668259,36.583923,10378.44
          -80.70694,36.534897,10370.82
          -80.745773,36.485687,10363.2
          -80.783409,36.438206,10355.58
          -80.822754,36.388916,10347.96
          -80.861778,36.340027,10347.96
          -80.900864,36.291286,10355.58
          -80.946037,36.240406,10355.58
          -80.948898,36.238079,10355.58
          -80.953102,36.234833,10363.2
          -80.955849,36.232864,10363.2
          -80.960197,36.229889,10363.2
          -80.963631,36.22765,10363.2
          -80.967079,36.22546,10363.2
          -80.971588,36.222794,10363.2
          -80.975533,36.220596,10363.2
          -80.979286,36.21862,10363.2
          -80.983826,36.216248,10363.2
          -80.987701,36.214428,10363.2
          -80.992813,36.212082,10363.2
          -80.996994,36.210285,10363.2
          -81.001144,36.208611,10363.2
          -81.00563,36.206863,10363.2
          -81.009674,36.205303,10363.2
          -81.014763,36.203396,10363.2
          -81.018387,36.202141,10363.2
          -81.022881,36.200603,10363.2
          -81.027084,36.199173,10363.2
          -81.032295,36.197525,10370.82
          -81.036415,36.196243,10363.2
          -81.041908,36.194641,10363.2
          -81.046143,36.193451,10370.82
          -81.05101,36.192169,10363.2
          -81.055466,36.190979,10363.2
          -81.05999,36.18988,10363.2
          -81.065254,36.188591,10363.2
          -81.069748,36.187473,10370.82
          -81.141281,36.17025,10370.82
          -81.215401,36.157242,10370.82
          -81.288254,36.145252,10355.58
          -81.361473,36.132729,10347.96
          -81.43499,36.115505,10355.58
          -81.507912,36.096268,10363.2
          -81.576752,36.072784,10370.82
          -81.646957,36.048019,10363.2
          -81.717796,36.022934,10363.2
          -81.788887,35.997822,10363.2
          -81.857613,35.967236,10363.2
          -81.922928,35.936417,10363.2
          -81.990852,35.902576,10378.44
          -82.051155,35.867241,10378.44
          -82.113762,35.831131,10370.82
          -82.176277,35.795181,10363.2
          -82.240845,35.758591,10363.2
          -82.300583,35.721725,10355.58
          -82.357079,35.682476,10355.58
          -82.414352,35.640347,10355.58
          -82.432526,35.623402,10363.2
          -82.435448,35.620468,10363.2
          -82.439072,35.616791,10363.2
          -82.485641,35.56929,10370.82
          -82.53302,35.518982,10378.44
          -82.57811,35.470413,10378.44
          -82.627716,35.417221,10378.44
          -82.674927,35.366528,10363.2
          -82.722374,35.315643,10347.96
          -82.766319,35.268536,10347.96
          -82.813705,35.217407,10210.8
          -82.860397,35.16687,10058.4
          -82.908546,35.114777,9898.38
          -82.955803,35.063461,9738.36
          -83.005432,35.009659,9570.72
          -83.051262,34.959801,9425.94
          -83.100357,34.906265,9212.58
          -83.148994,34.853054,8846.82
          -83.19706,34.800545,8412.48
          -83.244667,34.74836,7970.52
          -83.288696,34.69986,7574.28
          -83.333244,34.65102,7208.52
          -83.377647,34.602184,6858
          -83.422165,34.55312,6499.86
          -83.464874,34.505951,6149.34
          -83.50708,34.459396,5806.44
          -83.54744,34.414719,5478.78
          -83.589935,34.367607,5128.26
          -83.629242,34.323944,4808.22
          -83.669647,34.279205,4488.18
          -83.709427,34.234955,4175.76
          -83.748108,34.191559,3947.16
          -83.784653,34.150955,3825.24
          -83.818619,34.112961,3710.94
          -83.852921,34.078194,3672.84
          -83.889076,34.044708,3634.74
          -83.905334,34.03006,3543.3
          -83.92244,34.014694,3406.14
          -83.938797,33.999893,3299.46
          -83.952316,33.987461,3208.02
          -83.966599,33.974258,3116.58
          -83.980293,33.961533,3017.52
          -83.993446,33.949127,2918.46
          -84.006905,33.93631,2834.64
          -84.019569,33.922394,2720.34
          -84.028984,33.910263,2628.9
          -84.030556,33.907837,2606.04
          -84.032066,33.905365,2583.18
          -84.033394,33.902878,2567.94
          -84.034874,33.899872,2545.08
          -84.035995,33.8974,2529.84
          -84.036949,33.89502,2506.98
          -84.03801,33.89209,2491.74
          -84.038849,33.889526,2476.5
          -84.039856,33.886398,2453.64
          -84.040588,33.883896,2438.4
          -84.041321,33.881287,2430.78
          -84.042267,33.878017,2407.92
          -84.042953,33.875553,2392.68
          -84.043671,33.87291,2377.44
          -84.044403,33.870209,2362.2
          -84.045067,33.867729,2346.96
          -84.045868,33.86475,2331.72
          -84.046783,33.861538,2316.48
          -84.051071,33.845619,2217.42
          -84.055725,33.828506,2118.36
          -84.060822,33.810242,1996.44
          -84.065369,33.794312,1905
          -84.071533,33.777924,1851.66
          -84.075172,33.770462,1844.04
          -84.076576,33.767761,1844.04
          -84.077751,33.765518,1836.42
          -84.078987,33.763184,1836.42
          -84.080086,33.761032,1836.42
          -84.087585,33.746834,1836.42
          -84.094566,33.733795,1828.8
          -84.101128,33.723724,1790.7
          -84.102753,33.721985,1783.08
          -84.104546,33.720291,1767.84
          -84.106903,33.71846,1752.6
          -84.108696,33.71727,1744.98
          -84.111328,33.715714,1729.74
          -84.113457,33.714569,1714.5
          -84.115845,33.713455,1706.88
          -84.118423,33.712292,1691.64
          -84.120636,33.711365,1676.4
          -84.123398,33.710197,1661.16
          -84.125114,33.709488,1653.54
          -84.12809,33.708298,1638.3
          -84.13089,33.707153,1623.06
          -84.133186,33.706238,1615.44
          -84.135246,33.705402,1600.2
          -84.137672,33.704453,1592.58
          -84.140137,33.703491,1577.34
          -84.142273,33.702621,1569.72
          -84.156761,33.69693,1493.52
          -84.166092,33.693207,1463.04
          -84.175301,33.689484,1432.56
          -84.183716,33.686039,1417.32
          -84.191818,33.682663,1386.84
          -84.198242,33.679985,1348.74
          -84.206558,33.676529,1287.78
          -84.214523,33.673279,1234.44
          -84.220688,33.670761,1188.72
          -84.228912,33.667416,1135.38
          -84.23526,33.66481,1089.66
          -84.243668,33.661469,1036.32
          -84.252243,33.658035,975.36
          -84.260216,33.654846,944.88
          -84.268402,33.651913,929.64
          -84.270569,33.651356,929.64
          -84.272591,33.650894,929.64
          -84.275169,33.650436,929.64
          -84.277245,33.650208,929.64
          -84.280014,33.64996,929.64
          -84.282005,33.649841,922.02
          -84.284477,33.649796,914.4
          -84.286659,33.64975,906.78
          -84.288902,33.64975,899.16
          -84.291595,33.64975,883.92
          -84.293747,33.649773,868.68
          -84.296021,33.649796,861.06
          -84.298767,33.649796,845.82
          -84.300728,33.649773,838.2
          -84.302917,33.64975,822.96
          -84.305496,33.649704,807.72
          -84.307541,33.649632,800.1
          -84.309753,33.649612,792.48
          -84.311829,33.649567,784.86
          -84.319901,33.649494,739.14
          -84.326248,33.64954,708.66
          -84.334137,33.649521,670.56
          -84.341873,33.64954,632.46
          -84.347649,33.649521,609.6
          -84.355026,33.649494,579.12
          -84.362671,33.649475,541.02
          -84.369843,33.649429,510.54
          -84.375618,33.649475,480.06
          -84.383011,33.64954,449.58
          -84.390076,33.649521,411.48
          -84.395599,33.64954,388.62
          -84.403473,33.649521,350.52
          -84.408531,33.64954,327.66
          -84.416985,33.649521,297.18
          -84.423141,33.649551,0
          -84.427559,33.649502,0
          -84.430275,33.649506,0
          -84.430618,33.649487,0
          -84.431755,33.649452,0
          -84.431976,33.649395,0
          -84.43219,33.649212,0
          -84.432465,33.649017,0
          -84.432678,33.648922,0
          -84.432892,33.648819,0
          -84.433121,33.648712,0
          -84.433365,33.648605,0
          -84.433609,33.64854,0
          -84.433853,33.648491,0
          -84.434082,33.648457,0
          -84.434349,33.648445,0
          -84.434624,33.648445,0
          -84.434868,33.648445,0
          -84.435181,33.648331,0
          -84.435394,33.648056,0
          -84.435562,33.6478,0
          -84.43573,33.647591,0
          -84.435867,33.647381,0
          -84.436012,33.647179,0
          -84.43634,33.64669,0
          -84.436501,33.64645,0
          -84.436722,33.646172,0
          -84.437172,33.6455,0
          -84.437302,33.645294,0
          -84.437332,33.644966,0
          -84.437256,33.644733,0
          -84.436981,33.644588,0
          -84.436699,33.644592,0
          -84.436417,33.6446,0
          -84.436142,33.64465,0
          -84.435852,33.64465,0
          -84.435562,33.644642,0
          -84.435051,33.644592,0
          -84.434692,33.644581,0
          -84.43454,33.644329,0
          -84.434517,33.644051,0
          -84.434517,33.643799,0
          -84.434532,33.643559,0
          -84.434547,33.643341,0
          -84.434547,33.64312,0
          -84.434547,33.642899,0
          -84.434517,33.642689,0
          -84.434608,33.642189,0
          -84.434578,33.641964,0
          -84.434608,33.641739,0
          -84.434837,33.641697,0
          -84.435043,33.64175,0
          -84.43528,33.641754,0
        </coordinates>
      </LineString>
    </Placemark>
  </Document>
</kml>