<?xml version='1.0' encoding='utf-8'?>
<kml xmlns="http://www.opengis.net/kml/2.2">
  <Document>
    <Placemark>
      <name>DL2960-2026-07-27</name>
      <TimeStamp>
        <when>2026-07-27</when>
      </TimeStamp>
      <LineString>
        <altitudeMode>absolute</altitudeMode>
        <coordinates>
          -84.429718,33.637821,0
          -84.429932,33.637825,0
          -84.430145,33.637833,0
          -84.430351,33.637836,0
          -84.430573,33.637985,0
          -84.430634,33.638206,0
          -84.430649,33.63842,0
          -84.430649,33.638626,0
          -84.430649,33.638832,0
          -84.430649,33.639061,0
          -84.430649,33.639332,0
          -84.430649,33.639702,0
          -84.430649,33.640659,0
          -84.430649,33.640999,0
          -84.430649,33.641579,0
          -84.430649,33.642056,0
          -84.430634,33.642464,0
          -84.430649,33.642963,0
          -84.430649,33.643215,0
          -84.430649,33.643478,0
          -84.430649,33.643688,0
          -84.430649,33.643894,0
          -84.430634,33.644115,0
          -84.430603,33.644325,0
          -84.430191,33.644581,0
          -84.429848,33.6446,0
          -84.429565,33.6446,0
          -84.429314,33.6446,0
          -84.428963,33.6446,0
          -84.428627,33.6446,0
          -84.428398,33.644592,0
          -84.428185,33.644608,0
          -84.427605,33.644623,0
          -84.427269,33.644665,0
          -84.427017,33.64468,0
          -84.426765,33.644691,0
          -84.426514,33.644688,0
          -84.426178,33.644691,0
          -84.425652,33.64468,0
          -84.425308,33.64468,0
          -84.424774,33.644691,0
          -84.424522,33.644691,0
          -84.42421,33.644688,0
          -84.4235,33.644691,0
          -84.422798,33.644691,0
          -84.422539,33.644722,0
          -84.42231,33.644814,0
          -84.422096,33.64492,0
          -84.42186,33.645046,0
          -84.421562,33.64521,0
          -84.421356,33.645309,0
          -84.42115,33.645386,0
          -84.420837,33.645424,0
          -84.420486,33.64542,0
          -84.42025,33.645435,0
          -84.419945,33.645432,0
          -84.419731,33.645424,0
          -84.419388,33.64542,0
          -84.419083,33.645424,0
          -84.418762,33.64542,0
          -84.418503,33.64542,0
          -84.417557,33.645432,0
          -84.416351,33.645424,0
          -84.415215,33.64542,0
          -84.414322,33.64542,0
          -84.413315,33.645435,0
          -84.412361,33.645435,0
          -84.411491,33.645432,0
          -84.410622,33.645424,0
          -84.409935,33.645424,0
          -84.409302,33.645424,0
          -84.408813,33.645432,0
          -84.408447,33.645432,0
          -84.408218,33.645477,0
          -84.408005,33.645561,0
          -84.407761,33.645679,0
          -84.407524,33.645699,0
          -84.407288,33.64571,0
          -84.407059,33.64571,0
          -84.406815,33.645699,0
          -84.406586,33.645699,0
          -84.406342,33.645691,0
          -84.406128,33.64571,0
          -84.405914,33.64576,0
          -84.405701,33.645966,0
          -84.405678,33.646179,0
          -84.40567,33.64642,0
          -84.405716,33.646667,0
          -84.405968,33.646843,0
          -84.406181,33.646786,0
          -84.406387,33.646793,0
          -84.406715,33.646797,0
          -84.406967,33.646797,0
          -84.407219,33.646797,0
          -84.40744,33.646797,0
          -84.408058,33.646797,0
          -84.410873,33.646793,297.18
          -84.415695,33.64682,297.18
          -84.421295,33.646793,297.18
          -84.427185,33.646793,297.18
          -84.434753,33.64682,403.86
          -84.441895,33.646793,525.78
          -84.449501,33.646839,670.56
          -84.456612,33.647049,769.62
          -84.45874,33.647186,784.86
          -84.460365,33.647324,792.48
          -84.462204,33.647633,807.72
          -84.464066,33.648102,815.34
          -84.465805,33.648605,822.96
          -84.467583,33.649216,830.58
          -84.469284,33.649796,838.2
          -84.470963,33.650391,845.82
          -84.472809,33.651123,853.44
          -84.474777,33.651855,861.06
          -84.47657,33.652496,868.68
          -84.478455,33.653217,868.68
          -84.480545,33.654007,876.3
          -84.482452,33.654694,883.92
          -84.48436,33.655426,891.54
          -84.486237,33.656151,891.54
          -84.488297,33.656895,906.78
          -84.49041,33.657715,914.4
          -84.49276,33.658573,922.02
          -84.494705,33.659317,929.64
          -84.496765,33.660061,937.26
          -84.498878,33.660873,944.88
          -84.500954,33.661652,944.88
          -84.503403,33.662575,944.88
          -84.512329,33.666,967.74
          -84.522247,33.669846,1005.84
          -84.532532,33.673794,1059.18
          -84.540649,33.677006,1104.9
          -84.543159,33.677948,1120.14
          -84.545631,33.678963,1135.38
          -84.554314,33.682434,1181.1
          -84.556732,33.683571,1203.96
          -84.559135,33.684814,1219.2
          -84.561432,33.686142,1234.44
          -84.564224,33.687946,1257.3
          -84.566917,33.690041,1287.78
          -84.568748,33.691624,1303.02
          -84.570564,33.69342,1325.88
          -84.572411,33.695442,1348.74
          -84.574066,33.697628,1371.6
          -84.575783,33.700104,1402.08
          -84.577103,33.702377,1424.94
          -84.578308,33.70475,1455.42
          -84.579277,33.707077,1478.28
          -84.580193,33.709824,1501.14
          -84.580765,33.712246,1531.62
          -84.581223,33.714714,1554.48
          -84.581444,33.717361,1577.34
          -84.581612,33.720245,1607.82
          -84.581566,33.722675,1630.68
          -84.581551,33.725098,1661.16
          -84.581451,33.727654,1684.02
          -84.581383,33.730225,1714.5
          -84.581329,33.732697,1737.36
          -84.581223,33.735893,1767.84
          -84.581161,33.73819,1790.7
          -84.581108,33.740875,1821.18
          -84.581055,33.743668,1844.04
          -84.580994,33.746136,1866.9
          -84.580994,33.749302,1897.38
          -84.58094,33.751465,1920.24
          -84.580711,33.767761,2080.26
          -84.58049,33.783691,2225.04
          -84.578247,33.79953,2346.96
          -84.577179,33.802551,2369.82
          -84.576302,33.80479,2392.68
          -84.574829,33.807861,2415.54
          -84.573608,33.810284,2438.4
          -84.572357,33.812614,2461.26
          -84.571037,33.814941,2484.12
          -84.569717,33.817268,2499.36
          -84.568161,33.820038,2522.22
          -84.566635,33.822529,2545.08
          -84.565186,33.824936,2560.32
          -84.563728,33.827408,2583.18
          -84.562157,33.829834,2598.42
          -84.560791,33.831978,2621.28
          -84.558907,33.834915,2659.38
          -84.557449,33.837112,2674.62
          -84.547745,33.851948,2811.78
          -84.538506,33.867325,2926.08
          -84.52755,33.884628,3078.48
          -84.517708,33.899853,3177.54
          -84.507751,33.91526,3223.26
          -84.495293,33.934937,3284.22
          -84.484695,33.951942,3329.94
          -84.473991,33.969452,3368.04
          -84.460983,33.990829,3413.76
          -84.449493,34.009827,3451.86
          -84.437386,34.029831,3497.58
          -84.424835,34.050449,3535.68
          -84.410484,34.073914,3627.12
          -84.397316,34.09486,3779.52
          -84.365448,34.145649,4061.46
          -84.333176,34.198578,4373.88
          -84.324387,34.216873,4457.7
          -84.323318,34.220261,4472.94
          -84.322357,34.223808,4488.18
          -84.321579,34.227539,4503.42
          -84.320854,34.232162,4518.66
          -84.320518,34.235687,4533.9
          -84.32029,34.239395,4549.14
          -84.320412,34.244339,4564.38
          -84.320641,34.248062,4587.24
          -84.321213,34.2523,4610.1
          -84.321899,34.255978,4625.34
          -84.322762,34.25972,4648.2
          -84.323715,34.263382,4678.68
          -84.324936,34.267754,4709.16
          -84.325905,34.271011,4739.64
          -84.327354,34.275558,4762.5
          -84.328476,34.279205,4785.36
          -84.329376,34.281967,4800.6
          -84.330536,34.285442,4823.46
          -84.331802,34.289352,4838.7
          -84.333183,34.293549,4853.94
          -84.334358,34.297073,4869.18
          -84.335648,34.30101,4876.8
          -84.355492,34.360291,4998.72
          -84.37809,34.417374,5311.14
          -84.380264,34.420677,5326.38
          -84.382721,34.424122,5334
          -84.385986,34.42836,5349.24
          -84.388443,34.431198,5364.48
          -84.391251,34.434223,5372.1
          -84.394112,34.437202,5387.34
          -84.39743,34.440601,5402.58
          -84.401009,34.444244,5425.44
          -84.4039,34.447121,5433.06
          -84.406723,34.449966,5448.3
          -84.409698,34.452896,5463.54
          -84.412781,34.456009,5471.16
          -84.415413,34.458664,5486.4
          -84.419113,34.462437,5501.64
          -84.421463,34.464809,5509.26
          -84.46788,34.511581,5661.66
          -84.515366,34.559032,5920.74
          -84.564285,34.607864,6073.14
          -84.613052,34.656189,6179.82
          -84.662048,34.704712,6316.98
          -84.712883,34.755066,6484.62
          -84.762497,34.804035,6873.24
          -84.810638,34.851562,7261.86
          -84.856888,34.896835,7482.84
          -84.904137,34.943298,7673.34
          -84.951164,34.989441,7818.12
          -84.998978,35.036316,7932.42
          -85.046455,35.082733,8069.58
          -85.091919,35.1306,8237.22
          -85.134346,35.182892,8359.14
          -85.177353,35.235992,8458.2
          -85.220596,35.289341,8595.36
          -85.264954,35.343933,8656.32
          -85.309692,35.398956,8717.28
          -85.354042,35.453293,8877.3
          -85.398308,35.50758,8976.36
          -85.439217,35.564095,9197.34
          -85.471939,35.624146,9349.74
          -85.495834,35.687164,9517.38
          -85.51329,35.750153,9608.82
          -85.530685,35.813782,9745.98
          -85.548378,35.878601,9753.6
          -85.565529,35.941406,9753.6
          -85.583099,36.005814,9753.6
          -85.600792,36.06979,9753.6
          -85.618057,36.132889,9753.6
          -85.635223,36.195328,9753.6
          -85.652451,36.257858,9738.36
          -85.669952,36.321442,9738.36
          -85.686989,36.38332,9745.98
          -85.703995,36.445004,9745.98
          -85.721237,36.506962,9753.6
          -85.738159,36.568222,9745.98
          -85.755272,36.630066,9753.6
          -85.772949,36.693359,9753.6
          -85.790077,36.754669,9761.22
          -85.807137,36.816395,9768.84
          -85.824059,36.876495,9768.84
          -85.841194,36.937759,9753.6
          -85.858994,37.001022,9753.6
          -85.876846,37.064892,9753.6
          -85.894272,37.126877,9753.6
          -85.911629,37.188126,9761.22
          -85.929329,37.251102,9761.22
          -85.946701,37.312408,9761.22
          -85.963959,37.373348,9753.6
          -85.982803,37.434448,9745.98
          -86.011124,37.493546,9745.98
          -86.050125,37.549484,9761.22
          -86.095818,37.59906,9768.84
          -86.143921,37.648937,9761.22
          -86.191895,37.698074,9753.6
          -86.24501,37.743713,9753.6
          -86.299065,37.78775,9745.98
          -86.352417,37.831047,9745.98
          -86.406708,37.875183,9745.98
          -86.460419,37.918625,9753.6
          -86.515182,37.962933,9745.98
          -86.568741,38.00613,9761.22
          -86.624687,38.051147,9867.9
          -86.678444,38.094269,10058.4
          -86.733902,38.138763,10218.42
          -86.787933,38.181911,10355.58
          -86.842308,38.225418,10363.2
          -86.895523,38.267895,10363.2
          -86.950516,38.311749,10363.2
          -87.005463,38.355331,10363.2
          -87.060394,38.399048,10363.2
          -87.114655,38.442078,10355.58
          -87.168701,38.484875,10355.58
          -87.223328,38.527935,10363.2
          -87.278557,38.571213,10355.58
          -87.332115,38.613327,10355.58
          -87.387695,38.65707,10355.58
          -87.442749,38.700085,10355.58
          -87.498161,38.743561,10363.2
          -87.553101,38.786488,10363.2
          -87.607056,38.828522,10370.82
          -87.663391,38.87233,10370.82
          -87.719177,38.915623,10370.82
          -87.773621,38.957798,10370.82
          -87.828491,39.000256,10370.82
          -87.885429,39.044312,10363.2
          -87.941139,39.087296,10363.2
          -87.99559,39.129135,10363.2
          -88.047791,39.169193,10363.2
          -88.103966,39.212219,10363.2
          -88.158752,39.254105,10363.2
          -88.214661,39.296951,10355.58
          -88.270729,39.339661,10355.58
          -88.326195,39.381912,10355.58
          -88.382622,39.424805,10363.2
          -88.438148,39.466873,10370.82
          -88.492798,39.512421,10363.2
          -88.499054,39.519104,10363.2
          -88.501976,39.522354,10363.2
          -88.504822,39.525551,10363.2
          -88.507385,39.52853,10363.2
          -88.510925,39.532627,10363.2
          -88.513489,39.535606,10370.82
          -88.555298,39.586075,10363.2
          -88.561386,39.5961,10363.2
          -88.563713,39.600449,10363.2
          -88.565491,39.604038,10370.82
          -88.5672,39.607761,10370.82
          -88.56897,39.611858,10370.82
          -88.570404,39.615326,10370.82
          -88.572144,39.619724,10370.82
          -88.573212,39.622467,10370.82
          -88.575058,39.627136,10370.82
          -88.576416,39.630806,10370.82
          -88.577805,39.634323,10370.82
          -88.579063,39.637756,10370.82
          -88.580498,39.64151,10370.82
          -88.602585,39.699234,10370.82
          -88.624329,39.75552,10370.82
          -88.645996,39.811287,10370.82
          -88.668388,39.869156,10370.82
          -88.693565,39.925667,10363.2
          -88.695686,39.92897,10363.2
          -88.697937,39.932144,10363.2
          -88.700867,39.936218,10363.2
          -88.703003,39.938919,10363.2
          -88.706238,39.94281,10363.2
          -88.708984,39.945923,10363.2
          -88.711792,39.948944,10363.2
          -88.7146,39.951828,10363.2
          -88.718201,39.955261,10363.2
          -88.721405,39.958206,10363.2
          -88.724609,39.960938,10363.2
          -88.728828,39.964397,10363.2
          -88.731689,39.966614,10363.2
          -88.735886,39.969658,10363.2
          -88.73951,39.972218,10363.2
          -88.743187,39.974686,10363.2
          -88.74781,39.977806,10363.2
          -88.750671,39.979706,10363.2
          -88.754677,39.982368,10363.2
          -88.758301,39.984787,10363.2
          -88.762756,39.987762,10363.2
          -88.766479,39.990234,10363.2
          -88.823792,40.029099,10363.2
          -88.882263,40.06842,10355.58
          -88.940002,40.10701,10355.58
          -88.997688,40.145535,10363.2
          -89.055672,40.184078,10363.2
          -89.113419,40.222439,10355.58
          -89.170784,40.260471,10363.2
          -89.22937,40.299225,10363.2
          -89.286987,40.337265,10370.82
          -89.343628,40.374569,10363.2
          -89.400757,40.412155,10363.2
          -89.457359,40.449379,10363.2
          -89.515419,40.487411,10363.2
          -89.571724,40.524281,10363.2
          -89.629761,40.562164,10363.2
          -89.686157,40.598923,10363.2
          -89.744316,40.636703,10355.58
          -89.801811,40.674133,10355.58
          -89.860733,40.712212,10363.2
          -89.918335,40.749481,10355.58
          -89.975967,40.786743,10355.58
          -90.033752,40.823914,10370.82
          -90.091614,40.861038,10370.82
          -90.150375,40.898842,10378.44
          -90.208801,40.936268,10370.82
          -90.267357,40.973789,10363.2
          -90.326538,41.011505,10363.2
          -90.384949,41.048676,10355.58
          -90.444885,41.08667,10363.2
          -90.504089,41.124252,10363.2
          -90.563675,41.161907,10363.2
          -90.623413,41.1996,10363.2
          -90.682922,41.23764,10363.2
          -90.708496,41.257507,10363.2
          -90.711548,41.2603,10363.2
          -90.714676,41.263157,10355.58
          -90.717712,41.266068,10363.2
          -90.721413,41.269722,10355.58
          -90.724846,41.273212,10355.58
          -90.728035,41.276379,10355.58
          -90.730957,41.279388,10363.2
          -90.733948,41.28241,10355.58
          -90.779724,41.328369,10355.58
          -90.827156,41.375816,10355.58
          -90.873543,41.422321,10363.2
          -90.920357,41.469151,10370.82
          -90.966927,41.515751,10363.2
          -91.013176,41.561829,10370.82
          -91.060631,41.609089,10363.2
          -91.104767,41.65308,10363.2
          -91.153313,41.701168,10363.2
          -91.196823,41.744293,10363.2
          -91.245323,41.79213,10363.2
          -91.291458,41.837769,10363.2
          -91.336311,41.881886,10363.2
          -91.375587,41.91354,10363.2
          -91.378845,41.91573,10363.2
          -91.383278,41.918655,10363.2
          -91.386894,41.92094,10363.2
          -91.390663,41.923271,10363.2
          -91.394501,41.925552,10363.2
          -91.39901,41.928177,10363.2
          -91.402672,41.930206,10363.2
          -91.406311,41.932251,10363.2
          -91.410591,41.934536,10363.2
          -91.414551,41.936554,10363.2
          -91.418236,41.938431,10363.2
          -91.422089,41.940308,10363.2
          -91.426163,41.94223,10363.2
          -91.430267,41.944126,10363.2
          -91.435028,41.946213,10363.2
          -91.439148,41.947998,10363.2
          -91.443451,41.949783,10363.2
          -91.447639,41.951477,10363.2
          -91.45256,41.953388,10363.2
          -91.45694,41.955048,10363.2
          -91.460991,41.956512,10363.2
          -91.465591,41.958138,10363.2
          -91.470764,41.959953,10363.2
          -91.474792,41.961319,10363.2
          -91.479095,41.962784,10363.2
          -91.511703,41.972755,10363.2
          -91.516563,41.973873,10363.2
          -91.521172,41.974777,10363.2
          -91.526787,41.97583,10363.2
          -91.531441,41.97657,10363.2
          -91.537445,41.977409,10363.2
          -91.542046,41.97797,10363.2
          -91.547409,41.978527,10363.2
          -91.552254,41.978897,10363.2
          -91.558273,41.979271,10363.2
          -91.563118,41.979446,10363.2
          -91.567978,41.979549,10363.2
          -91.574417,41.979538,10363.2
          -91.579475,41.979446,10363.2
          -91.585098,41.979225,10363.2
          -91.590332,41.978943,10363.2
          -91.595253,41.978527,10363.2
          -91.601196,41.977982,10363.2
          -91.60688,41.977268,10363.2
          -91.612122,41.976562,10363.2
          -91.616928,41.97583,10363.2
          -91.621979,41.97496,10363.2
          -91.628403,41.973686,10363.2
          -91.633278,41.972672,10363.2
          -91.638023,41.971573,10363.2
          -91.642906,41.970379,10363.2
          -91.648201,41.969078,10363.2
          -91.65332,41.967819,10363.2
          -91.659386,41.966236,10363.2
          -91.66449,41.96489,10363.2
          -91.669235,41.963654,10363.2
          -91.675476,41.962051,10363.2
          -91.680717,41.960678,10363.2
          -91.758995,41.942001,10363.2
          -91.76976,41.940586,10363.2
          -91.774918,41.940079,10363.2
          -91.78022,41.939621,10363.2
          -91.786087,41.939209,10363.2
          -91.791985,41.938957,10363.2
          -91.797142,41.938843,10363.2
          -91.801056,41.938816,10363.2
          -91.807571,41.938866,10363.2
          -91.812683,41.939072,10363.2
          -91.817474,41.939285,10363.2
          -91.823296,41.939713,10363.2
          -91.827309,41.940075,10363.2
          -91.832672,41.940632,10363.2
          -91.838585,41.941406,10363.2
          -91.843529,41.942123,10363.2
          -91.848885,41.943008,10363.2
          -91.853821,41.94397,10363.2
          -91.858162,41.94487,10363.2
          -91.863121,41.945984,10363.2
          -91.867676,41.947128,10363.2
          -91.872597,41.948406,10363.2
          -91.877701,41.949898,10363.2
          -91.882286,41.951294,10363.2
          -91.88652,41.95269,10363.2
          -91.890961,41.954269,10363.2
          -91.895203,41.955826,10363.2
          -91.899826,41.957657,10363.2
          -91.904755,41.959763,10363.2
          -91.909065,41.961639,10363.2
          -91.912872,41.963425,10363.2
          -91.916992,41.965485,10363.2
          -91.921043,41.96759,10363.2
          -91.924858,41.96965,10363.2
          -91.928596,41.971802,10363.2
          -91.932968,41.974411,10363.2
          -91.936401,41.97662,10363.2
          -91.940025,41.978989,10363.2
          -91.943268,41.981277,10363.2
          -91.947639,41.984436,10355.58
          -91.950966,41.987,10363.2
          -91.954033,41.989422,10363.2
          -91.957748,41.992584,10363.2
          -91.960869,41.995331,10355.58
          -91.963867,41.998077,10355.58
          -91.966988,42.000916,10355.58
          -91.970131,42.003803,10355.58
          -91.973541,42.007004,10363.2
          -91.976479,42.009705,10355.58
          -91.979347,42.012451,10355.58
          -91.982719,42.015564,10355.58
          -91.985466,42.018127,10355.58
          -92.031097,42.060242,10355.58
          -92.07769,42.103378,10355.58
          -92.124962,42.147324,10355.58
          -92.172737,42.191437,10363.2
          -92.222305,42.237263,10363.2
          -92.272423,42.283447,10363.2
          -92.322456,42.329533,10363.2
          -92.372551,42.375778,10363.2
          -92.423759,42.422867,10363.2
          -92.471603,42.466675,10363.2
          -92.521812,42.512527,10363.2
          -92.572464,42.558846,10294.62
          -92.622154,42.60405,10157.46
          -92.671989,42.649246,9997.44
          -92.721291,42.693989,9837.42
          -92.770088,42.738071,9753.6
          -92.814499,42.78511,9753.6
          -92.84993,42.834961,9753.6
          -92.86245,42.859863,9753.6
          -92.863853,42.863388,9753.6
          -92.865402,42.867397,9753.6
          -92.86692,42.871765,9753.6
          -92.868088,42.875263,9753.6
          -92.869156,42.878769,9753.6
          -92.870308,42.882851,9753.6
          -92.87133,42.886551,9753.6
          -92.872536,42.890999,9753.6
          -92.873451,42.894627,9753.6
          -92.874397,42.898224,9753.6
          -92.875343,42.901752,9753.6
          -92.876244,42.905319,9753.6
          -92.891563,42.962315,9753.6
          -92.907227,43.020721,9753.6
          -92.922752,43.078369,9753.6
          -92.938393,43.137131,9745.98
          -92.954079,43.195354,9601.2
          -92.969383,43.251869,9441.18
          -92.985008,43.310013,9273.54
          -93.00016,43.366196,9052.56
          -93.015686,43.423508,8671.56
          -93.030724,43.478535,8298.18
          -93.046158,43.535141,7917.18
          -93.061195,43.590584,7543.8
          -93.076042,43.644913,7208.52
          -93.090157,43.696747,6888.48
          -93.10479,43.750031,6545.58
          -93.118546,43.799885,6233.16
          -93.133133,43.853233,5897.88
          -93.147835,43.906174,5570.22
          -93.161842,43.957417,5250.18
          -93.17524,44.006195,4937.76
          -93.188911,44.055222,4648.2
          -93.202774,44.105404,4381.5
          -93.215332,44.150841,4137.66
          -93.222504,44.187057,3939.54
          -93.222443,44.190262,3924.3
          -93.222252,44.194016,3901.44
          -93.222008,44.197159,3886.2
          -93.221809,44.200001,3870.96
          -93.221542,44.203026,3855.72
          -93.221207,44.206657,3832.86
          -93.220894,44.210312,3817.62
          -93.220535,44.213547,3794.76
          -93.220268,44.216526,3779.52
          -93.220001,44.219364,3764.28
          -93.215912,44.267315,3497.58
          -93.214287,44.286346,3398.52
          -93.212631,44.305069,3307.08
          -93.21122,44.322617,3253.74
          -93.209709,44.341187,3200.4
          -93.208397,44.358582,3147.06
          -93.2062,44.376202,3078.48
          -93.202316,44.389606,3040.38
          -93.201508,44.392029,3032.76
          -93.200439,44.395378,3017.52
          -93.199638,44.398041,3009.9
          -93.198631,44.401199,2994.66
          -93.193405,44.417492,2887.98
          -93.188454,44.428665,2811.78
          -93.186951,44.431,2804.16
          -93.184792,44.434021,2788.92
          -93.182899,44.436356,2781.3
          -93.18074,44.438721,2766.06
          -93.178734,44.440861,2758.44
          -93.176033,44.443726,2750.82
          -93.174309,44.445423,2743.2
          -93.171631,44.448215,2727.96
          -93.169624,44.450226,2720.34
          -93.167007,44.452919,2712.72
          -93.16478,44.45517,2705.1
          -93.161972,44.458008,2697.48
          -93.159973,44.460041,2689.86
          -93.157364,44.462646,2689.86
          -93.155235,44.464783,2682.24
          -93.141487,44.478474,2628.9
          -93.127419,44.492302,2545.08
          -93.113052,44.506302,2453.64
          -93.099258,44.519669,2369.82
          -93.085716,44.53331,2278.38
          -93.082054,44.538483,2247.9
          -93.08075,44.540817,2232.66
          -93.079704,44.543015,2225.04
          -93.078461,44.546082,2217.42
          -93.077675,44.548325,2209.8
          -93.076759,44.5513,2202.18
          -93.075974,44.553772,2202.18
          -93.075371,44.555706,2194.56
          -93.074432,44.558685,2194.56
          -93.073761,44.560921,2194.56
          -93.072891,44.5639,2186.94
          -93.072151,44.566273,2186.94
          -93.071465,44.568466,2186.94
          -93.070541,44.571392,2186.94
          -93.069893,44.573593,2186.94
          -93.063843,44.588898,2179.32
          -93.062309,44.591171,2179.32
          -93.060829,44.59304,2179.32
          -93.058487,44.595695,2179.32
          -93.056557,44.597672,2179.32
          -93.054466,44.599651,2186.94
          -93.052521,44.601467,2186.94
          -93.050079,44.603668,2186.94
          -93.047432,44.605984,2186.94
          -93.045242,44.607834,2186.94
          -93.043541,44.609299,2186.94
          -93.040924,44.611496,2186.94
          -93.038834,44.613235,2186.94
          -93.03685,44.614872,2186.94
          -93.034584,44.616714,2186.94
          -93.032295,44.618637,2186.94
          -93.030327,44.620239,2186.94
          -93.016953,44.631119,2186.94
          -93.004501,44.641068,2179.32
          -92.992302,44.650673,2141.22
          -92.978569,44.661331,2019.3
          -92.966911,44.670456,1897.38
          -92.95546,44.679859,1775.46
          -92.94355,44.689774,1699.26
          -92.935295,44.697689,1638.3
          -92.934151,44.699459,1623.06
          -92.933151,44.701366,1607.82
          -92.932564,44.703049,1600.2
          -92.932076,44.705139,1592.58
          -92.931908,44.706436,1592.58
          -92.931976,44.708633,1584.96
          -92.932281,44.710354,1584.96
          -92.932823,44.711929,1577.34
          -92.933685,44.713799,1577.34
          -92.934334,44.715088,1577.34
          -92.935379,44.716736,1577.34
          -92.936562,44.718639,1577.34
          -92.937668,44.720169,1577.34
          -92.938583,44.721542,1577.34
          -92.93969,44.723007,1569.72
          -92.941002,44.724838,1569.72
          -92.942192,44.726414,1569.72
          -92.943268,44.727901,1562.1
          -92.944466,44.729507,1554.48
          -92.945778,44.731247,1554.48
          -92.946884,44.732742,1546.86
          -92.947998,44.734222,1546.86
          -92.949364,44.736004,1539.24
          -92.950569,44.737633,1531.62
          -92.952774,44.740566,1524
          -92.961082,44.751503,1485.9
          -92.965782,44.75766,1463.04
          -92.970497,44.76384,1440.18
          -92.973763,44.768097,1417.32
          -92.976425,44.771149,1394.46
          -92.978142,44.772766,1386.84
          -92.979507,44.773941,1371.6
          -92.981483,44.775467,1363.98
          -92.983047,44.776566,1348.74
          -92.984734,44.777668,1341.12
          -92.98658,44.778763,1325.88
          -92.98848,44.779808,1318.26
          -92.990761,44.780972,1303.02
          -92.992599,44.781921,1287.78
          -92.994621,44.782883,1280.16
          -92.997055,44.784042,1272.54
          -92.998878,44.784851,1264.92
          -93.000809,44.785721,1249.68
          -93.003128,44.786774,1242.06
          -93.00502,44.787643,1234.44
          -93.00692,44.788513,1219.2
          -93.00898,44.789444,1211.58
          -93.010925,44.790329,1196.34
          -93.013268,44.791401,1188.72
          -93.014702,44.792038,1181.1
          -93.016533,44.792908,1173.48
          -93.022484,44.795609,1143
          -93.030327,44.799088,1112.52
          -93.037918,44.802433,1074.42
          -93.04557,44.805817,1036.32
          -93.051651,44.808529,1005.84
          -93.059364,44.811859,967.74
          -93.064926,44.814285,944.88
          -93.073036,44.81781,914.4
          -93.078651,44.820263,883.92
          -93.086174,44.823532,853.44
          -93.093765,44.826828,822.96
          -93.100761,44.829895,784.86
          -93.106186,44.83223,754.38
          -93.113319,44.835297,723.9
          -93.120186,44.838276,693.42
          -93.127083,44.841305,662.94
          -93.133919,44.844315,632.46
          -93.140686,44.847214,601.98
          -93.147324,44.850128,571.5
          -93.153664,44.852875,541.02
          -93.160271,44.855804,502.92
          -93.167137,44.858826,472.44
          -93.173775,44.86174,441.96
          -93.180153,44.864456,411.48
          -93.186775,44.867374,381
          -93.193268,44.870167,350.52
          -93.19809,44.872215,327.66
          -93.205666,44.875473,297.18
          -93.209969,44.877365,297.18
          -93.216927,44.880348,0
          -93.220161,44.881741,0
          -93.220741,44.882011,0
          -93.22123,44.882229,0
          -93.221443,44.882309,0
          -93.221695,44.882412,0
          -93.22216,44.882607,0
          -93.222511,44.882771,0
          -93.222733,44.882885,0
          -93.222931,44.883095,0
          -93.222794,44.883327,0
          -93.222542,44.883499,0
          -93.22229,44.883667,0
          -93.222076,44.883827,0
          -93.22184,44.883991,0
          -93.221626,44.884151,0
          -93.221313,44.884369,0
          -93.221107,44.884529,0
          -93.220871,44.884689,0
          -93.220627,44.884872,0
          -93.220352,44.885052,0
          -93.220116,44.885227,0
          -93.219734,44.885494,0
          -93.219208,44.885868,0
          -93.218628,44.886272,0
          -93.218086,44.886669,0
          -93.217468,44.887112,0
          -93.216782,44.8876,0
          -93.216194,44.888008,0
          -93.215706,44.888351,0
          -93.215317,44.888626,0
          -93.215019,44.888809,0
          -93.21476,44.888882,0
          -93.214546,44.888855,0
          -93.214272,44.888763,0
          -93.214005,44.888645,0
          -93.213692,44.8885,0
          -93.213417,44.888386,0
          -93.213165,44.888287,0
          -93.212883,44.888157,0
          -93.212616,44.888042,0
          -93.212326,44.887924,0
          -93.211792,44.88768,0
          -93.211113,44.887402,0
          -93.210556,44.887146,0
          -93.209984,44.886902,0
          -93.209213,44.886574,0
          -93.208595,44.886303,0
          -93.208023,44.886063,0
          -93.207375,44.885784,0
          -93.207123,44.885628,0
          -93.207008,44.885422,0
          -93.207077,44.885204,0
          -93.207314,44.88496,0
          -93.207489,44.884708,0
          -93.207268,44.884892,0
          -93.207603,44.884586,0
          -93.207771,44.884377,0
        </coordinates>
      </LineString>
    </Placemark>
  </Document>
</kml>