<?xml version='1.0' encoding='utf-8'?>
<kml xmlns="http://www.opengis.net/kml/2.2">
  <Document>
    <Placemark>
      <name>DL301-2025-12-03</name>
      <TimeStamp>
        <when>2025-12-03</when>
      </TimeStamp>
      <LineString>
        <altitudeMode>absolute</altitudeMode>
        <coordinates>
          -84.426109,33.641235,0
          -84.426384,33.641243,0
          -84.426598,33.641232,0
          -84.426857,33.641209,0
          -84.427071,33.641186,0
          -84.42733,33.641277,0
          -84.427322,33.641006,0
          -84.42733,33.640766,0
          -84.42733,33.638729,0
          -84.427322,33.638203,0
          -84.42733,33.63768,0
          -84.427322,33.63747,0
          -84.42733,33.63726,0
          -84.427322,33.637024,0
          -84.427284,33.636806,0
          -84.427101,33.6366,0
          -84.426826,33.636517,0
          -84.426582,33.636528,0
          -84.426369,33.636539,0
          -84.426147,33.636543,0
          -84.42588,33.636551,0
          -84.425514,33.636555,0
          -84.425064,33.636551,0
          -84.424438,33.636551,0
          -84.423935,33.636555,0
          -84.423149,33.636562,0
          -84.42231,33.636562,0
          -84.421455,33.636566,0
          -84.420349,33.636555,0
          -84.418648,33.636555,0
          -84.417511,33.636562,0
          -84.416382,33.636555,0
          -84.415169,33.636551,0
          -84.414169,33.636551,0
          -84.413124,33.636551,0
          -84.412033,33.636555,0
          -84.410957,33.636555,0
          -84.409973,33.636555,0
          -84.409134,33.636551,0
          -84.408401,33.636551,0
          -84.407791,33.636532,0
          -84.407509,33.63636,0
          -84.407417,33.636097,0
          -84.407417,33.635853,0
          -84.407425,33.635605,0
          -84.40741,33.635307,0
          -84.407417,33.634933,0
          -84.40744,33.634724,0
          -84.407677,33.634644,0
          -84.407959,33.634712,0
          -84.408234,33.634701,0
          -84.409615,33.634701,0
          -84.412148,33.634712,0
          -84.415283,33.634735,251.46
          -84.42057,33.634735,243.84
          -84.426727,33.634689,243.84
          -84.434448,33.634689,342.9
          -84.440079,33.634689,434.34
          -84.447899,33.634689,563.88
          -84.45488,33.634689,670.56
          -84.462219,33.634689,762
          -84.470047,33.634785,815.34
          -84.478981,33.634918,861.06
          -84.487831,33.635101,899.16
          -84.495506,33.635201,922.02
          -84.506149,33.635387,975.36
          -84.514389,33.635483,1013.46
          -84.526291,33.635529,1104.9
          -84.534859,33.635513,1203.96
          -84.545959,33.635422,1348.74
          -84.554871,33.63533,1470.66
          -84.56636,33.635239,1615.44
          -84.583519,33.635056,1821.18
          -84.604202,33.634964,2042.16
          -84.624771,33.634922,2255.52
          -84.643433,33.634964,2476.5
          -84.661331,33.634968,2705.1
          -84.679245,33.635155,2910.84
          -84.699211,33.635296,3131.82
          -84.717178,33.635342,3253.74
          -84.72953,33.636658,3322.32
          -84.731773,33.637161,3337.56
          -84.73555,33.638229,3352.8
          -84.738808,33.639297,3375.66
          -84.741585,33.64032,3390.9
          -84.744446,33.641418,3406.14
          -84.747864,33.642746,3421.38
          -84.750893,33.64389,3436.62
          -84.754364,33.645218,3451.86
          -84.757233,33.646328,3467.1
          -84.760757,33.64769,3482.34
          -84.763611,33.648743,3497.58
          -84.766678,33.649914,3512.82
          -84.770454,33.651352,3528.06
          -84.773369,33.652519,3535.68
          -84.793335,33.660202,3604.26
          -84.814743,33.668301,3665.22
          -84.870361,33.689716,3947.16
          -84.924484,33.710758,4297.68
          -84.982666,33.733521,4709.16
          -85.038986,33.755352,5128.26
          -85.095161,33.777145,5387.34
          -85.153313,33.799812,5730.24
          -85.200935,33.816101,5890.26
          -85.205811,33.817062,5897.88
          -85.209961,33.81778,5905.5
          -85.21402,33.818386,5920.74
          -85.218933,33.819031,5935.98
          -85.222717,33.819408,5943.6
          -85.227646,33.819782,5958.84
          -85.23159,33.820061,5974.08
          -85.236359,33.820404,5989.32
          -85.239555,33.820587,6004.56
          -85.244659,33.820953,6027.42
          -85.250153,33.821274,6050.28
          -85.253792,33.821503,6065.52
          -85.257828,33.821732,6088.38
          -85.262764,33.822052,6118.86
          -85.329857,33.825348,6438.9
          -85.396225,33.82814,6720.84
          -85.462143,33.830658,6995.16
          -85.529999,33.83342,7284.72
          -85.597061,33.836449,7536.18
          -85.652557,33.841709,7726.68
          -85.656799,33.842686,7741.92
          -85.659843,33.84343,7757.16
          -85.666176,33.845215,7780.02
          -85.670319,33.846497,7795.26
          -85.675423,33.848145,7810.5
          -85.679169,33.849342,7825.74
          -85.683578,33.850834,7840.98
          -85.687866,33.852219,7856.22
          -85.692101,33.853626,7871.46
          -85.696793,33.855114,7886.7
          -85.70137,33.856606,7909.56
          -85.706085,33.858078,7924.8
          -85.710007,33.85936,7940.04
          -85.777771,33.880051,8138.16
          -85.844307,33.900742,8336.28
          -85.912003,33.922195,8526.78
          -85.981415,33.944138,8702.04
          -86.050072,33.965771,8877.3
          -86.119705,33.987511,9044.94
          -86.190033,34.007248,9258.3
          -86.259216,34.026382,9403.08
          -86.330681,34.046585,9525
          -86.401917,34.066788,9738.36
          -86.472816,34.086853,9974.58
          -86.54351,34.106781,10203.18
          -86.612625,34.12619,10462.26
          -86.680557,34.145279,10759.44
          -86.747147,34.163864,10995.66
          -86.812729,34.182083,11148.06
          -86.878395,34.200348,11330.94
          -86.94429,34.218658,11551.92
          -87.010345,34.236935,11582.4
          -87.076035,34.255047,11582.4
          -87.141876,34.273178,11582.4
          -87.207008,34.291122,11582.4
          -87.273727,34.309418,11582.4
          -87.339737,34.327469,11582.4
          -87.405823,34.345459,11582.4
          -87.471199,34.363232,11582.4
          -87.536713,34.381016,11582.4
          -87.603264,34.39917,11582.4
          -87.668541,34.416824,11582.4
          -87.734184,34.434494,11582.4
          -87.799644,34.452103,11582.4
          -87.863495,34.469193,11582.4
          -87.929764,34.486923,11582.4
          -87.995216,34.50444,11582.4
          -88.062683,34.522396,11582.4
          -88.127457,34.539574,11582.4
          -88.19252,34.556797,11582.4
          -88.259621,34.574615,11582.4
          -88.323959,34.591618,11582.4
          -88.391235,34.609268,11582.4
          -88.458595,34.626904,11582.4
          -88.520966,34.643246,11582.4
          -88.589111,34.661026,11582.4
          -88.656021,34.678482,11582.4
          -88.724045,34.69622,11582.4
          -88.787354,34.712585,11582.4
          -88.852325,34.729366,11582.4
          -88.917961,34.746277,11582.4
          -88.985222,34.763626,11582.4
          -89.052315,34.780853,11582.4
          -89.117958,34.797638,11582.4
          -89.186279,34.815125,11582.4
          -89.253433,34.832153,11582.4
          -89.319298,34.848953,11582.4
          -89.384933,34.865623,11582.4
          -89.452911,34.88271,11582.4
          -89.519737,34.899536,11582.4
          -89.586182,34.916321,11582.4
          -89.649521,34.932148,11582.4
          -89.716812,34.948952,11582.4
          -89.784737,34.965851,11582.4
          -89.851738,34.98262,11582.4
          -89.918945,34.999283,11582.4
          -89.986549,35.016083,11582.4
          -90.052986,35.031536,11582.4
          -90.12114,35.046154,11582.4
          -90.189903,35.061264,11582.4
          -90.254631,35.075668,11582.4
          -90.322723,35.090843,11582.4
          -90.388168,35.105209,11582.4
          -90.45462,35.119755,11582.4
          -90.521278,35.134369,11582.4
          -90.587479,35.148895,11582.4
          -90.655457,35.1637,11582.4
          -90.723328,35.178455,11582.4
          -90.791298,35.193192,11582.4
          -90.857491,35.20752,11582.4
          -90.924568,35.221981,11582.4
          -90.991455,35.236412,11582.4
          -91.058746,35.250824,11582.4
          -91.124985,35.26495,11582.4
          -91.192833,35.279381,11582.4
          -91.25811,35.293301,11582.4
          -91.326836,35.307823,11582.4
          -91.394974,35.322208,11582.4
          -91.461472,35.336197,11582.4
          -91.527672,35.350204,11582.4
          -91.593475,35.363983,11582.4
          -91.658295,35.377419,11582.4
          -91.724335,35.391129,11582.4
          -91.791237,35.40498,11582.4
          -91.856339,35.41843,11582.4
          -91.923073,35.432213,11582.4
          -91.990105,35.445992,11582.4
          -92.055756,35.459427,11582.4
          -92.121216,35.472839,11582.4
          -92.187424,35.486298,11582.4
          -92.253716,35.49976,11582.4
          -92.322266,35.51368,11582.4
          -92.389938,35.527317,11582.4
          -92.456734,35.540771,11582.4
          -92.524734,35.554413,11582.4
          -92.592712,35.56805,11582.4
          -92.660385,35.581459,11582.4
          -92.727768,35.594864,11582.4
          -92.796371,35.608459,11582.4
          -92.865501,35.622097,11582.4
          -92.934517,35.635693,11582.4
          -93.00087,35.648758,11582.4
          -93.068398,35.661945,11582.4
          -93.136482,35.675171,11582.4
          -93.20343,35.688171,11582.4
          -93.272438,35.701584,11582.4
          -93.34156,35.714905,11582.4
          -93.409882,35.728088,11582.4
          -93.479401,35.741409,11582.4
          -93.548347,35.754585,11582.4
          -93.617363,35.767731,11582.4
          -93.686905,35.780888,11582.4
          -93.756523,35.794052,11582.4
          -93.826454,35.807236,11582.4
          -93.896408,35.820412,11582.4
          -93.96595,35.833492,11582.4
          -94.036674,35.846695,11582.4
          -94.102875,35.858963,11582.4
          -94.174515,35.872223,11582.4
          -94.245628,35.885399,11582.4
          -94.31591,35.898331,11582.4
          -94.386406,35.91124,11582.4
          -94.456184,35.923988,11582.4
          -94.52774,35.937057,11582.4
          -94.597488,35.949734,11582.4
          -94.668312,35.96249,11582.4
          -94.73671,35.974823,11582.4
          -94.806404,35.987301,11582.4
          -94.877228,36.000008,11582.4
          -94.948196,36.01268,11582.4
          -95.017433,36.025726,11582.4
          -95.084671,36.041107,11582.4
          -95.154922,36.05685,11582.4
          -95.226685,36.072769,11582.4
          -95.296669,36.088394,11582.4
          -95.364426,36.103401,11582.4
          -95.435196,36.119064,11582.4
          -95.501991,36.133755,11582.4
          -95.573051,36.149303,11582.4
          -95.6437,36.164803,11582.4
          -95.712662,36.17981,11582.4
          -95.784416,36.195389,11582.4
          -95.853539,36.20668,11582.4
          -95.921692,36.2173,11582.4
          -95.994354,36.228836,11582.4
          -96.066208,36.240219,11582.4
          -96.136841,36.251266,11582.4
          -96.20945,36.262573,11582.4
          -96.276527,36.272991,11582.4
          -96.345177,36.283585,11582.4
          -96.416412,36.294479,11582.4
          -96.488594,36.305576,11582.4
          -96.559296,36.31636,11582.4
          -96.632652,36.32753,11582.4
          -96.704231,36.338398,11582.4
          -96.771088,36.348545,11582.4
          -96.84082,36.359024,11582.4
          -96.91198,36.369633,11582.4
          -96.981926,36.380035,11582.4
          -97.052307,36.390472,11582.4
          -97.122864,36.400864,11582.4
          -97.195107,36.411484,11582.4
          -97.266754,36.422005,11582.4
          -97.337814,36.432339,11582.4
          -97.407883,36.44249,11582.4
          -97.480255,36.452957,11582.4
          -97.547668,36.462646,11582.4
          -97.615044,36.472328,11582.4
          -97.685875,36.482384,11582.4
          -97.757111,36.492485,11582.4
          -97.827698,36.502487,11582.4
          -97.899742,36.51265,11582.4
          -97.971207,36.522629,11582.4
          -98.039658,36.532196,11582.4
          -98.10762,36.541626,11582.4
          -98.174973,36.550964,11582.4
          -98.243927,36.56044,11582.4
          -98.314934,36.57019,11582.4
          -98.38485,36.579723,11582.4
          -98.452171,36.588848,11582.4
          -98.519958,36.597973,11582.4
          -98.591248,36.607609,11582.4
          -98.659386,36.616734,11582.4
          -98.728699,36.625992,11582.4
          -98.796219,36.634964,11582.4
          -98.865379,36.644108,11582.4
          -98.936234,36.653412,11582.4
          -99.008263,36.662868,11582.4
          -99.075935,36.671665,11582.4
          -99.147377,36.680923,11582.4
          -99.218445,36.690125,11582.4
          -99.285316,36.698666,11582.4
          -99.354973,36.707565,11582.4
          -99.425751,36.716537,11582.4
          -99.492249,36.724968,11582.4
          -99.563255,36.733978,11582.4
          -99.630722,36.742447,11582.4
          -99.699669,36.751007,11582.4
          -99.768135,36.75951,11582.4
          -99.838028,36.768173,11582.4
          -99.907669,36.776688,11582.4
          -99.977936,36.785294,11582.4
          -100.046646,36.793633,11582.4
          -100.117241,36.802197,11582.4
          -100.187531,36.810654,11582.4
          -100.258423,36.819141,11582.4
          -100.329956,36.827728,11582.4
          -100.401245,36.836197,11590.02
          -100.473595,36.844654,11582.4
          -100.544945,36.853043,11582.4
          -100.613747,36.861134,11582.4
          -100.688324,36.869793,11582.4
          -100.761574,36.878265,11582.4
          -100.834732,36.886688,11582.4
          -100.904343,36.894608,11582.4
          -100.977737,36.902893,11582.4
          -101.050087,36.911087,11582.4
          -101.122108,36.919182,11582.4
          -101.194366,36.9272,11582.4
          -101.267555,36.935383,11582.4
          -101.33976,36.943405,11582.4
          -101.409241,36.951004,11582.4
          -101.482468,36.958969,11582.4
          -101.552361,36.966526,11582.4
          -101.623009,36.974213,11582.4
          -101.692856,36.981655,11582.4
          -101.764664,36.989319,11582.4
          -101.837051,36.997017,11582.4
          -101.912514,37.004974,11582.4
          -101.989426,37.012985,11582.4
          -102.064331,37.020813,11582.4
          -102.140358,37.028732,11582.4
          -102.210526,37.035934,11582.4
          -102.2854,37.043571,11582.4
          -102.360397,37.051159,11582.4
          -102.436226,37.058792,11582.4
          -102.511383,37.06636,11582.4
          -102.587234,37.073868,11582.4
          -102.658875,37.080952,11582.4
          -102.734734,37.088379,11582.4
          -102.811577,37.095932,11582.4
          -102.888542,37.103394,11582.4
          -102.966316,37.11084,11582.4
          -103.040176,37.117962,11582.4
          -103.118095,37.125317,11582.4
          -103.198143,37.132874,11582.4
          -103.279663,37.140491,11582.4
          -103.359253,37.147942,11582.4
          -103.434761,37.154938,11582.4
          -103.513123,37.162094,11582.4
          -103.593422,37.169403,11582.4
          -103.672005,37.17643,11582.4
          -103.748436,37.183273,11582.4
          -103.828445,37.190395,11582.4
          -103.903725,37.197052,11582.4
          -103.98571,37.204193,11582.4
          -104.060455,37.210739,11582.4
          -104.140396,37.21756,11582.4
          -104.215141,37.223969,11582.4
          -104.294731,37.230698,11582.4
          -104.372269,37.237228,11582.4
          -104.454033,37.244019,11582.4
          -104.52906,37.250217,11582.4
          -104.610359,37.256836,11582.4
          -104.692665,37.263622,11582.4
          -104.774582,37.270233,11582.4
          -104.856087,37.276752,11582.4
          -104.933754,37.282883,11582.4
          -105.013771,37.289135,11582.4
          -105.095154,37.295517,11582.4
          -105.172409,37.301514,11582.4
          -105.251236,37.307522,11582.4
          -105.329269,37.313435,11582.4
          -105.409439,37.319458,11582.4
          -105.490135,37.325455,11582.4
          -105.570839,37.331451,11582.4
          -105.650436,37.337265,11582.4
          -105.731224,37.343136,11582.4
          -105.809502,37.348629,11582.4
          -105.889038,37.351048,11582.4
          -105.972252,37.353012,11582.4
          -106.05365,37.35519,11582.4
          -106.131874,37.357101,11582.4
          -106.211906,37.358917,11582.4
          -106.294159,37.360779,11582.4
          -106.377281,37.362625,11582.4
          -106.460503,37.36441,11582.4
          -106.543556,37.366131,11582.4
          -106.627571,37.367855,11582.4
          -106.711342,37.369438,11582.4
          -106.795174,37.371017,11582.4
          -106.875061,37.372421,11582.4
          -106.959007,37.373859,11582.4
          -107.042664,37.37521,11582.4
          -107.128166,37.37656,11582.4
          -107.207626,37.377731,11582.4
          -107.290627,37.378933,11582.4
          -107.375595,37.380096,11582.4
          -107.458946,37.381168,11582.4
          -107.542419,37.382145,11582.4
          -107.627563,37.383121,11582.4
          -107.712532,37.384052,11582.4
          -107.79744,37.384918,11582.4
          -107.879662,37.385651,11582.4
          -107.96653,37.386429,11582.4
          -108.048447,37.387081,11582.4
          -108.135742,37.387711,11582.4
          -108.220169,37.38829,11582.4
          -108.301315,37.38871,11582.4
          -108.389008,37.389084,11582.4
          -108.468735,37.389454,11582.4
          -108.554504,37.389679,11582.4
          -108.642456,37.385513,11582.4
          -108.724037,37.380981,11582.4
          -108.77581,37.378281,11582.4
          -108.898468,37.371643,11582.4
          -108.98539,37.366737,11582.4
          -109.069229,37.361984,11582.4
          -109.158867,37.356857,11582.4
          -109.239517,37.352188,11582.4
          -109.324715,37.347137,11582.4
          -109.411385,37.34198,11582.4
          -109.499794,37.33667,11582.4
          -109.588142,37.331264,11582.4
          -109.674644,37.325912,11582.4
          -109.764343,37.320328,11582.4
          -109.851303,37.314789,11582.4
          -109.937202,37.309292,11582.4
          -110.025627,37.303566,11582.4
          -110.116844,37.297577,11582.4
          -110.202919,37.291855,11582.4
          -110.292168,37.285873,11582.4
          -110.3787,37.279999,11582.4
          -110.461678,37.27433,11582.4
          -110.549751,37.268185,11582.4
          -110.639336,37.261917,11582.4
          -110.723137,37.256058,11582.4
          -110.811028,37.249741,11582.4
          -110.899094,37.243332,11582.4
          -110.987511,37.236877,11582.4
          -111.075302,37.230431,11582.4
          -111.1661,37.22319,11582.4
          -111.249054,37.210369,11582.4
          -111.337608,37.188492,11582.4
          -111.425674,37.164413,11582.4
          -111.507317,37.142578,11582.4
          -111.591362,37.119778,11582.4
          -111.678177,37.096035,11582.4
          -111.764992,37.072155,11582.4
          -111.851166,37.048462,11582.4
          -111.933189,37.025833,11582.4
          -112.021736,37.001347,11582.4
          -112.104256,36.978443,11582.4
          -112.19133,36.954025,11582.4
          -112.273705,36.930962,11582.4
          -112.35601,36.907928,11582.4
          -112.43808,36.885014,11582.4
          -112.520958,36.861691,11582.4
          -112.602737,36.8386,11582.4
          -112.687515,36.814545,11582.4
          -112.770042,36.791023,11582.4
          -112.852768,36.767532,11582.4
          -112.933548,36.744286,11582.4
          -113.015839,36.720703,11582.4
          -113.09967,36.696625,11582.4
          -113.181915,36.672874,11582.4
          -113.264137,36.648899,11582.4
          -113.339867,36.621433,11582.4
          -113.418617,36.583557,11582.4
          -113.488129,36.543739,11582.4
          -113.562462,36.501656,11582.4
          -113.634171,36.461105,11582.4
          -113.706161,36.419956,11582.4
          -113.776871,36.37944,11582.4
          -113.84758,36.338863,11582.4
          -113.92244,36.295807,11582.4
          -113.995575,36.253647,11582.4
          -114.069115,36.211124,11582.4
          -114.142166,36.1689,11582.4
          -114.215813,36.126205,11582.4
          -114.289078,36.082592,11582.4
          -114.3564,36.034504,11475.72
          -114.422089,35.986771,11323.32
          -114.48864,35.939117,11163.3
          -114.553185,35.892426,11003.28
          -114.620949,35.843128,10972.8
          -114.690514,35.79245,10972.8
          -114.759094,35.742435,10972.8
          -114.825127,35.694206,10972.8
          -114.892502,35.644867,10972.8
          -114.95636,35.598221,10972.8
          -115.022278,35.549927,10972.8
          -115.088081,35.501678,10965.18
          -115.15377,35.452103,10972.8
          -115.219513,35.401062,10972.8
          -115.285271,35.350372,10972.8
          -115.351303,35.299629,10972.8
          -115.412636,35.252289,10972.8
          -115.478081,35.201843,10972.8
          -115.543999,35.150894,10972.8
          -115.608063,35.101181,10972.8
          -115.673279,35.050205,10927.08
          -115.732056,35.004089,10774.68
          -115.795609,34.954121,10614.66
          -115.858955,34.904297,10454.64
          -115.922012,34.854546,10294.62
          -115.982323,34.806923,10134.6
          -116.043205,34.759003,9974.58
          -116.104919,34.710526,9806.94
          -116.165253,34.66312,9646.92
          -116.225395,34.615871,9486.9
          -116.284164,34.569458,9334.5
          -116.343781,34.522396,9105.9
          -116.402664,34.475796,8862.06
          -116.459595,34.430687,8831.58
          -116.489296,34.411461,8724.9
          -116.493469,34.409367,8709.66
          -116.498909,34.406845,8686.8
          -116.503448,34.404922,8671.56
          -116.507767,34.403137,8648.7
          -116.512184,34.401405,8633.46
          -116.516174,34.399841,8610.6
          -116.521797,34.397682,8587.74
          -116.525871,34.396133,8572.5
          -116.530777,34.394283,8549.64
          -116.5345,34.392841,8526.78
          -116.53994,34.390778,8496.3
          -116.543083,34.389534,8481.06
          -116.547623,34.387802,8450.58
          -116.614548,34.360485,7985.76
          -116.679626,34.333374,7620
          -116.743927,34.307278,7277.1
          -116.805298,34.2827,7040.88
          -116.868134,34.257385,6804.66
          -116.928612,34.232758,6637.02
          -116.981972,34.211243,6408.42
          -117.007538,34.203793,6195.06
          -117.011147,34.202862,6164.58
          -117.015381,34.201813,6126.48
          -117.018967,34.200943,6103.62
          -117.07267,34.186981,5814.06
          -117.129562,34.171463,5524.5
          -117.181091,34.157379,5356.86
          -117.236282,34.142212,5059.68
          -117.291885,34.126923,4754.88
          -117.345978,34.111908,4511.04
          -117.400185,34.097122,4229.1
          -117.452705,34.084305,3947.16
          -117.505783,34.071167,3771.9
          -117.559952,34.057526,3512.82
          -117.581406,34.051937,3406.14
          -117.606812,34.045422,3276.6
          -117.629471,34.039646,3162.3
          -117.654434,34.033173,3078.48
          -117.67897,34.026848,3048
          -117.700943,34.02182,3002.28
          -117.715363,34.019772,2948.94
          -117.718849,34.019444,2926.08
          -117.723213,34.019073,2903.22
          -117.726692,34.018799,2895.6
          -117.729942,34.018524,2880.36
          -117.734299,34.018188,2865.12
          -117.737564,34.017929,2857.5
          -117.74115,34.017654,2842.26
          -117.745224,34.017303,2819.4
          -117.748657,34.016975,2811.78
          -117.770805,34.015022,2712.72
          -117.794098,34.012741,2621.28
          -117.816711,34.010513,2522.22
          -117.842155,34.008041,2423.16
          -117.867676,34.005524,2316.48
          -117.89257,34.003105,2209.8
          -117.913849,34.000992,2125.98
          -117.934174,33.998917,2042.16
          -117.954041,33.996918,1958.34
          -117.97657,33.99477,1866.9
          -117.996414,33.992752,1790.7
          -118.017044,33.990646,1699.26
          -118.036659,33.988678,1623.06
          -118.056503,33.986801,1539.24
          -118.077393,33.98481,1447.8
          -118.085976,33.983971,1417.32
          -118.097084,33.98291,1371.6
          -118.108803,33.98172,1318.26
          -118.117279,33.9809,1287.78
          -118.128136,33.979843,1242.06
          -118.136375,33.979019,1211.58
          -118.147202,33.977921,1165.86
          -118.158409,33.97673,1120.14
          -118.169464,33.975594,1074.42
          -118.180099,33.974522,1028.7
          -118.190918,33.973404,982.98
          -118.198868,33.97266,952.5
          -118.20813,33.971695,914.4
          -118.217651,33.970734,876.3
          -118.227463,33.969772,830.58
          -118.236038,33.968903,792.48
          -118.24556,33.967911,754.38
          -118.254036,33.967072,723.9
          -118.262726,33.96619,693.42
          -118.272171,33.96521,647.7
          -118.280411,33.96442,609.6
          -118.287216,33.96373,579.12
          -118.29557,33.962906,533.4
          -118.301636,33.962276,502.92
          -118.309189,33.961533,464.82
          -118.31636,33.9608,434.34
          -118.321518,33.960251,403.86
          -118.328362,33.959579,373.38
          -118.334488,33.958973,342.9
          -118.339348,33.958508,320.04
          -118.345352,33.957855,297.18
          -118.351791,33.957184,266.7
          -118.357391,33.95668,236.22
          -118.361778,33.956181,213.36
          -118.367706,33.955582,182.88
          -118.373108,33.955063,152.4
          -118.378922,33.954483,137.16
          -118.384895,33.953854,99.06
          -118.390465,33.953293,76.2
          -118.395844,33.952744,53.34
          -118.400612,33.95224,22.86
          -118.406128,33.951664,0
          -118.411652,33.951096,0
          -118.412773,33.950993,0
          -118.413246,33.950943,0
          -118.413895,33.950878,0
          -118.414406,33.950825,0
          -118.41481,33.950787,0
          -118.415756,33.950684,0
          -118.416168,33.950642,0
          -118.416542,33.950603,0
          -118.417145,33.950546,0
          -118.417595,33.9505,0
          -118.418015,33.950455,0
          -118.418457,33.950409,0
          -118.419151,33.95034,0
          -118.419556,33.950294,0
          -118.420044,33.950237,0
          -118.420357,33.950211,0
          -118.420815,33.950169,0
          -118.421082,33.950134,0
          -118.421463,33.9501,0
          -118.421761,33.950069,0
          -118.421989,33.950058,0
          -118.422432,33.950008,0
          -118.422714,33.949989,0
          -118.422958,33.949955,0
          -118.423218,33.949928,0
          -118.42347,33.949894,0
          -118.423706,33.94986,0
          -118.424141,33.949791,0
          -118.424492,33.949722,0
          -118.424759,33.949642,0
          -118.425018,33.949551,0
          -118.425331,33.949425,0
          -118.425537,33.949326,0
          -118.425835,33.949184,0
          -118.426048,33.949047,0
          -118.426285,33.948898,0
          -118.426506,33.948753,0
          -118.426727,33.948605,0
          -118.426979,33.948372,0
          -118.427193,33.948174,0
          -118.427391,33.947948,0
          -118.427513,33.947742,0
          -118.427643,33.947502,0
          -118.427757,33.947227,0
          -118.427795,33.946953,0
          -118.427795,33.946682,0
          -118.427681,33.946461,0
          -118.427452,33.946335,0
          -118.427193,33.946301,0
          -118.426941,33.946335,0
          -118.426689,33.946381,0
          -118.426437,33.946415,0
          -118.426147,33.946449,0
          -118.425903,33.946472,0
          -118.425682,33.946499,0
          -118.425461,33.946522,0
          -118.425247,33.946552,0
          -118.424438,33.946636,0
          -118.423676,33.946712,0
          -118.422935,33.946777,0
          -118.422119,33.946846,0
          -118.421257,33.946949,0
          -118.420303,33.947044,0
          -118.419357,33.947147,0
          -118.418365,33.94725,0
          -118.417328,33.947365,0
          -118.416435,33.947453,0
          -118.415482,33.947544,0
          -118.41481,33.947605,0
          -118.414581,33.947636,0
          -118.414276,33.947685,0
          -118.413925,33.947777,0
          -118.413605,33.947857,0
          -118.413391,33.947891,0
          -118.413147,33.947918,0
          -118.412865,33.947952,0
          -118.412621,33.947975,0
          -118.412354,33.948006,0
          -118.412079,33.948032,0
          -118.411804,33.948063,0
          -118.411575,33.948078,0
          -118.411263,33.948116,0
          -118.410912,33.948154,0
          -118.41069,33.948174,0
          -118.410446,33.9482,0
          -118.410233,33.948219,0
          -118.409958,33.948242,0
          -118.409615,33.948277,0
          -118.409401,33.948299,0
          -118.409142,33.948311,0
          -118.408936,33.948235,0
          -118.408798,33.947971,0
          -118.408897,33.947731,0
          -118.409058,33.947525,0
          -118.409157,33.9473,0
          -118.409142,33.94709,0
          -118.409111,33.946846,0
          -118.409088,33.946625,0
          -118.40905,33.946404,0
          -118.408974,33.946186,0
          -118.408722,33.946152,0
          -118.408501,33.946171,0
          -118.408287,33.946125,0
          -118.408081,33.946083,0
          -118.407867,33.946049,0
        </coordinates>
      </LineString>
    </Placemark>
  </Document>
</kml>