<?xml version='1.0' encoding='utf-8'?>
<kml xmlns="http://www.opengis.net/kml/2.2">
  <Document>
    <Placemark>
      <name>DL327-2024-12-08</name>
      <TimeStamp>
        <when>2024-12-08</when>
      </TimeStamp>
      <LineString>
        <altitudeMode>absolute</altitudeMode>
        <coordinates>
          -118.403481,33.946964,0
          -118.403259,33.946999,0
          -118.403038,33.947033,0
          -118.402832,33.947079,0
          -118.402618,33.947079,0
          -118.402588,33.947289,0
          -118.402618,33.94751,0
          -118.402649,33.947742,0
          -118.402702,33.947998,0
          -118.402786,33.948223,0
          -118.402878,33.948441,0
          -118.402908,33.948685,0
          -118.402702,33.948933,0
          -118.402405,33.949024,0
          -118.402153,33.949047,0
          -118.401932,33.94907,0
          -118.401703,33.949093,0
          -118.401382,33.949127,0
          -118.401176,33.949139,0
          -118.400902,33.949173,0
          -118.400696,33.949196,0
          -118.40023,33.949245,0
          -118.399796,33.949287,0
          -118.39959,33.949314,0
          -118.399368,33.949406,0
          -118.39917,33.949627,0
          -118.399124,33.949917,0
          -118.39917,33.950146,0
          -118.399353,33.950455,0
          -118.399597,33.950432,0
          -118.399948,33.950371,0
          -118.400894,33.950272,0
          -118.403824,33.949986,0
          -118.408646,33.949478,0
          -118.415794,33.94873,0
          -118.424492,33.9478,68.58
          -118.432228,33.946976,190.5
          -118.438278,33.945786,274.32
          -118.440971,33.944824,312.42
          -118.443146,33.943752,342.9
          -118.445847,33.942032,388.62
          -118.44812,33.940399,419.1
          -118.450386,33.938599,449.58
          -118.452415,33.937,480.06
          -118.454979,33.934845,510.54
          -118.456421,33.933647,525.78
          -118.459457,33.931042,556.26
          -118.46154,33.92926,571.5
          -118.463402,33.927597,586.74
          -118.466034,33.925316,617.22
          -118.468155,33.923454,632.46
          -118.470398,33.921478,655.32
          -118.476852,33.915771,708.66
          -118.48172,33.911179,739.14
          -118.483902,33.908798,762
          -118.48587,33.906372,769.62
          -118.487938,33.903534,784.86
          -118.490181,33.899525,800.1
          -118.491783,33.895149,815.34
          -118.492538,33.891861,830.58
          -118.493156,33.888119,853.44
          -118.493614,33.884628,868.68
          -118.494019,33.881462,891.54
          -118.494446,33.878311,914.4
          -118.495003,33.874237,944.88
          -118.495567,33.870483,982.98
          -118.496132,33.866894,1021.08
          -118.496704,33.863262,1059.18
          -118.497246,33.859726,1104.9
          -118.498482,33.852081,1196.34
          -118.500252,33.841057,1310.64
          -118.501907,33.830208,1394.46
          -118.50351,33.819038,1447.8
          -118.505173,33.807632,1455.42
          -118.506836,33.796368,1485.9
          -118.508316,33.78566,1524
          -118.5112,33.765244,1668.78
          -118.514008,33.745651,1859.28
          -118.516083,33.725555,2042.16
          -118.515182,33.71759,2103.12
          -118.513069,33.710941,2156.46
          -118.511093,33.707108,2186.94
          -118.508965,33.703857,2217.42
          -118.50666,33.700981,2240.28
          -118.503456,33.697674,2270.76
          -118.497787,33.693207,2316.48
          -118.493843,33.690784,2346.96
          -118.489677,33.688705,2385.06
          -118.485031,33.686783,2415.54
          -118.480515,33.685246,2446.02
          -118.475945,33.683899,2484.12
          -118.471237,33.682663,2514.6
          -118.466698,33.681564,2545.08
          -118.461853,33.680496,2583.18
          -118.457001,33.67955,2613.66
          -118.452187,33.678776,2636.52
          -118.447327,33.678215,2667
          -118.443207,33.677845,2689.86
          -118.437134,33.677517,2720.34
          -118.433067,33.677399,2743.2
          -118.428078,33.677261,2773.68
          -118.42186,33.677097,2811.78
          -118.416992,33.67696,2842.26
          -118.412216,33.676804,2872.74
          -118.386765,33.675842,3025.14
          -118.361725,33.674587,3200.4
          -118.335571,33.673237,3329.94
          -118.30896,33.671886,3413.76
          -118.284241,33.670582,3497.58
          -118.255936,33.669022,3596.64
          -118.227913,33.667465,3703.32
          -118.161964,33.663925,4061.46
          -118.098618,33.660572,4343.4
          -118.028702,33.656895,4480.56
          -117.962723,33.653263,4701.54
          -117.88324,33.648933,4968.24
          -117.806732,33.644302,5273.04
          -117.779732,33.640091,5341.62
          -117.772598,33.638489,5356.86
          -117.765419,33.636749,5379.72
          -117.75856,33.635017,5394.96
          -117.751808,33.633293,5417.82
          -117.683357,33.616333,5692.14
          -117.60704,33.597683,5913.12
          -117.529327,33.578522,6111.24
          -117.458557,33.560951,6332.22
          -117.384209,33.542496,6530.34
          -117.305038,33.522766,6713.22
          -117.230515,33.507046,6888.48
          -117.213852,33.505463,6918.96
          -117.206985,33.505051,6934.2
          -117.199181,33.504765,6949.44
          -117.19223,33.504578,6957.06
          -117.184265,33.504482,6979.92
          -117.176811,33.504436,6995.16
          -117.1688,33.504391,7010.4
          -117.161224,33.504318,7025.64
          -117.081902,33.503128,7170.42
          -116.997147,33.503128,7353.3
          -116.908981,33.510544,7498.08
          -116.83136,33.515671,7604.76
          -116.738876,33.519939,7734.3
          -116.652557,33.523956,7879.08
          -116.571724,33.527668,8023.86
          -116.478729,33.531811,8168.64
          -116.387871,33.535767,8305.8
          -116.295448,33.539795,8389.62
          -116.206596,33.543549,8534.4
          -116.114281,33.54744,8686.8
          -116.021233,33.551224,8846.82
          -115.932198,33.554806,8983.98
          -115.842934,33.558392,9113.52
          -115.756363,33.56179,9182.1
          -115.662399,33.565372,9380.22
          -115.580917,33.568447,9563.1
          -115.481758,33.57217,9685.02
          -115.3965,33.575241,9814.56
          -115.310425,33.578247,9951.72
          -115.22007,33.581314,10050.78
          -115.122643,33.584648,10058.4
          -115.041428,33.587311,10058.4
          -114.945717,33.59042,10058.4
          -114.851074,33.593399,10058.4
          -114.763466,33.595413,10058.4
          -114.676323,33.591908,10050.78
          -114.58815,33.587765,10043.16
          -114.50164,33.583603,10043.16
          -114.413742,33.579292,10050.78
          -114.323341,33.574677,10050.78
          -114.235619,33.570328,10058.4
          -114.144363,33.565613,10058.4
          -114.055595,33.560951,10066.02
          -113.964905,33.556156,10073.64
          -113.879128,33.551456,10073.64
          -113.789154,33.546524,10073.64
          -113.698799,33.541489,10066.02
          -113.612473,33.536728,10066.02
          -113.520027,33.531464,10066.02
          -113.43367,33.526505,10058.4
          -113.345444,33.521336,10058.4
          -113.255859,33.516083,10058.4
          -113.166862,33.510769,10058.4
          -113.078407,33.505413,10058.4
          -112.989899,33.500061,10050.78
          -112.905228,33.494843,10050.78
          -112.818329,33.489349,10050.78
          -112.731758,33.483902,10058.4
          -112.646286,33.478455,10058.4
          -112.55867,33.472733,10058.4
          -112.472313,33.467148,10066.02
          -112.388847,33.461655,10058.4
          -112.29351,33.455246,10058.4
          -112.204269,33.449226,10058.4
          -112.120354,33.443455,10058.4
          -112.035995,33.437679,10058.4
          -111.94648,33.432793,10058.4
          -111.86142,33.431763,10058.4
          -111.773666,33.43042,10058.4
          -111.687836,33.429108,10058.4
          -111.602859,33.427689,10066.02
          -111.515213,33.426228,10066.02
          -111.429504,33.424694,10058.4
          -111.341438,33.423157,10058.4
          -111.254646,33.421555,10058.4
          -111.174171,33.419998,10050.78
          -111.087875,33.418259,10058.4
          -111.00399,33.416611,10058.4
          -110.923012,33.414825,10058.4
          -110.837029,33.41296,10058.4
          -110.752296,33.41098,10058.4
          -110.663361,33.408829,10058.4
          -110.576515,33.40686,10058.4
          -110.491974,33.406586,10058.4
          -110.409744,33.407822,10058.4
          -110.3246,33.40892,10066.02
          -110.244781,33.409927,10058.4
          -110.156609,33.411053,10066.02
          -110.072922,33.412029,10058.4
          -109.989243,33.412857,10058.4
          -109.904701,33.413727,10058.4
          -109.816536,33.414642,10050.78
          -109.730827,33.415428,10050.78
          -109.647293,33.416107,10058.4
          -109.566818,33.416794,10058.4
          -109.478485,33.417389,10058.4
          -109.398392,33.417847,10058.4
          -109.310936,33.418316,10058.4
          -109.22937,33.418716,10058.4
          -109.144966,33.419155,10066.02
          -109.05825,33.419388,10058.4
          -108.978439,33.419632,10058.4
          -108.893295,33.419815,10058.4
          -108.811455,33.419945,10058.4
          -108.728172,33.419998,10058.4
          -108.640175,33.42009,10058.4
          -108.552658,33.419991,10058.4
          -108.464226,33.419907,10066.02
          -108.377487,33.419632,10058.4
          -108.291412,33.419403,10058.4
          -108.207092,33.419106,10058.4
          -108.120102,33.418781,10058.4
          -108.033386,33.418362,10058.4
          -107.944794,33.417938,10058.4
          -107.863441,33.417435,10058.4
          -107.777252,33.41684,10058.4
          -107.692474,33.416222,10058.4
          -107.609879,33.415512,10058.4
          -107.521233,33.41473,10058.4
          -107.435974,33.41394,10050.78
          -107.350044,33.413055,10043.16
          -107.261612,33.412079,10050.78
          -107.175278,33.411053,10050.78
          -107.088303,33.410019,10058.4
          -106.999886,33.408913,10066.02
          -106.921524,33.407776,10073.64
          -106.840668,33.406586,10058.4
          -106.745743,33.405167,10058.4
          -106.664062,33.403931,10066.02
          -106.579575,33.402557,10066.02
          -106.494926,33.401047,10058.4
          -106.406456,33.399509,10058.4
          -106.324257,33.39798,10050.78
          -106.24144,33.396481,10058.4
          -106.161659,33.394867,10050.78
          -106.077446,33.393127,10058.4
          -105.993233,33.391315,10066.02
          -105.911606,33.389603,10058.4
          -105.826477,33.387684,10050.78
          -105.744888,33.385757,10043.16
          -105.659966,33.383789,10043.16
          -105.575081,33.381817,10073.64
          -105.489487,33.379536,10073.64
          -105.404793,33.37735,10066.02
          -105.319817,33.37516,10043.16
          -105.237366,33.372833,10066.02
          -105.151413,33.370468,10066.02
          -105.070663,33.368225,10066.02
          -104.985458,33.365707,10066.02
          -104.90049,33.363152,10073.64
          -104.819267,33.360638,10058.4
          -104.736923,33.358078,10058.4
          -104.655205,33.355515,10050.78
          -104.572594,33.352753,10050.78
          -104.492035,33.350163,10043.16
          -104.405434,33.347183,10043.16
          -104.319168,33.34425,10058.4
          -104.229309,33.341084,10066.02
          -104.145721,33.338104,10066.02
          -104.061768,33.335033,10073.64
          -103.977798,33.331879,10073.64
          -103.892708,33.32872,10058.4
          -103.810417,33.325424,10050.78
          -103.727798,33.32222,10050.78
          -103.641556,33.318832,10050.78
          -103.554214,33.315262,10050.78
          -103.474289,33.31192,10050.78
          -103.387718,33.308258,10058.4
          -103.300323,33.304596,10066.02
          -103.214523,33.300888,10058.4
          -103.131912,33.297188,10066.02
          -103.049911,33.29351,10050.78
          -102.965042,33.289646,10050.78
          -102.881691,33.285828,10050.78
          -102.795059,33.281754,10050.78
          -102.7146,33.277962,10043.16
          -102.629738,33.273911,10043.16
          -102.543419,33.269672,10050.78
          -102.462982,33.265671,10050.78
          -102.378021,33.261383,10058.4
          -102.297401,33.257244,10066.02
          -102.209793,33.252777,10073.64
          -102.123688,33.248245,10073.64
          -102.039589,33.243805,10058.4
          -101.958565,33.239502,10050.78
          -101.874481,33.234898,10058.4
          -101.790749,33.230301,10058.4
          -101.705162,33.22554,10066.02
          -101.620132,33.220825,10066.02
          -101.535866,33.216,10066.02
          -101.453697,33.211296,10058.4
          -101.368439,33.206268,10058.4
          -101.281616,33.201195,10058.4
          -101.198097,33.196213,10058.4
          -101.11525,33.191189,10066.02
          -101.024834,33.185555,10058.4
          -100.939186,33.180435,10058.4
          -100.853035,33.175034,10066.02
          -100.76767,33.169682,10058.4
          -100.687286,33.164558,10058.4
          -100.600128,33.158928,10050.78
          -100.516777,33.153481,10050.78
          -100.430313,33.147766,10043.16
          -100.347969,33.142365,10050.78
          -100.260406,33.136505,10050.78
          -100.171967,33.130417,10043.16
          -100.086441,33.124557,10050.78
          -99.999207,33.118378,10050.78
          -99.910492,33.112152,10066.02
          -99.774864,33.102551,10073.64
          -99.681923,33.095901,10073.64
          -99.592606,33.089401,10073.64
          -99.500046,33.082535,10066.02
          -99.417313,33.076447,10058.4
          -99.322182,33.069359,10058.4
          -99.231262,33.062393,10058.4
          -99.138206,33.055389,10058.4
          -99.050888,33.048645,10050.78
          -98.956879,33.04129,10043.16
          -98.863495,33.034012,10043.16
          -98.770226,33.026531,10050.78
          -98.681328,33.019409,10050.78
          -98.591911,33.012314,10058.4
          -98.493889,33.00428,10058.4
          -98.401291,32.996693,10066.02
          -98.308357,32.988785,10073.64
          -98.209702,32.980537,10066.02
          -98.114723,32.972534,10066.02
          -98.022713,32.964664,10066.02
          -97.927238,32.956421,10058.4
          -97.835045,32.948463,10043.16
          -97.741295,32.940216,10043.16
          -97.647087,32.931976,10050.78
          -97.553482,32.923599,10043.16
          -97.458984,32.915085,10043.16
          -97.364578,32.906433,10050.78
          -97.266167,32.897488,10066.02
          -97.169403,32.889359,10073.64
          -97.067291,32.885666,10073.64
          -96.969368,32.881893,10058.4
          -96.867073,32.877937,10058.4
          -96.770325,32.874161,10058.4
          -96.675095,32.870396,10058.4
          -96.577408,32.866562,10066.02
          -96.482384,32.862576,10050.78
          -96.386734,32.85878,10043.16
          -96.28978,32.854523,10043.16
          -96.193153,32.850098,10058.4
          -96.095055,32.845768,10058.4
          -95.993996,32.841255,10058.4
          -95.893715,32.836693,10058.4
          -95.796577,32.832176,10058.4
          -95.700333,32.827568,10005.06
          -95.598251,32.822617,9845.04
          -95.502022,32.817978,9685.02
          -95.411209,32.813507,9532.62
          -95.319962,32.808762,9448.8
          -95.218727,32.803593,9448.8
          -95.120804,32.798519,9448.8
          -95.021355,32.793365,9448.8
          -94.924515,32.788239,9448.8
          -94.836952,32.78339,9441.18
          -94.738953,32.77803,9441.18
          -94.64222,32.772583,9448.8
          -94.54924,32.76733,9448.8
          -94.454956,32.761974,9441.18
          -94.36219,32.756577,9441.18
          -94.270714,32.751221,9441.18
          -94.172508,32.745262,9448.8
          -94.079681,32.739677,9456.42
          -93.985123,32.733952,9464.04
          -93.890205,32.728043,9464.04
          -93.796951,32.722172,9456.42
          -93.701218,32.716076,9456.42
          -93.610916,32.71035,9456.42
          -93.515961,32.704205,9456.42
          -93.424934,32.698246,9441.18
          -93.32798,32.691696,9448.8
          -93.237015,32.685654,9448.8
          -93.145508,32.67944,9448.8
          -93.052383,32.673065,9448.8
          -92.961967,32.666794,9441.18
          -92.870232,32.660351,9441.18
          -92.77317,32.653473,9441.18
          -92.67852,32.646652,9441.18
          -92.585136,32.639923,9433.56
          -92.490822,32.633011,9441.18
          -92.39592,32.625996,9456.42
          -92.306358,32.61937,9464.04
          -92.213303,32.612366,9456.42
          -92.116379,32.604954,9448.8
          -92.023849,32.597855,9456.42
          -91.928703,32.590439,9456.42
          -91.835724,32.583168,9456.42
          -91.744957,32.575974,9448.8
          -91.652512,32.568558,9433.56
          -91.559952,32.561142,9433.56
          -91.469749,32.553772,9441.18
          -91.372787,32.545879,9448.8
          -91.274414,32.538666,9456.42
          -91.183609,32.538483,9464.04
          -91.087646,32.539688,9464.04
          -90.990036,32.540771,9464.04
          -90.897583,32.541733,9441.18
          -90.808868,32.542648,9441.18
          -90.710762,32.543564,9441.18
          -90.619904,32.544479,9441.18
          -90.522453,32.545258,9441.18
          -90.432808,32.545853,9448.8
          -90.340958,32.546494,9441.18
          -90.249718,32.547089,9441.18
          -90.158478,32.547684,9441.18
          -90.059929,32.548141,9441.18
          -89.966988,32.548553,9448.8
          -89.869644,32.548874,9456.42
          -89.776649,32.549057,9448.8
          -89.685684,32.549149,9448.8
          -89.59227,32.549324,9448.8
          -89.500893,32.549377,9448.8
          -89.410637,32.549377,9448.8
          -89.316101,32.549187,9456.42
          -89.222885,32.549011,9448.8
          -89.134094,32.548721,9448.8
          -89.038475,32.548347,9456.42
          -88.936691,32.547913,9448.8
          -88.845428,32.547462,9441.18
          -88.754257,32.546997,9433.56
          -88.658936,32.546391,9441.18
          -88.558159,32.545601,9441.18
          -88.459671,32.544857,9448.8
          -88.362816,32.544022,9456.42
          -88.26696,32.543152,9464.04
          -88.170662,32.542156,9464.04
          -88.078163,32.541138,9464.04
          -87.98291,32.543518,9448.8
          -87.890236,32.553421,9441.18
          -87.803352,32.568878,9441.18
          -87.709686,32.586239,9441.18
          -87.619591,32.602982,9441.18
          -87.53183,32.619339,9448.8
          -87.43576,32.637028,9448.8
          -87.344276,32.653885,9372.6
          -87.249435,32.671246,9212.58
          -87.155884,32.688328,9052.56
          -87.065582,32.704716,8900.16
          -86.971588,32.721756,8839.2
          -86.876915,32.738747,8839.2
          -86.786217,32.754993,8839.2
          -86.695129,32.771194,8839.2
          -86.601158,32.787918,8839.2
          -86.508766,32.80426,8839.2
          -86.416214,32.820538,8839.2
          -86.322159,32.837036,8839.2
          -86.226524,32.853745,8839.2
          -86.134132,32.869766,8770.62
          -86.044647,32.885101,8625.84
          -85.947334,32.901863,8458.2
          -85.852989,32.917969,8298.18
          -85.765541,32.932892,8145.78
          -85.672562,32.948788,7894.32
          -85.584595,32.963516,7520.94
          -85.496101,32.978348,7155.18
          -85.411415,32.9925,6804.66
          -85.328011,33.006409,6461.76
          -85.248413,33.020645,6118.86
          -85.232979,33.02536,6050.28
          -85.228035,33.027191,6027.42
          -85.223198,33.02916,5996.94
          -85.216499,33.032227,5966.46
          -85.211197,33.035004,5935.98
          -85.207108,33.037308,5913.12
          -85.202171,33.040451,5882.64
          -85.19738,33.043762,5859.78
          -85.194359,33.046005,5836.92
          -85.189583,33.049759,5814.06
          -85.185295,33.053158,5791.2
          -85.181709,33.056046,5768.34
          -85.179092,33.058182,5753.1
          -85.174583,33.061798,5722.62
          -85.171677,33.064087,5707.38
          -85.167809,33.067173,5684.52
          -85.162445,33.071365,5646.42
          -85.157944,33.074806,5623.56
          -85.100204,33.118515,5265.42
          -85.043518,33.161636,4922.52
          -84.989632,33.203293,4587.24
          -84.935471,33.244904,4236.72
          -84.880371,33.287109,3870.96
          -84.826706,33.329178,3604.26
          -84.810135,33.343647,3596.64
          -84.786148,33.364269,3589.02
          -84.764519,33.382874,3596.64
          -84.74411,33.40044,3596.64
          -84.723259,33.418316,3596.64
          -84.702911,33.43568,3589.02
          -84.684433,33.451447,3596.64
          -84.663277,33.46957,3596.64
          -84.639908,33.489494,3596.64
          -84.622574,33.504318,3596.64
          -84.606209,33.51828,3589.02
          -84.59346,33.527252,3589.02
          -84.589287,33.529434,3589.02
          -84.585716,33.531006,3589.02
          -84.582672,33.53223,3589.02
          -84.577316,33.533936,3581.4
          -84.572868,33.535023,3566.16
          -84.568085,33.535858,3558.54
          -84.564735,33.536224,3543.3
          -84.56221,33.536362,3535.68
          -84.55809,33.536499,3528.06
          -84.554367,33.53651,3520.44
          -84.551285,33.536465,3512.82
          -84.543144,33.536362,3489.96
          -84.53862,33.536278,3474.72
          -84.535072,33.53627,3451.86
          -84.531883,33.536224,3436.62
          -84.529541,33.536232,3421.38
          -84.526619,33.536232,3406.14
          -84.522079,33.536232,3383.28
          -84.5028,33.536419,3268.98
          -84.482903,33.536606,3124.2
          -84.463112,33.536789,2971.8
          -84.444489,33.536819,2842.26
          -84.425041,33.536865,2720.34
          -84.404205,33.536839,2606.04
          -84.38604,33.536911,2506.98
          -84.366592,33.536957,2392.68
          -84.34877,33.536976,2278.38
          -84.329849,33.537003,2156.46
          -84.311829,33.536957,2034.54
          -84.289474,33.536957,1889.76
          -84.268707,33.537048,1737.36
          -84.248543,33.537117,1607.82
          -84.228714,33.537827,1463.04
          -84.224442,33.538654,1424.94
          -84.220749,33.539749,1394.46
          -84.21701,33.541214,1356.36
          -84.213753,33.542889,1325.88
          -84.210541,33.544922,1295.4
          -84.207741,33.547165,1257.3
          -84.205109,33.549732,1226.82
          -84.203537,33.551605,1203.96
          -84.201294,33.554947,1165.86
          -84.200302,33.556854,1143
          -84.1987,33.561138,1112.52
          -84.197784,33.567234,1074.42
          -84.197617,33.571426,1059.18
          -84.197678,33.57436,1043.94
          -84.197762,33.577377,1021.08
          -84.197845,33.58041,998.22
          -84.197983,33.583191,975.36
          -84.198044,33.586166,952.5
          -84.198151,33.589371,922.02
          -84.198265,33.598206,876.3
          -84.198532,33.601128,868.68
          -84.199104,33.604198,861.06
          -84.199951,33.606903,853.44
          -84.201393,33.609924,853.44
          -84.203033,33.612305,845.82
          -84.204933,33.61441,845.82
          -84.207123,33.616333,845.82
          -84.209404,33.61784,845.82
          -84.211922,33.619282,853.44
          -84.214409,33.62059,853.44
          -84.216431,33.621552,853.44
          -84.219017,33.622726,853.44
          -84.221977,33.624069,853.44
          -84.224686,33.625286,853.44
          -84.227257,33.626404,853.44
          -84.229767,33.627457,853.44
          -84.232521,33.628498,845.82
          -84.235153,33.629337,853.44
          -84.237839,33.629974,853.44
          -84.240585,33.630432,853.44
          -84.243279,33.630753,853.44
          -84.24614,33.631012,853.44
          -84.24894,33.631165,853.44
          -84.251694,33.631245,853.44
          -84.254494,33.63134,853.44
          -84.257347,33.631439,853.44
          -84.26033,33.631477,853.44
          -84.263016,33.631573,853.44
          -84.265808,33.631622,853.44
          -84.268967,33.631664,853.44
          -84.277328,33.631851,853.44
          -84.28582,33.631851,853.44
          -84.29406,33.631897,853.44
          -84.302971,33.631897,815.34
          -84.31131,33.631943,769.62
          -84.319153,33.631897,739.14
          -84.327049,33.631897,701.04
          -84.333916,33.631943,662.94
          -84.340637,33.631897,632.46
          -84.346916,33.631897,601.98
          -84.35331,33.631897,571.5
          -84.359924,33.631851,541.02
          -84.366592,33.631851,502.92
          -84.373108,33.631851,472.44
          -84.379745,33.631851,441.96
          -84.386436,33.631851,403.86
          -84.392914,33.631851,373.38
          -84.399605,33.631851,342.9
          -84.406555,33.631851,312.42
          -84.413567,33.631851,274.32
          -84.422722,33.631851,236.22
          -84.429184,33.631851,236.22
          -84.43335,33.631828,0
          -84.436386,33.631828,0
          -84.438515,33.631828,0
          -84.440048,33.631886,0
          -84.440414,33.631943,0
          -84.440689,33.632,0
          -84.440933,33.632069,0
          -84.441246,33.632153,0
          -84.441689,33.63232,0
          -84.442032,33.632465,0
          -84.442245,33.632561,0
          -84.442574,33.632755,0
          -84.442703,33.633026,0
          -84.442627,33.633305,0
          -84.44239,33.633526,0
          -84.442146,33.633736,0
          -84.441978,33.633991,0
          -84.441925,33.634277,0
          -84.441933,33.63448,0
          -84.441925,33.634735,0
          -84.441925,33.634975,0
          -84.441925,33.635239,0
          -84.44194,33.635582,0
          -84.441925,33.635845,0
          -84.441925,33.636074,0
          -84.441856,33.636337,0
          -84.441589,33.636566,0
          -84.441277,33.636635,0
          -84.440971,33.636635,0
          -84.440681,33.636635,0
          -84.440445,33.636635,0
          -84.440102,33.636646,0
          -84.439766,33.636635,0
          -84.43956,33.636635,0
          -84.439308,33.636635,0
          -84.43869,33.636635,0
          -84.43824,33.636681,0
          -84.437973,33.636875,0
          -84.437874,33.63723,0
          -84.437874,33.637508,0
          -84.437874,33.637848,0
          -84.437874,33.638123,0
          -84.437866,33.638351,0
          -84.437874,33.638729,0
          -84.437874,33.638935,0
          -84.437874,33.639153,0
          -84.437874,33.639507,0
          -84.437866,33.640045,0
          -84.437874,33.640472,0
          -84.437874,33.640858,0
          -84.437721,33.641155,0
          -84.437469,33.641289,0
          -84.437248,33.641441,0
          -84.43721,33.641674,0
          -84.436966,33.641834,0
          -84.436745,33.64183,0
          -84.436539,33.641811,0
          -84.436333,33.641819,0
        </coordinates>
      </LineString>
    </Placemark>
  </Document>
</kml>