<?xml version='1.0' encoding='utf-8'?>
<kml xmlns="http://www.opengis.net/kml/2.2">
  <Document>
    <Placemark>
      <name>DAL350-2023-09-08</name>
      <TimeStamp>
        <when>2023-09-08</when>
      </TimeStamp>
      <LineString>
        <altitudeMode>absolute</altitudeMode>
        <coordinates>
          -77.040764,38.852623,0
          -77.040459,38.852875,0
          -77.040405,38.853081,0
          -77.040611,38.853275,0
          -77.04039,38.853344,0
          -77.040161,38.85339,0
          -77.039917,38.853405,0
          -77.039703,38.853416,0
          -77.039474,38.853504,0
          -77.039398,38.853718,0
          -77.039413,38.853939,0
          -77.039429,38.854156,0
          -77.039444,38.854393,0
          -77.039474,38.854641,0
          -77.039505,38.854923,0
          -77.039536,38.855186,0
          -77.039551,38.855396,0
          -77.039566,38.855598,0
          -77.039597,38.855804,0
          -77.039612,38.856033,0
          -77.039642,38.856274,0
          -77.039673,38.85656,0
          -77.039719,38.856991,0
          -77.039757,38.85743,0
          -77.039803,38.857807,0
          -77.039833,38.858242,0
          -77.039879,38.858654,0
          -77.039909,38.858963,0
          -77.039932,38.8592,0
          -77.03997,38.859444,0
          -77.039963,38.859653,0
          -77.039879,38.859924,0
          -77.039803,38.86013,0
          -77.039589,38.86047,0
          -77.039413,38.860699,0
          -77.039162,38.860981,0
          -77.038879,38.861092,0
          -77.038689,38.860886,0
          -77.038681,38.86068,0
          -77.038673,38.860451,0
          -77.038628,38.860188,0
          -77.038589,38.859806,0
          -77.038567,38.859581,0
          -77.038086,38.855011,30.48
          -77.037476,38.848679,22.86
          -77.036911,38.843262,99.06
          -77.036072,38.834976,243.84
          -77.035713,38.828018,358.14
          -77.035652,38.822708,441.96
          -77.035645,38.820515,457.2
          -77.035713,38.818222,472.44
          -77.035713,38.815796,480.06
          -77.035652,38.807785,533.4
          -77.035416,38.799866,609.6
          -77.035156,38.791328,655.32
          -77.034973,38.782063,723.9
          -77.034973,38.7728,815.34
          -77.035294,38.769562,838.2
          -77.036011,38.766281,861.06
          -77.03717,38.763069,883.92
          -77.038879,38.759857,906.78
          -77.041092,38.756744,929.64
          -77.043716,38.753815,952.5
          -77.04557,38.752121,982.98
          -77.049255,38.749245,1021.08
          -77.052315,38.74736,1043.94
          -77.058044,38.744568,1097.28
          -77.062347,38.742966,1135.38
          -77.066711,38.741795,1173.48
          -77.071106,38.740959,1219.2
          -77.076111,38.740398,1264.92
          -77.080688,38.740215,1303.02
          -77.085335,38.740356,1348.74
          -77.090286,38.740677,1394.46
          -77.094666,38.741096,1440.18
          -77.09948,38.741501,1493.52
          -77.103577,38.741844,1539.24
          -77.109512,38.742279,1584.96
          -77.113647,38.742355,1630.68
          -77.130554,38.741238,1813.56
          -77.134888,38.74054,1874.52
          -77.139465,38.739609,1935.48
          -77.144348,38.7384,1996.44
          -77.148071,38.737373,2065.02
          -77.153687,38.735603,2125.98
          -77.157349,38.73444,2194.56
          -77.164063,38.732254,2308.86
          -77.169579,38.730377,2377.44
          -77.174057,38.728912,2438.4
          -77.177856,38.727596,2499.36
          -77.199554,38.719803,2804.16
          -77.217888,38.712616,3055.62
          -77.234619,38.704414,3261.36
          -77.238243,38.702408,3314.7
          -77.242126,38.700256,3360.42
          -77.246033,38.698036,3398.52
          -77.26577,38.686661,3558.54
          -77.286491,38.674622,3703.32
          -77.335999,38.646317,4114.8
          -77.388306,38.616898,4434.84
          -77.447021,38.583939,4587.24
          -77.509384,38.548965,4610.1
          -77.571411,38.514015,5044.44
          -77.628021,38.481995,5554.98
          -77.688087,38.446014,5951.22
          -77.747139,38.406387,6416.04
          -77.806068,38.366028,6781.8
          -77.867294,38.325851,6941.82
          -77.931343,38.284653,7117.08
          -77.989136,38.247116,7322.82
          -78.057686,38.202301,7559.04
          -78.123489,38.159042,7757.16
          -78.191917,38.11409,7947.66
          -78.259651,38.069458,8145.78
          -78.329247,38.024689,8229.6
          -78.399986,37.979549,8229.6
          -78.465233,37.937668,8229.6
          -78.538399,37.890518,8229.6
          -78.61039,37.843964,8229.6
          -78.682053,37.797531,8229.6
          -78.752922,37.751305,8229.6
          -78.816635,37.700424,8229.6
          -78.873306,37.642685,8229.6
          -78.923157,37.589115,8229.6
          -78.973907,37.534138,8229.6
          -79.030029,37.473713,8404.86
          -79.083969,37.421951,8793.48
          -79.145622,37.370087,9014.46
          -79.207069,37.319813,9281.16
          -79.265594,37.272034,9669.78
          -79.324097,37.223969,9837.42
          -79.383507,37.175034,9959.34
          -79.443748,37.12513,10157.46
          -79.50309,37.075882,10347.96
          -79.561913,37.027046,10370.82
          -79.619949,36.978725,10363.2
          -79.677704,36.930542,10363.2
          -79.735069,36.882545,10363.2
          -79.789009,36.837433,10363.2
          -79.847755,36.788231,10363.2
          -79.905968,36.739288,10363.2
          -79.965797,36.688889,10363.2
          -80.023071,36.640614,10363.2
          -80.083008,36.589966,10363.2
          -80.141701,36.540295,10363.2
          -80.199165,36.491592,10363.2
          -80.256882,36.442581,10363.2
          -80.313782,36.394135,10363.2
          -80.367165,36.348587,10363.2
          -80.423813,36.300247,10363.2
          -80.481049,36.251064,10363.2
          -80.534988,36.199539,10363.2
          -80.586235,36.145905,10363.2
          -80.637421,36.091461,10363.2
          -80.68821,36.037346,10363.2
          -80.738411,35.983978,10363.2
          -80.785446,35.933807,10363.2
          -80.833115,35.882996,10363.2
          -80.884155,35.828384,10363.2
          -80.934509,35.77446,10363.2
          -80.985893,35.719345,10363.2
          -81.036911,35.664555,10363.2
          -81.088142,35.60939,10363.2
          -81.139412,35.554085,10363.2
          -81.190773,35.498501,10363.2
          -81.241089,35.443954,10363.2
          -81.293045,35.38829,10363.2
          -81.314163,35.370071,10363.2
          -81.319824,35.365814,10363.2
          -81.325493,35.361832,10363.2
          -81.331375,35.35796,10363.2
          -81.337456,35.354095,10363.2
          -81.343887,35.350281,10363.2
          -81.350159,35.346817,10363.2
          -81.356674,35.343475,10363.2
          -81.363312,35.340225,10363.2
          -81.369949,35.337246,10363.2
          -81.376785,35.334312,10363.2
          -81.381691,35.332405,10363.2
          -81.390633,35.329144,10363.2
          -81.397644,35.326813,10363.2
          -81.405373,35.324478,10363.2
          -81.413132,35.32235,10363.2
          -81.419678,35.320724,10363.2
          -81.427216,35.318905,10363.2
          -81.434929,35.317089,10363.2
          -81.441887,35.31546,10363.2
          -81.450066,35.313503,10363.2
          -81.5327,35.294323,10363.2
          -81.614624,35.275658,10363.2
          -81.697479,35.256088,10363.2
          -81.776619,35.235062,10363.2
          -81.85965,35.211926,10363.2
          -81.940323,35.189255,10363.2
          -82.019577,35.166912,10363.2
          -82.102509,35.143433,10363.2
          -82.182373,35.120823,10363.2
          -82.264,35.097656,10363.2
          -82.344994,35.074677,10363.2
          -82.439613,35.047668,10363.2
          -82.512703,35.026794,10363.2
          -82.59436,35.003372,10363.2
          -82.670105,34.981613,10363.2
          -82.763542,34.954651,10370.82
          -82.842865,34.931683,10363.2
          -82.922279,34.9086,10363.2
          -83.004402,34.88475,10363.2
          -83.085022,34.861202,10363.2
          -83.164993,34.837738,10363.2
          -83.238029,34.816269,10500.36
          -83.317856,34.792816,10637.52
          -83.399231,34.768753,10797.54
          -83.48053,34.744728,10927.08
          -83.560471,34.720985,10980.42
          -83.640404,34.697151,10980.42
          -83.717537,34.674156,10972.8
          -83.788315,34.652973,10972.8
          -83.865875,34.62973,10972.8
          -83.942986,34.60656,10972.8
          -84.018921,34.583706,10995.66
          -84.095917,34.560379,11117.58
          -84.174156,34.53664,11224.26
          -84.251633,34.512993,11346.18
          -84.329567,34.489388,11452.86
          -84.400505,34.467728,11536.68
          -84.477966,34.443924,11590.02
          -84.555824,34.419983,11582.4
          -84.633522,34.396053,11582.4
          -84.711853,34.371845,11582.4
          -84.783623,34.349625,11582.4
          -84.858284,34.326458,11582.4
          -84.93631,34.3022,11582.4
          -85.014618,34.277756,11582.4
          -85.091187,34.25386,11582.4
          -85.170532,34.228977,11582.4
          -85.248245,34.204536,11582.4
          -85.325706,34.180069,11582.4
          -85.403458,34.155487,11582.4
          -85.48027,34.131218,11582.4
          -85.557709,34.106644,11582.4
          -85.634842,34.082016,11582.4
          -85.711411,34.057571,11582.4
          -85.787193,34.03331,11590.02
          -85.864273,34.008644,11582.4
          -85.942513,33.983459,11529.06
          -86.018074,33.959015,11361.42
          -86.092644,33.934811,11277.6
          -86.160278,33.912964,11193.78
          -86.232437,33.88961,11003.28
          -86.299118,33.872223,10850.88
          -86.305099,33.871315,10835.64
          -86.312241,33.870392,10820.4
          -86.31588,33.86998,10812.78
          -86.324959,33.86911,10797.54
          -86.33062,33.868698,10782.3
          -86.33696,33.868378,10759.44
          -86.345642,33.868103,10744.2
          -86.350632,33.868057,10728.96
          -86.358589,33.868149,10706.1
          -86.364929,33.868332,10690.86
          -86.372742,33.868755,10668
          -86.380119,33.869339,10645.14
          -86.386757,33.87001,10622.28
          -86.393051,33.870804,10607.04
          -86.399979,33.87178,10584.18
          -86.407127,33.87299,10561.32
          -86.413765,33.874203,10538.46
          -86.420532,33.875473,10515.6
          -86.427551,33.876762,10492.74
          -86.502113,33.890354,10363.2
          -86.575569,33.904083,10363.2
          -86.650604,33.918285,10363.2
          -86.723724,33.932159,10363.2
          -86.798798,33.946312,10363.2
          -86.864304,33.958328,10363.2
          -86.94104,33.96936,10363.2
          -87.015251,33.979752,10363.2
          -87.090637,33.990738,10363.2
          -87.158722,34.00087,10363.2
          -87.233856,34.011978,10363.2
          -87.306862,34.022701,10363.2
          -87.380936,34.033447,10363.2
          -87.454926,34.044113,10363.2
          -87.528412,34.054688,10363.2
          -87.601891,34.065205,10363.2
          -87.675659,34.075653,10363.2
          -87.74231,34.085129,10363.2
          -87.816185,34.095566,10363.2
          -87.889191,34.105801,10363.2
          -87.962425,34.116028,10363.2
          -88.031784,34.125725,10363.2
          -88.108559,34.136353,10363.2
          -88.180862,34.146332,10363.2
          -88.255867,34.156631,10363.2
          -88.324524,34.166039,10363.2
          -88.391075,34.175068,10363.2
          -88.466949,34.185402,10363.2
          -88.536072,34.194672,10363.2
          -88.612473,34.204926,10363.2
          -88.680801,34.214081,10363.2
          -88.75692,34.224243,10363.2
          -88.83242,34.234222,10363.2
          -88.900299,34.243149,10363.2
          -88.976669,34.253136,10363.2
          -89.052315,34.263004,10363.2
          -89.12014,34.271805,10363.2
          -89.195702,34.281601,10363.2
          -89.271652,34.291397,10363.2
          -89.341675,34.300388,10363.2
          -89.416183,34.309837,10363.2
          -89.491829,34.319458,10363.2
          -89.558754,34.327927,10363.2
          -89.633789,34.337349,10363.2
          -89.707626,34.346512,10363.2
          -89.784195,34.356033,10363.2
          -89.858719,34.365234,10363.2
          -89.933861,34.374481,10363.2
          -90.003082,34.38295,10363.2
          -90.079765,34.392326,10363.2
          -90.148651,34.400665,10363.2
          -90.221848,34.409504,10363.2
          -90.297661,34.418583,10363.2
          -90.366959,34.426823,10363.2
          -90.442818,34.435822,10363.2
          -90.51815,34.444702,10363.2
          -90.587654,34.452896,10363.2
          -90.663414,34.461739,10363.2
          -90.739449,34.470566,10363.2
          -90.808578,34.478542,10363.2
          -90.884285,34.487247,10363.2
          -90.961761,34.496094,10363.2
          -91.038376,34.504807,10363.2
          -91.115509,34.513504,10363.2
          -91.185379,34.52137,10363.2
          -91.263206,34.530075,10363.2
          -91.339828,34.538544,10363.2
          -91.407623,34.546043,10363.2
          -91.486244,34.554703,10363.2
          -91.563026,34.56308,10363.2
          -91.640511,34.571461,10363.2
          -91.718903,34.579933,10363.2
          -91.796265,34.588264,10363.2
          -91.873108,34.596413,10363.2
          -91.950188,34.604561,10363.2
          -92.022606,34.612198,10363.2
          -92.099701,34.620293,10363.2
          -92.170586,34.627625,10363.2
          -92.247879,34.635635,10363.2
          -92.320007,34.643013,10363.2
          -92.39782,34.65097,10363.2
          -92.475624,34.658844,10363.2
          -92.554031,34.666752,10363.2
          -92.631676,34.674545,10363.2
          -92.708916,34.682236,10363.2
          -92.786659,34.68988,10363.2
          -92.860855,34.697197,10363.2
          -92.938393,34.704712,10363.2
          -93.016266,34.712234,10363.2
          -93.087448,34.719124,10363.2
          -93.165497,34.72662,10363.2
          -93.242371,34.733917,10363.2
          -93.321793,34.741379,10363.2
          -93.399483,34.748657,10363.2
          -93.477509,34.75589,10363.2
          -93.555969,34.763115,10363.2
          -93.628464,34.769772,10363.2
          -93.705811,34.776855,10363.2
          -93.784737,34.783997,10363.2
          -93.862144,34.790909,10363.2
          -93.941734,34.798004,10363.2
          -94.016647,34.804688,10363.2
          -94.092407,34.811344,10363.2
          -94.168457,34.817955,10363.2
          -94.243408,34.824425,10363.2
          -94.322495,34.831223,10363.2
          -94.40094,34.837879,10363.2
          -94.479622,34.844513,10363.2
          -94.56263,34.851471,10363.2
          -94.641838,34.858082,10363.2
          -94.722122,34.864738,10363.2
          -94.79744,34.870926,10363.2
          -94.876083,34.877289,10370.82
          -94.957748,34.883835,10530.84
          -95.037788,34.890198,10805.16
          -95.114197,34.896255,10972.8
          -95.191826,34.905807,10972.8
          -95.198494,34.907318,10972.8
          -95.208267,34.90971,10972.8
          -95.214218,34.911247,10972.8
          -95.222092,34.913315,10972.8
          -95.228706,34.915054,10972.8
          -95.297638,34.937874,10972.8
          -95.372093,34.964584,10972.8
          -95.447845,34.991081,10972.8
          -95.517097,35.014893,10972.8
          -95.592377,35.040619,10972.8
          -95.664368,35.065659,10972.8
          -95.742599,35.09317,10972.8
          -95.817657,35.119381,10972.8
          -95.893082,35.145496,10972.8
          -95.970154,35.167469,10972.8
          -95.976341,35.168335,10972.8
          -95.984512,35.169285,10972.8
          -95.991974,35.169891,10972.8
          -95.999603,35.170349,10972.8
          -96.006721,35.170578,10972.8
          -96.01152,35.170681,10972.8
          -96.021881,35.170773,10972.8
          -96.02858,35.170822,10972.8
          -96.035957,35.170868,10972.8
          -96.043564,35.170959,10972.8
          -96.050385,35.17099,10972.8
          -96.132835,35.172684,10980.42
          -96.214394,35.176025,11132.82
          -96.295792,35.179062,11361.42
          -96.374985,35.181622,11551.92
          -96.447906,35.183853,11590.02
          -96.526436,35.186234,11582.4
          -96.604355,35.188522,11582.4
          -96.684326,35.190933,11582.4
          -96.764488,35.19326,11582.4
          -96.845039,35.195526,11582.4
          -96.92514,35.197769,11582.4
          -97.0047,35.199917,11582.4
          -97.085793,35.202072,11582.4
          -97.160172,35.204014,11582.4
          -97.240158,35.206009,11582.4
          -97.321304,35.20797,11582.4
          -97.401535,35.209946,11582.4
          -97.480453,35.211777,11582.4
          -97.557861,35.213562,11582.4
          -97.636185,35.215279,11582.4
          -97.716583,35.216999,11582.4
          -97.796257,35.218643,11582.4
          -97.875427,35.220211,11582.4
          -97.954956,35.221748,11582.4
          -98.028206,35.223129,11582.4
          -98.107338,35.224541,11582.4
          -98.187851,35.225986,11582.4
          -98.26783,35.227295,11582.4
          -98.346581,35.228577,11582.4
          -98.422188,35.22971,11582.4
          -98.495117,35.23082,11582.4
          -98.573662,35.231945,11582.4
          -98.652878,35.233017,11582.4
          -98.731445,35.233944,11582.4
          -98.809692,35.234783,11582.4
          -98.889999,35.235718,11582.4
          -98.967354,35.236691,11582.4
          -99.046097,35.237549,11582.4
          -99.123795,35.238323,11582.4
          -99.200699,35.239021,11582.4
          -99.270653,35.239624,11582.4
          -99.350594,35.240231,11582.4
          -99.429413,35.240845,11582.4
          -99.507355,35.241348,11582.4
          -99.584579,35.241814,11582.4
          -99.66423,35.242233,11582.4
          -99.743179,35.242558,11582.4
          -99.82283,35.242886,11582.4
          -99.901718,35.243118,11582.4
          -99.980225,35.243362,11582.4
          -100.057571,35.243488,11582.4
          -100.130623,35.243534,11582.4
          -100.210419,35.243637,11582.4
          -100.282173,35.243637,11582.4
          -100.361137,35.243637,11582.4
          -100.437126,35.243546,11582.4
          -100.515976,35.243362,11582.4
          -100.595055,35.243179,11582.4
          -100.674362,35.242905,11582.4
          -100.751579,35.242649,11582.4
          -100.83123,35.242279,11582.4
          -100.904099,35.241943,11582.4
          -100.972244,35.241535,11582.4
          -101.051788,35.241028,11582.4
          -101.13044,35.240509,11582.4
          -101.20668,35.239929,11582.4
          -101.286507,35.239288,11582.4
          -101.365532,35.238602,11582.4
          -101.436882,35.237915,11582.4
          -101.516594,35.23711,11582.4
          -101.593033,35.236275,11582.4
          -101.67057,35.235397,11582.4
          -101.749077,35.234253,11582.4
          -101.827126,35.232468,11582.4
          -101.902542,35.230774,11582.4
          -101.980705,35.229034,11582.4
          -102.058472,35.227287,11582.4
          -102.134956,35.225555,11582.4
          -102.212509,35.223705,11582.4
          -102.286751,35.221893,11582.4
          -102.364609,35.219971,11582.4
          -102.441788,35.217979,11582.4
          -102.518806,35.215931,11582.4
          -102.595764,35.213837,11582.4
          -102.673569,35.211685,11582.4
          -102.751923,35.209457,11582.4
          -102.829346,35.207226,11582.4
          -102.904526,35.20499,11582.4
          -102.983551,35.202618,11582.4
          -103.054283,35.200424,11582.4
          -103.131859,35.197952,11582.4
          -103.207855,35.195541,11582.4
          -103.285385,35.192978,11582.4
          -103.360718,35.190491,11582.4
          -103.433029,35.188019,11582.4
          -103.506516,35.185455,11582.4
          -103.579445,35.182926,11582.4
          -103.653206,35.180466,11582.4
          -103.726669,35.178314,11582.4
          -103.799858,35.176128,11582.4
          -103.868561,35.173965,11582.4
          -103.947311,35.171402,11582.4
          -104.024048,35.168884,11582.4
          -104.100952,35.166275,11582.4
          -104.176903,35.163666,11582.4
          -104.254013,35.160999,11582.4
          -104.329704,35.15831,11582.4
          -104.402962,35.155693,11582.4
          -104.479691,35.152851,11582.4
          -104.547615,35.150337,11582.4
          -104.625381,35.147369,11582.4
          -104.702675,35.144394,11582.4
          -104.77919,35.141399,11582.4
          -104.855804,35.138374,11582.4
          -104.929298,35.135422,11582.4
          -105.006767,35.132217,11582.4
          -105.083496,35.129013,11582.4
          -105.152206,35.126129,11582.4
          -105.231033,35.122742,11582.4
          -105.303436,35.119568,11582.4
          -105.375648,35.116425,11582.4
          -105.453354,35.112957,11582.4
          -105.523346,35.109787,11582.4
          -105.599182,35.106262,11582.4
          -105.67514,35.102715,11582.4
          -105.751816,35.099121,11582.4
          -105.828499,35.095459,11582.4
          -105.898247,35.092056,11582.4
          -105.975098,35.088284,11582.4
          -106.051086,35.084515,11582.4
          -106.127243,35.080696,11582.4
          -106.203491,35.076782,11582.4
          -106.274124,35.073154,11582.4
          -106.351837,35.069103,11582.4
          -106.428543,35.065063,11582.4
          -106.505241,35.060959,11582.4
          -106.575005,35.05719,11582.4
          -106.65152,35.052979,11582.4
          -106.727257,35.048809,11582.4
          -106.799355,35.044758,11582.4
          -106.874214,35.041718,11582.4
          -106.947815,35.040573,11582.4
          -107.024437,35.039017,11582.4
          -107.100166,35.037094,11582.4
          -107.175781,35.034943,11582.4
          -107.247047,35.032932,11582.4
          -107.322975,35.030777,11582.4
          -107.391472,35.02879,11582.4
          -107.465736,35.026657,11582.4
          -107.541389,35.02446,11582.4
          -107.616966,35.022171,11582.4
          -107.692696,35.019882,11582.4
          -107.763,35.017666,11582.4
          -107.838097,35.015259,11582.4
          -107.907547,35.013016,11582.4
          -107.984283,35.010498,11582.4
          -108.051567,35.008213,11582.4
          -108.12722,35.005646,11582.4
          -108.200867,35.003082,11582.4
          -108.277435,35.000336,11582.4
          -108.351974,34.997646,11582.4
          -108.427437,34.994888,11582.4
          -108.495033,34.992371,11582.4
          -108.567963,34.989578,11582.4
          -108.645058,34.986614,11582.4
          -108.719803,34.983719,11582.4
          -108.793182,34.980789,11582.4
          -108.863472,34.977951,11582.4
          -108.935837,34.975021,11582.4
          -109.007919,34.972,11582.4
          -109.080505,34.968933,11582.4
          -109.15564,34.965714,11582.4
          -109.230133,34.961151,11582.4
          -109.304825,34.955795,11582.4
          -109.372543,34.951126,11582.4
          -109.441284,34.946533,11582.4
          -109.521271,34.941177,11582.4
          -109.594734,34.936203,11582.4
          -109.670563,34.930984,11582.4
          -109.745461,34.925766,11582.4
          -109.814682,34.920914,11582.4
          -109.889259,34.915573,11582.4
          -109.963783,34.910248,11582.4
          -110.031906,34.905334,11582.4
          -110.106773,34.899857,11582.4
          -110.181381,34.894409,11582.4
          -110.255814,34.888855,11582.4
          -110.330421,34.88324,11582.4
          -110.403625,34.877747,11582.4
          -110.471939,34.872562,11582.4
          -110.547699,34.866787,11582.4
          -110.622009,34.861038,11582.4
          -110.696732,34.855225,11582.4
          -110.771896,34.849319,11582.4
          -110.846947,34.843369,11582.4
          -110.920029,34.837555,11582.4
          -110.991325,34.831779,11582.4
          -111.066681,34.819073,11582.4
          -111.138321,34.801476,11582.4
          -111.209793,34.783504,11582.4
          -111.281136,34.765915,11582.4
          -111.353165,34.753006,11582.4
          -111.426643,34.747375,11582.4
          -111.501419,34.742798,11582.4
          -111.574692,34.738026,11582.4
          -111.642227,34.733505,11582.4
          -111.718826,34.728436,11582.4
          -111.788292,34.723919,11582.4
          -111.862007,34.719315,11582.4
          -111.929855,34.715122,11582.4
          -112.003937,34.710663,11582.4
          -112.077141,34.705067,11582.4
          -112.149673,34.693634,11582.4
          -112.224487,34.685421,11582.4
          -112.298241,34.678951,11582.4
          -112.372856,34.672852,11582.4
          -112.441872,34.667313,11582.4
          -112.514687,34.661362,11582.4
          -112.588173,34.655273,11582.4
          -112.658447,34.649387,11582.4
          -112.734261,34.642918,11582.4
          -112.808075,34.636589,11582.4
          -112.882111,34.630188,11582.4
          -112.95536,34.623878,11582.4
          -113.022972,34.617966,11582.4
          -113.09584,34.611511,11582.4
          -113.164955,34.605423,11582.4
          -113.238441,34.598831,11582.4
          -113.310013,34.592411,11582.4
          -113.383141,34.5858,11582.4
          -113.456329,34.579144,11582.4
          -113.530197,34.572346,11582.4
          -113.603439,34.565594,11582.4
          -113.669426,34.55928,11582.4
          -113.741516,34.551117,11582.4
          -113.814758,34.54274,11582.4
          -113.886169,34.534733,11582.4
          -113.958664,34.52663,11582.4
          -114.031334,34.518253,11582.4
          -114.102547,34.505951,11582.4
          -114.173225,34.491165,11582.4
          -114.243965,34.476013,11582.4
          -114.314056,34.461086,11567.16
          -114.383583,34.446281,11346.18
          -114.45562,34.430878,11079.48
          -114.527931,34.415359,10972.8
          -114.602165,34.399403,10972.8
          -114.676727,34.383297,10972.8
          -114.745392,34.368446,10972.8
          -114.813477,34.353642,10972.8
          -114.887756,34.33749,10972.8
          -114.954773,34.322845,10972.8
          -115.028984,34.306549,10972.8
          -115.095573,34.291901,10972.8
          -115.168274,34.275879,10972.8
          -115.241486,34.259747,10972.8
          -115.314331,34.244339,10972.8
          -115.385201,34.229324,10972.8
          -115.459473,34.21344,10972.8
          -115.53273,34.197693,10972.8
          -115.605652,34.181946,10972.8
          -115.679001,34.166969,10972.8
          -115.754128,34.157425,10972.8
          -115.829887,34.15007,10972.8
          -115.905823,34.142902,10972.8
          -115.975494,34.136169,10972.8
          -116.040741,34.129818,10972.8
          -116.12114,34.121952,10911.84
          -116.196838,34.114456,10538.46
          -116.274551,34.106682,9944.1
          -116.352539,34.098724,9456.42
          -116.424477,34.090851,9060.18
          -116.500916,34.082523,8663.94
          -116.567398,34.075352,8313.42
          -116.640472,34.067951,7894.32
          -116.714172,34.061436,7490.46
          -116.784721,34.055008,7124.7
          -116.85894,34.048027,6774.18
          -116.92778,34.040859,6446.52
          -116.995369,34.031479,6103.62
          -117.063751,34.022278,5775.96
          -117.122894,34.015396,5463.54
          -117.188583,34.007854,5128.26
          -117.253189,34.000313,4808.22
          -117.316048,33.992752,4495.8
          -117.379189,33.985321,4183.38
          -117.440125,33.978199,3886.2
          -117.481613,33.97522,3741.42
          -117.488937,33.975544,3726.18
          -117.496483,33.976181,3710.94
          -117.501579,33.976776,3680.46
          -117.503242,33.97699,3665.22
          -117.512054,33.978386,3634.74
          -117.517891,33.979549,3611.88
          -117.52298,33.980667,3589.02
          -117.52739,33.981644,3558.54
          -117.533249,33.982956,3535.68
          -117.538132,33.984055,3512.82
          -117.559486,33.988953,3436.62
          -117.583588,33.994675,3284.22
          -117.60685,34.000259,3124.2
          -117.631874,34.006317,3048
          -117.655617,34.011978,3025.14
          -117.677826,34.017208,3032.76
          -117.69709,34.019897,3032.76
          -117.701736,34.020187,3032.76
          -117.706398,34.020309,3032.76
          -117.711945,34.020309,3025.14
          -117.716385,34.020187,3025.14
          -117.721138,34.019943,3009.9
          -117.726402,34.01963,2994.66
          -117.730331,34.019394,2979.42
          -117.735504,34.018978,2956.56
          -117.741035,34.018478,2926.08
          -117.745575,34.018093,2903.22
          -117.749672,34.0177,2887.98
          -117.773773,34.015182,2773.68
          -117.797539,34.012619,2659.38
          -117.820862,34.010147,2514.6
          -117.84446,34.007767,2438.4
          -117.868057,34.005432,2377.44
          -117.891594,34.003098,2270.76
          -117.914314,34.00087,2164.08
          -117.937431,33.998634,2080.26
          -117.959579,33.996494,1973.58
          -117.983185,33.994217,1866.9
          -118.006325,33.991978,1798.32
          -118.028755,33.989742,1706.88
          -118.051125,33.987534,1630.68
          -118.072868,33.985336,1562.1
          -118.094391,33.983135,1447.8
          -118.106445,33.981949,1363.98
          -118.117599,33.98085,1287.78
          -118.131577,33.979458,1242.06
          -118.143539,33.978291,1188.72
          -118.156013,33.977036,1135.38
          -118.167542,33.975906,1082.04
          -118.180321,33.974625,1021.08
          -118.193039,33.973358,944.88
          -118.205101,33.972153,899.16
          -118.217178,33.97089,861.06
          -118.225449,33.970047,830.58
          -118.237495,33.968842,784.86
          -118.249054,33.967678,754.38
          -118.260101,33.96656,723.9
          -118.271141,33.965397,670.56
          -118.28167,33.964325,617.22
          -118.291641,33.963364,563.88
          -118.301285,33.962402,518.16
          -118.31102,33.961395,487.68
          -118.319954,33.960434,434.34
          -118.329147,33.959473,381
          -118.337387,33.958649,342.9
          -118.345123,33.957855,312.42
          -118.35218,33.957184,281.94
          -118.358803,33.956551,259.08
          -118.365036,33.955902,228.6
          -118.371353,33.955261,190.5
          -118.377853,33.954552,152.4
          -118.384354,33.953934,121.92
          -118.390411,33.953293,91.44
          -118.396912,33.952652,60.96
          -118.402863,33.952038,22.86
          -118.408524,33.951431,15.24
          -118.413322,33.950943,0
          -118.416336,33.950649,0
          -118.418755,33.950397,0
          -118.421059,33.950157,0
          -118.422699,33.949974,0
          -118.424026,33.949814,0
          -118.424309,33.949757,0
          -118.424576,33.949688,0
          -118.424965,33.949558,0
          -118.425209,33.949463,0
          -118.425423,33.949383,0
          -118.425705,33.949245,0
          -118.426003,33.949081,0
          -118.426254,33.948933,0
          -118.426483,33.948776,0
          -118.426781,33.948559,0
          -118.426994,33.948372,0
          -118.427254,33.948143,0
          -118.427444,33.947903,0
          -118.427597,33.947662,0
          -118.427696,33.947433,0
          -118.427765,33.94722,0
          -118.427795,33.946999,0
          -118.427811,33.946789,0
          -118.427757,33.946575,0
          -118.427544,33.946404,0
          -118.427338,33.946369,0
          -118.427124,33.946358,0
          -118.426888,33.946381,0
          -118.426666,33.946404,0
          -118.426453,33.946415,0
          -118.426208,33.946449,0
          -118.425987,33.946472,0
          -118.425484,33.946518,0
          -118.42498,33.946579,0
          -118.424461,33.946625,0
          -118.423927,33.946678,0
          -118.423424,33.946735,0
          -118.42289,33.946793,0
          -118.422318,33.946846,0
          -118.421715,33.946907,0
          -118.421104,33.946976,0
          -118.420532,33.947033,0
          -118.41993,33.94709,0
          -118.41954,33.947124,0
          -118.419319,33.946987,0
          -118.419273,33.946781,0
          -118.419212,33.946556,0
          -118.418983,33.946381,0
          -118.418747,33.946346,0
          -118.418503,33.946358,0
          -118.418282,33.946381,0
          -118.418037,33.946404,0
          -118.417778,33.946438,0
          -118.417557,33.946461,0
          -118.417084,33.94651,0
          -118.416489,33.946575,0
          -118.415894,33.946625,0
          -118.415321,33.946682,0
          -118.414719,33.946754,0
          -118.414124,33.946815,0
          -118.413528,33.946873,0
          -118.41301,33.946918,0
          -118.412468,33.946999,0
          -118.412231,33.947067,0
          -118.412003,33.947124,0
          -118.411713,33.947216,0
          -118.411499,33.947266,0
          -118.411285,33.9473,0
          -118.411072,33.947323,0
          -118.410812,33.947346,0
          -118.410599,33.947369,0
          -118.410393,33.947388,0
          -118.409927,33.947433,0
          -118.40947,33.947487,0
          -118.409225,33.947521,0
          -118.408981,33.947636,0
          -118.408852,33.947845,0
          -118.408783,33.948074,0
          -118.40863,33.948311,0
          -118.408401,33.948406,0
          -118.408157,33.948429,0
          -118.407913,33.948463,0
          -118.407684,33.948486,0
          -118.407448,33.948509,0
          -118.406914,33.948566,0
          -118.406525,33.948612,0
          -118.406181,33.948616,0
          -118.405998,33.948383,0
          -118.405952,33.948162,0
          -118.405884,33.947906,0
          -118.405838,33.947685,0
          -118.405807,33.947468,0
          -118.405777,33.947266,0
          -118.405739,33.947033,0
          -118.405708,33.946781,0
          -118.405678,33.946579,0
          -118.40564,33.946369,0
          -118.405426,33.946262,0
          -118.405212,33.946251,0
          -118.404991,33.946239,0
          -118.404778,33.946228,0
        </coordinates>
      </LineString>
    </Placemark>
  </Document>
</kml>