<?xml version='1.0' encoding='utf-8'?>
<kml xmlns="http://www.opengis.net/kml/2.2">
  <Document>
    <Placemark>
      <name>DL37-2025-10-26</name>
      <TimeStamp>
        <when>2025-10-26</when>
      </TimeStamp>
      <LineString>
        <altitudeMode>absolute</altitudeMode>
        <coordinates>
          -0.454429,51.468567,0
          -0.454502,51.468304,0
          -0.454392,51.468086,0
          -0.454121,51.467865,0
          -0.453987,51.467644,0
          -0.45435,51.467503,0
          -0.453987,51.467503,0
          -0.453112,51.467503,0
          -0.452369,51.467503,0
          -0.451293,51.467503,0
          -0.449905,51.467514,0
          -0.44836,51.467514,0
          -0.447043,51.467525,0
          -0.445652,51.467525,0
          -0.444686,51.467525,0
          -0.443183,51.467525,0
          -0.442478,51.467537,0
          -0.441791,51.467537,0
          -0.441216,51.467537,0
          -0.440938,51.46756,0
          -0.440734,51.467606,0
          -0.440521,51.467793,0
          -0.440521,51.468048,0
          -0.44054,51.468342,0
          -0.440548,51.468624,0
          -0.440559,51.468853,0
          -0.440559,51.469086,0
          -0.440559,51.469608,0
          -0.440559,51.469994,0
          -0.440578,51.471344,0
          -0.440585,51.473225,0
          -0.440598,51.474007,0
          -0.440604,51.4743,0
          -0.440288,51.475044,0
          -0.439917,51.475067,0
          -0.439546,51.475056,0
          -0.439224,51.475056,0
          -0.438989,51.475056,0
          -0.438118,51.475044,0
          -0.437737,51.474903,0
          -0.437489,51.474613,0
          -0.437222,51.474533,0
          -0.436985,51.474529,0
          -0.436783,51.474533,0
          -0.436535,51.474533,0
          -0.436077,51.474533,0
          -0.435834,51.474541,0
          -0.435066,51.474545,0
          -0.434498,51.474541,0
          -0.433867,51.474541,0
          -0.433552,51.474564,0
          -0.433273,51.474636,0
          -0.433025,51.474789,0
          -0.432816,51.474937,0
          -0.432587,51.475113,0
          -0.432494,51.47533,0
          -0.432531,51.475708,0
          -0.432531,51.475971,0
          -0.432549,51.476208,0
          -0.432606,51.476509,0
          -0.432816,51.476707,0
          -0.433329,51.477047,0
          -0.434053,51.477516,0
          -0.434341,51.477673,0
          -0.434628,51.477711,0
          -0.435166,51.477676,0
          -0.43576,51.477676,0
          -0.437775,51.477673,0
          -0.45185,51.477631,60.96
          -0.47142,51.477604,99.06
          -0.480499,51.477604,198.12
          -0.487407,51.477539,297.18
          -0.496445,51.477371,426.72
          -0.505297,51.47731,525.78
          -0.51517,51.477219,563.88
          -0.525562,51.477036,609.6
          -0.52803,51.476906,617.22
          -0.530624,51.476765,624.84
          -0.533218,51.476532,640.08
          -0.535965,51.476254,647.7
          -0.538998,51.475845,662.94
          -0.541763,51.47551,670.56
          -0.544434,51.475136,685.8
          -0.547256,51.474716,693.42
          -0.549836,51.474335,701.04
          -0.553251,51.473785,716.28
          -0.556072,51.473373,723.9
          -0.559158,51.472904,731.52
          -0.562233,51.472412,746.76
          -0.565128,51.471954,762
          -0.568161,51.471504,769.62
          -0.571213,51.470993,784.86
          -0.574493,51.470482,800.1
          -0.577698,51.470016,822.96
          -0.580673,51.469505,838.2
          -0.593338,51.467503,891.54
          -0.606327,51.465454,952.5
          -0.617218,51.46373,1013.46
          -0.631332,51.46159,1089.66
          -0.644455,51.459682,1173.48
          -0.654948,51.458496,1272.54
          -0.659103,51.458286,1310.64
          -0.66252,51.458221,1348.74
          -0.665283,51.458237,1371.6
          -0.66925,51.458332,1417.32
          -0.672379,51.458424,1447.8
          -0.67543,51.458519,1470.66
          -0.678864,51.458611,1501.14
          -0.682983,51.458611,1539.24
          -0.686417,51.458519,1562.1
          -0.68985,51.458378,1592.58
          -0.693512,51.458191,1615.44
          -0.696487,51.458054,1630.68
          -0.699387,51.457867,1645.92
          -0.702977,51.457718,1668.78
          -0.706406,51.457588,1684.02
          -0.709915,51.457447,1699.26
          -0.714188,51.45726,1722.12
          -0.717545,51.457123,1737.36
          -0.72403,51.456841,1760.22
          -0.728378,51.456516,1783.08
          -0.731812,51.456097,1790.7
          -0.735416,51.455566,1805.94
          -0.738979,51.454834,1821.18
          -0.742264,51.454048,1844.04
          -0.745511,51.45314,1859.28
          -0.749594,51.451767,1889.76
          -0.753021,51.450466,1912.62
          -0.755997,51.449207,1927.86
          -0.75882,51.447857,1950.72
          -0.761694,51.446365,1973.58
          -0.765406,51.444305,2004.06
          -0.767746,51.44297,2019.3
          -0.770676,51.441147,2042.16
          -0.773497,51.439453,2065.02
          -0.776243,51.437759,2080.26
          -0.779213,51.435791,2103.12
          -0.782182,51.433823,2125.98
          -0.78478,51.431992,2141.22
          -0.787601,51.430069,2164.08
          -0.790405,51.428074,2186.94
          -0.793614,51.425766,2209.8
          -0.79628,51.423836,2232.66
          -0.79881,51.421967,2255.52
          -0.81543,51.409779,2400.3
          -0.831833,51.397907,2499.36
          -0.851589,51.383698,2636.52
          -0.868454,51.371605,2758.44
          -0.888631,51.357056,2918.46
          -0.909271,51.342136,3048
          -0.923309,51.332081,3139.44
          -0.947571,51.314857,3215.64
          -0.965881,51.301964,3268.98
          -0.989438,51.285004,3337.56
          -1.008453,51.271191,3390.9
          -1.03241,51.253922,3444.24
          -1.053619,51.238651,3497.58
          -1.078873,51.22031,3596.64
          -1.099777,51.205227,3710.94
          -1.154158,51.165848,3992.88
          -1.208954,51.1259,4244.34
          -1.264877,51.085217,4495.8
          -1.3217,51.043808,4732.02
          -1.373215,51.009289,4899.66
          -1.378784,51.006729,4914.9
          -1.383238,51.004898,4930.14
          -1.387863,51.003189,4945.38
          -1.393185,51.001328,4960.62
          -1.397045,51.000092,4975.86
          -1.403275,50.998257,4991.1
          -1.408329,50.996887,5013.96
          -1.412337,50.995926,5021.58
          -1.41777,50.994671,5044.44
          -1.423035,50.993462,5059.68
          -1.428148,50.99231,5082.54
          -1.433563,50.991085,5097.78
          -1.438599,50.990017,5120.64
          -1.443811,50.988968,5135.88
          -1.448669,50.988014,5158.74
          -1.454946,50.986862,5173.98
          -1.459474,50.986038,5189.22
          -1.464596,50.985123,5204.46
          -1.469421,50.984299,5219.7
          -1.475143,50.98336,5234.94
          -1.555159,50.97084,5448.3
          -1.635181,50.957565,5737.86
          -1.715575,50.943832,5951.22
          -1.795578,50.930012,6126.48
          -1.882629,50.914833,6339.84
          -1.965332,50.900311,6537.96
          -2.048356,50.885834,6728.46
          -2.130457,50.871368,6888.48
          -2.214584,50.856457,7018.02
          -2.3003,50.841248,7139.94
          -2.390823,50.825035,7254.24
          -2.479347,50.809113,7391.4
          -2.566718,50.794647,7566.66
          -2.65564,50.784489,7680.96
          -2.744949,50.774048,7802.88
          -2.834396,50.763493,7962.9
          -2.924881,50.752785,8122.92
          -3.012543,50.742313,8366.76
          -3.102341,50.731697,8473.44
          -3.191071,50.720898,8633.46
          -3.282834,50.709869,8702.04
          -3.376069,50.698471,8778.24
          -3.470789,50.686798,8862.06
          -3.566325,50.674896,9029.7
          -3.663073,50.662811,9144
          -3.759782,50.651138,9250.68
          -3.856647,50.645065,9403.08
          -3.95493,50.640175,9517.38
          -4.051579,50.635197,9692.64
          -4.149363,50.630173,9875.52
          -4.247878,50.625046,10050.78
          -4.342925,50.62001,10218.42
          -4.438477,50.614853,10363.2
          -4.533884,50.609756,10485.12
          -4.62955,50.607964,10645.14
          -4.723471,50.606506,10843.26
          -4.815872,50.605122,10972.8
          -4.909256,50.60368,10972.8
          -5.004272,50.602188,10972.8
          -5.097223,50.600555,10972.8
          -5.191618,50.598816,10972.8
          -5.282345,50.597115,10972.8
          -5.376026,50.595253,10972.8
          -5.468965,50.593391,10972.8
          -5.561106,50.5914,10972.8
          -5.655357,50.58934,10972.8
          -5.749487,50.5872,10972.8
          -5.844293,50.5849,10972.8
          -5.936737,50.582657,10972.8
          -6.024049,50.58046,10972.8
          -6.118939,50.577984,10972.8
          -6.212471,50.57547,10972.8
          -6.309188,50.572815,10972.8
          -6.403916,50.570114,10972.8
          -6.499425,50.567368,10972.8
          -6.596251,50.564388,10972.8
          -6.694163,50.561363,10972.8
          -6.785069,50.558487,10972.8
          -6.879,50.555405,10972.8
          -6.972415,50.552261,11056.62
          -7.063764,50.549168,11163.3
          -7.157304,50.545944,11247.12
          -7.252928,50.542511,11277.6
          -7.345661,50.539078,11277.6
          -7.44237,50.535507,11277.6
          -7.539512,50.531799,11277.6
          -7.631044,50.528172,11277.6
          -7.725123,50.524429,11277.6
          -7.82176,50.520493,11277.6
          -7.918613,50.51651,11277.6
          -8.01496,50.512436,11277.6
          -8.105525,50.508591,11277.6
          -8.200427,50.504379,11277.6
          -8.294901,50.500149,11277.6
          -8.386327,50.495956,11277.6
          -8.483035,50.49147,11277.6
          -8.578986,50.486973,11277.6
          -8.677826,50.482224,11277.6
          -8.773811,50.477509,11277.6
          -8.870448,50.472702,11277.6
          -8.968555,50.467747,11277.6
          -9.066022,50.462719,11277.6
          -9.161731,50.457687,11277.6
          -9.253235,50.452835,11277.6
          -9.346842,50.447777,11277.6
          -9.440219,50.442673,11277.6
          -9.533757,50.437489,11277.6
          -9.630601,50.432053,11277.6
          -9.722828,50.426788,11277.6
          -9.817369,50.421295,11277.6
          -9.914294,50.415573,11277.6
          -10.007358,50.410023,11277.6
          -10.105121,50.40411,11277.6
          -10.196054,50.398525,11277.6
          -10.292482,50.392517,11277.6
          -10.385495,50.386654,11277.6
          -10.484743,50.380322,11277.6
          -10.578349,50.374271,11277.6
          -10.677597,50.367798,11277.6
          -10.776937,50.361237,11277.6
          -10.876761,50.35453,11277.6
          -10.977799,50.347595,11277.6
          -11.074219,50.340984,11277.6
          -11.172873,50.334049,11277.6
          -11.265034,50.327545,11277.6
          -11.364614,50.320454,11277.6
          -11.462426,50.313354,11277.6
          -11.556652,50.306442,11277.6
          -11.654787,50.299179,11277.6
          -11.750023,50.292068,11277.6
          -11.84675,50.284702,11277.6
          -11.94503,50.277145,11277.6
          -12.036968,50.27005,11277.6
          -12.131653,50.262634,11277.6
          -12.232608,50.254631,11277.6
          -12.332524,50.24667,11277.6
          -12.430669,50.238693,11277.6
          -12.522029,50.231186,11277.6
          -12.621195,50.223038,11277.6
          -12.714868,50.21521,11277.6
          -12.811098,50.2071,11277.6
          -12.90552,50.199047,11277.6
          -12.999202,50.190994,11277.6
          -13.093102,50.1828,11277.6
          -13.187157,50.174606,11277.6
          -13.286518,50.165817,11277.6
          -13.38236,50.157166,11277.6
          -13.476142,50.148769,11277.6
          -13.576504,50.139599,11277.6
          -13.675304,50.130524,11277.6
          -13.772253,50.12149,11277.6
          -13.872986,50.112076,11277.6
          -13.968967,50.103008,11277.6
          -14.069511,50.093399,11277.6
          -14.17214,50.083504,11277.6
          -14.267265,50.074219,11277.6
          -14.36195,50.064926,11277.6
          -14.458082,50.055386,11277.6
          -14.556957,50.045517,11277.6
          -14.653811,50.035721,11277.6
          -14.712104,50.029831,11277.6
          -45.793339,48.10601,11582.4
          -45.840313,48.105686,11582.4
          -46.409821,48.100159,11582.4
          -46.455551,48.099518,11582.4
          -46.622597,48.097305,11582.4
          -46.709148,48.09605,11582.4
          -46.797672,48.094746,11582.4
          -46.885918,48.093349,11582.4
          -46.977264,48.091827,11582.4
          -47.062893,48.090279,11582.4
          -47.153744,48.08865,11582.4
          -47.239029,48.087017,11582.4
          -47.327316,48.08519,11582.4
          -47.415894,48.083405,11582.4
          -47.504745,48.081528,11582.4
          -47.588688,48.079662,11590.02
          -47.676956,48.077591,11582.4
          -47.768211,48.075485,11582.4
          -47.854042,48.073334,11582.4
          -47.942139,48.071091,11582.4
          -48.029892,48.068893,11582.4
          -48.116615,48.066605,11582.4
          -48.204979,48.064114,11582.4
          -48.293015,48.061615,11582.4
          -48.380058,48.059135,11582.4
          -48.467285,48.056534,11582.4
          -48.553936,48.053921,11582.4
          -48.644783,48.051079,11582.4
          -48.732193,48.048294,11582.4
          -48.819946,48.04541,11582.4
          -48.906555,48.042515,11582.4
          -48.998459,48.039349,11582.4
          -49.086208,48.036278,11582.4
          -49.173569,48.033142,11582.4
          -49.264687,48.0298,11582.4
          -49.352165,48.02655,11582.4
          -49.442348,48.023102,11582.4
          -49.53017,48.019703,11582.4
          -49.622566,48.015976,11582.4
          -49.715034,48.012302,11582.4
          -49.803349,48.008671,11582.4
          -49.893562,48.004852,11582.4
          -49.979279,47.998306,11582.4
          -50.062866,47.984695,11582.4
          -50.141884,47.96603,11597.64
          -50.213013,47.953033,11681.46
          -50.220222,47.952301,11696.7
          -50.226181,47.951786,11696.7
          -50.232719,47.951248,11704.32
          -50.238155,47.950901,11711.94
          -50.243637,47.950607,11719.56
          -50.250832,47.950294,11727.18
          -50.25634,47.95015,11727.18
          -50.263412,47.950012,11734.8
          -50.269112,47.949966,11742.42
          -50.275085,47.949966,11750.04
          -50.281746,47.950016,11757.66
          -50.287582,47.950058,11757.66
          -50.294846,47.950153,11765.28
          -50.382889,47.95079,11849.1
          -50.471878,47.951523,11948.16
          -50.560139,47.952156,12001.5
          -50.648945,47.952717,12024.36
          -50.739326,47.953308,12077.7
          -50.831699,47.953785,12138.66
          -50.92321,47.954178,12192
          -51.018959,47.954533,12192
          -51.114304,47.954819,12192
          -51.204117,47.954956,12192
          -51.298737,47.955048,12192
          -51.387451,47.955048,12192
          -51.483974,47.954998,12192
          -51.572159,47.95491,12192
          -51.665462,47.95467,12192
          -51.772648,47.954391,12192
          -51.870117,47.953972,12192
          -51.968971,47.953445,12192
          -52.064552,47.952942,12192
          -52.154423,47.952297,12192
          -52.247269,47.951614,12192
          -52.340034,47.950882,12192
          -52.434448,47.950012,12192
          -52.527283,47.949188,12192
          -52.620941,47.948181,12192
          -52.715149,47.947128,12192
          -52.806473,47.94603,12192
          -52.896286,47.944839,12192
          -52.989395,47.943604,12192
          -53.079895,47.942322,12192
          -53.169674,47.940983,12192
          -53.266731,47.939392,12192
          -53.354256,47.937958,12192
          -53.445107,47.936329,12192
          -53.540359,47.934586,12192
          -53.630608,47.932884,12192
          -53.720398,47.931068,12192
          -53.816254,47.929092,12192
          -53.907028,47.927124,12192
          -53.995338,47.925156,12192
          -54.089539,47.922958,12192
          -54.179569,47.920826,12192
          -54.270058,47.918564,12192
          -54.360001,47.916264,12192
          -54.455074,47.91375,12192
          -54.552681,47.911098,12192
          -54.642632,47.908585,12192
          -54.738888,47.905838,12192
          -54.834892,47.902954,12192
          -54.926289,47.900204,12192
          -55.022758,47.897186,12192
          -55.11834,47.894108,12192
          -55.207424,47.891174,12192
          -55.30291,47.887939,12192
          -55.397255,47.884689,12192
          -55.488922,47.881439,12192
          -55.581207,47.878143,12192
          -55.677544,47.874573,12192
          -55.775898,47.870876,12192
          -55.868435,47.867245,12192
          -55.964565,47.863522,12192
          -56.05719,47.859741,12192
          -56.148582,47.855988,12192
          -56.241196,47.85207,12192
          -56.329994,47.848297,12192
          -56.42712,47.844017,12192
          -56.523602,47.839779,12192
          -56.614609,47.835663,12192
          -56.706894,47.831406,12192
          -56.803093,47.82692,12192
          -56.893318,47.822617,12192
          -56.984985,47.818176,12192
          -57.083553,47.813339,12192
          -57.174118,47.808823,12192
          -57.267292,47.804073,12192
          -57.363491,47.799091,12192
          -57.45406,47.794296,12192
          -57.548447,47.789246,12192
          -57.647049,47.783936,12192
          -57.737099,47.778984,12192
          -57.829002,47.773861,12192
          -57.92363,47.768509,12192
          -58.015915,47.763153,12192
          -58.11507,47.757381,12192
          -58.209652,47.751797,12192
          -58.299911,47.746353,12192
          -58.392193,47.740765,12192
          -58.4851,47.735046,12192
          -58.576286,47.72937,12192
          -58.672417,47.723282,12192
          -58.769371,47.717056,12192
          -58.866646,47.710735,12192
          -58.957031,47.704788,12192
          -59.053486,47.698307,12192
          -59.148701,47.687553,12192
          -59.237858,47.668747,12192
          -59.329483,47.648079,12192
          -59.421272,47.627197,12192
          -59.514107,47.605957,12192
          -59.601379,47.585861,12192
          -59.687828,47.565903,12192
          -59.779568,47.544685,12192
          -59.86718,47.524296,12192
          -59.961124,47.502323,12192
          -60.053593,47.480583,12192
          -60.145821,47.458878,12192
          -60.234093,47.437988,12192
          -60.327026,47.415894,12192
          -60.414574,47.395065,12192
          -60.506104,47.373138,12192
          -60.593719,47.352081,12192
          -60.680031,47.331207,12192
          -60.772728,47.308731,12192
          -60.859314,47.287582,12192
          -60.948627,47.265789,12192
          -61.035439,47.244507,12192
          -61.1269,47.221985,12192
          -61.215397,47.200153,12192
          -61.307865,47.1772,12192
          -61.396389,47.155136,12192
          -61.481621,47.13382,12192
          -61.571434,47.111252,12192
          -61.66309,47.088146,12192
          -61.75415,47.065109,12192
          -61.844364,47.042152,12192
          -61.930847,47.020088,12192
          -62.022148,46.996719,12192
          -62.106125,46.975159,12192
          -62.198391,46.951328,12192
          -62.281704,46.929729,12192
          -62.371033,46.906494,12192
          -62.456451,46.884247,12192
          -62.54731,46.860443,12192
          -62.631065,46.838394,12192
          -62.721977,46.814373,12192
          -62.80904,46.791321,12192
          -62.894852,46.768478,12192
          -62.987968,46.743622,12192
          -63.078758,46.719315,12192
          -63.165157,46.695969,12192
          -63.251507,46.672668,12192
          -63.343014,46.647903,12192
          -63.434456,46.623047,12192
          -63.524826,46.598282,12192
          -63.614056,46.573837,12192
          -63.703888,46.549164,12192
          -63.787491,46.526001,12192
          -63.876434,46.501358,12192
          -63.963638,46.47715,12192
          -64.047745,46.453629,12192
          -64.139122,46.427994,12192
          -64.225876,46.403595,12192
          -64.317917,46.377594,12192
          -64.408241,46.351971,12192
          -64.497505,46.326599,12192
          -64.583267,46.302158,12192
          -64.672119,46.276649,12192
          -64.76226,46.250702,12192
          -64.849892,46.225395,12192
          -64.936836,46.200211,12192
          -65.023064,46.175213,12192
          -65.107246,46.150585,12192
          -65.191772,46.125912,12192
          -65.282166,46.099319,12192
          -65.369324,46.073639,12192
          -65.459427,46.046997,12192
          -65.546768,46.021076,12192
          -65.63279,45.995499,12192
          -65.721931,45.9688,12192
          -65.808655,45.94273,12192
          -65.89814,45.915848,12192
          -65.984917,45.889614,12192
          -66.069633,45.863892,12192
          -66.155617,45.837799,12192
          -66.241531,45.811615,12192
          -66.326935,45.785431,12192
          -66.413864,45.758755,12192
          -66.498367,45.732697,12192
          -66.582909,45.706558,12192
          -66.664902,45.681061,12192
          -66.75206,45.653915,12192
          -66.837662,45.627151,12192
          -66.924179,45.60006,12192
          -67.006714,45.574127,12192
          -67.095016,45.546291,12192
          -67.185318,45.517731,12192
          -67.266472,45.491962,12192
          -67.354095,45.464031,12192
          -67.443954,45.435242,12192
          -67.526222,45.408875,12192
          -67.612808,45.380985,12192
          -67.698692,45.352074,12192
          -67.780685,45.316277,12192
          -67.857315,45.275116,12192
          -67.93396,45.233185,12192
          -68.009995,45.191376,12192
          -68.082016,45.151611,12192
          -68.155296,45.111118,12192
          -68.230255,45.06955,12192
          -68.303047,45.029114,12192
          -68.377701,44.987476,12192
          -68.453201,44.945255,12192
          -68.528625,44.90303,12192
          -68.600105,44.862812,12192
          -68.676254,44.819916,12192
          -68.753784,44.776085,12192
          -68.828362,44.733856,12192
          -68.902916,44.691467,12192
          -68.974846,44.650486,12192
          -69.046196,44.609848,12192
          -69.121727,44.566589,12192
          -69.196182,44.523865,12192
          -69.26712,44.483036,12192
          -69.338509,44.441895,12192
          -69.412827,44.398872,12192
          -69.485847,44.356613,12192
          -69.561073,44.312889,12192
          -69.630478,44.272434,12192
          -69.705574,44.228531,12192
          -69.775414,44.18771,12192
          -69.848656,44.144741,12192
          -69.921722,44.101685,12192
          -69.991478,44.060528,12192
          -70.065437,44.016815,12192
          -70.135757,43.975113,12192
          -70.20401,43.934559,12192
          -70.274895,43.892288,12192
          -70.347092,43.849136,12192
          -70.421188,43.804817,12192
          -70.490578,43.763123,12192
          -70.561523,43.720512,12192
          -70.633194,43.677219,12192
          -70.702896,43.63504,12192
          -70.7761,43.589767,12192
          -70.84063,43.541191,12192
          -70.897591,43.487473,12192
          -70.945259,43.430538,12192
          -70.992889,43.36972,12192
          -71.039192,43.310349,12192
          -71.083832,43.2528,12192
          -71.127594,43.196274,12192
          -71.174728,43.137028,12192
          -71.229858,43.081284,12192
          -71.294502,43.02951,12192
          -71.363914,42.985081,12192
          -71.432022,42.944458,12192
          -71.501511,42.902916,12192
          -71.571327,42.861145,12192
          -71.64106,42.81926,12192
          -71.711472,42.776943,12192
          -71.779922,42.735672,12192
          -71.845779,42.695938,12192
          -71.91452,42.654327,12192
          -71.982109,42.613358,12192
          -72.051659,42.571091,12192
          -72.120811,42.528946,12192
          -72.190712,42.486225,12192
          -72.259125,42.444283,12192
          -72.328491,42.401779,12192
          -72.397652,42.359253,12192
          -72.466133,42.317047,12192
          -72.534111,42.274979,12192
          -72.602638,42.232517,12192
          -72.669632,42.190887,12192
          -72.735878,42.149887,12192
          -72.805519,42.10968,12192
          -72.873276,42.070187,12192
          -72.940727,42.03067,12192
          -73.006836,41.989792,12192
          -73.067574,41.9431,12192
          -73.122253,41.890079,12192
          -73.169518,41.834541,12192
          -73.21666,41.778584,12192
          -73.26445,41.721771,12192
          -73.317833,41.667789,12192
          -73.378937,41.619141,12192
          -73.443413,41.576569,12192
          -73.508118,41.534187,12192
          -73.573715,41.491264,12192
          -73.637268,41.449741,12192
          -73.702782,41.406738,12192
          -73.768196,41.363712,12192
          -73.834595,41.319717,12192
          -73.89978,41.275223,12192
          -73.963257,41.232101,12192
          -74.027687,41.18821,12192
          -74.091309,41.145035,12192
          -74.158081,41.103699,12192
          -74.224609,41.0625,12192
          -74.289925,41.021973,12192
          -74.356468,40.980774,12192
          -74.422195,40.939945,12192
          -74.488304,40.898746,12192
          -74.553955,40.85788,12192
          -74.618454,40.817562,12192
          -74.683838,40.776627,12192
          -74.74823,40.736233,12192
          -74.81311,40.695419,12192
          -74.876511,40.655418,12192
          -74.938805,40.616131,12192
          -75.002014,40.576126,12192
          -75.064636,40.536438,12192
          -75.127884,40.496628,12192
          -75.18837,40.458504,12192
          -75.250664,40.419167,12192
          -75.312401,40.380016,12192
          -75.373047,40.34166,12192
          -75.434448,40.302567,12192
          -75.494614,40.264194,12192
          -75.557739,40.224609,12192
          -75.623512,40.190594,12192
          -75.688416,40.157867,12192
          -75.751984,40.125839,12192
          -75.817078,40.093002,12192
          -75.881714,40.060272,12192
          -75.945984,40.027725,12192
          -76.010162,39.995121,12192
          -76.07489,39.962173,12192
          -76.139565,39.929157,12192
          -76.204163,39.896107,12192
          -76.269104,39.86282,12192
          -76.331543,39.830746,12192
          -76.395508,39.797882,12192
          -76.459946,39.764694,12192
          -76.522888,39.732147,12192
          -76.585396,39.699829,12192
          -76.648193,39.667301,12192
          -76.711021,39.634689,12192
          -76.773354,39.602234,12192
          -76.835991,39.569641,12192
          -76.900879,39.535698,12192
          -76.960815,39.500225,12192
          -77.016731,39.457672,12192
          -77.066879,39.410843,12192
          -77.116272,39.364059,12192
          -77.166077,39.316715,12192
          -77.21521,39.269791,12192
          -77.264816,39.222382,12192
          -77.313843,39.175339,12192
          -77.362495,39.128632,12192
          -77.411621,39.081535,12192
          -77.461197,39.033829,12192
          -77.510452,38.986221,12192
          -77.559532,38.938797,12192
          -77.607971,38.89188,12192
          -77.657036,38.844315,12192
          -77.70546,38.797302,12192
          -77.754272,38.749802,12192
          -77.802979,38.702229,12192
          -77.853149,38.656281,12192
          -77.906067,38.618107,12192
          -77.966629,38.582153,12192
          -78.026306,38.546974,12192
          -78.086975,38.511177,12192
          -78.148193,38.475006,12192
          -78.208626,38.43924,12192
          -78.270981,38.402344,12192
          -78.330475,38.36705,12192
          -78.392769,38.330044,12192
          -78.455162,38.292892,12192
          -78.515945,38.25663,12192
          -78.576965,38.220131,12192
          -78.638969,38.183029,12192
          -78.701401,38.145554,12192
          -78.763382,38.108322,12192
          -78.824974,38.071243,12192
          -78.886612,38.034061,12184.38
          -78.948166,37.996811,12192
          -79.010391,37.95916,12199.62
          -79.06884,37.923706,12199.62
          -79.128502,37.885162,12192
          -79.183197,37.845703,12184.38
          -79.241043,37.804234,12192
          -79.297333,37.763718,12100.56
          -79.353233,37.723282,11955.78
          -79.40889,37.683105,11795.76
          -79.461075,37.645294,11643.36
          -79.509666,37.610157,11574.78
          -79.561378,37.572685,11574.78
          -79.614006,37.534332,11582.4
          -79.664848,37.49736,11582.4
          -79.716446,37.459717,11582.4
          -79.768105,37.421997,11582.4
          -79.81884,37.384846,11582.4
          -79.870071,37.347279,11582.4
          -79.922554,37.308838,11582.4
          -79.973045,37.271622,11582.4
          -80.021248,37.236156,11582.4
          -80.074203,37.197098,11582.4
          -80.121483,37.16217,11582.4
          -80.174484,37.123032,11582.4
          -80.226112,37.08477,11582.4
          -80.277161,37.046921,11582.4
          -80.329407,37.007957,11582.4
          -80.37944,36.96867,11582.4
          -80.428864,36.929947,11582.4
          -80.478127,36.891357,11582.4
          -80.527161,36.852848,11582.4
          -80.576134,36.814407,11582.4
          -80.625801,36.77536,11582.4
          -80.674713,36.736839,11582.4
          -80.723076,36.69873,11582.4
          -80.770966,36.660919,11582.4
          -80.819778,36.62233,11582.4
          -80.867783,36.58429,11582.4
          -80.916992,36.545277,11582.4
          -80.964211,36.50771,11582.4
          -81.012596,36.469257,11582.4
          -81.059586,36.431828,11582.4
          -81.107025,36.393997,11582.4
          -81.154747,36.355865,11590.02
          -81.201294,36.318661,11582.4
          -81.249908,36.279785,11582.4
          -81.299004,36.240498,11582.4
          -81.346336,36.202465,11582.4
          -81.392899,36.165024,11582.4
          -81.440773,36.126492,11582.4
          -81.488968,36.087616,11582.4
          -81.536789,36.048981,11582.4
          -81.583481,36.011322,11582.4
          -81.631912,35.972214,11582.4
          -81.680664,35.932663,11582.4
          -81.728584,35.89373,11582.4
          -81.777481,35.853928,11582.4
          -81.825996,35.814453,11582.4
          -81.874619,35.774696,11582.4
          -81.920929,35.735825,11498.58
          -81.970161,35.694534,11338.56
          -82.0158,35.656357,11186.16
          -82.064957,35.61525,11026.14
          -82.116104,35.57222,10858.5
          -82.166405,35.529968,10698.48
          -82.216019,35.48822,10553.7
          -82.266327,35.445759,10386.06
          -82.318336,35.402325,10218.42
          -82.371254,35.360275,10058.4
          -82.424759,35.317291,9898.38
          -82.478943,35.273621,9745.98
          -82.533272,35.229664,9578.34
          -82.587662,35.185577,9425.94
          -82.64299,35.14056,9265.92
          -82.699066,35.092937,9098.28
          -82.755074,35.045609,8938.26
          -82.810852,34.998596,8778.24
          -82.866501,34.951511,8610.6
          -82.921555,34.904434,8450.58
          -82.975533,34.857697,8290.56
          -83.029175,34.811344,8122.92
          -83.081581,34.765915,7970.52
          -83.133095,34.721237,7810.5
          -83.186234,34.675003,7642.86
          -83.238472,34.629501,7475.22
          -83.290939,34.583817,7307.58
          -83.342453,34.538864,7147.56
          -83.394073,34.494045,6979.92
          -83.444191,34.450424,6819.9
          -83.49054,34.410019,6667.5
          -83.539482,34.367203,6446.52
          -83.589478,34.323441,6073.14
          -83.635101,34.283478,5737.86
          -83.682579,34.238892,5364.48
          -83.728378,34.195541,5006.34
          -83.773788,34.152676,4648.2
          -83.818192,34.110733,4320.54
          -83.861389,34.070698,4145.28
          -83.906311,34.034714,3985.26
          -83.9534,33.996773,3817.62
          -83.996643,33.96199,3657.6
          -84.039299,33.927567,3589.02
          -84.058525,33.912048,3589.02
          -84.074722,33.898956,3596.64
          -84.089073,33.887329,3596.64
          -84.103378,33.875736,3596.64
          -84.117439,33.864441,3596.64
          -84.133362,33.851532,3589.02
          -84.14669,33.840729,3596.64
          -84.162712,33.827789,3589.02
          -84.176514,33.816559,3596.64
          -84.189804,33.805801,3596.64
          -84.205887,33.792801,3589.02
          -84.219398,33.781906,3596.64
          -84.233131,33.770737,3596.64
          -84.248596,33.758148,3589.02
          -84.262558,33.747208,3589.02
          -84.270798,33.742264,3589.02
          -84.272804,33.741249,3589.02
          -84.276291,33.739712,3589.02
          -84.279152,33.738602,3589.02
          -84.281731,33.737663,3589.02
          -84.284988,33.736641,3581.4
          -84.288116,33.735764,3573.78
          -84.290924,33.735123,3566.16
          -84.29409,33.734451,3558.54
          -84.297028,33.734024,3543.3
          -84.30027,33.733612,3528.06
          -84.304214,33.733288,3505.2
          -84.306854,33.733196,3497.58
          -84.310165,33.733101,3482.34
          -84.313286,33.733017,3467.1
          -84.316574,33.733009,3451.86
          -84.320183,33.732964,3436.62
          -84.323151,33.732971,3421.38
          -84.326248,33.732964,3398.52
          -84.329041,33.732971,3383.28
          -84.332176,33.732971,3360.42
          -84.335861,33.732964,3337.56
          -84.338959,33.733017,3322.32
          -84.342041,33.733009,3299.46
          -84.364471,33.733101,3108.96
          -84.382896,33.733055,2971.8
          -84.406013,33.733009,2827.02
          -84.424553,33.733063,2697.48
          -84.444397,33.733017,2552.7
          -84.466927,33.733017,2392.68
          -84.486237,33.733055,2270.76
          -84.50827,33.733101,2141.22
          -84.527687,33.733109,1996.44
          -84.551468,33.733055,1821.18
          -84.571747,33.733017,1714.5
          -84.591927,33.733017,1630.68
          -84.614403,33.733017,1600.2
          -84.634132,33.733017,1562.1
          -84.655838,33.733009,1508.76
          -84.665237,33.732971,1485.9
          -84.676567,33.732971,1470.66
          -84.685532,33.732971,1463.04
          -84.697189,33.732925,1463.04
          -84.705391,33.732868,1463.04
          -84.717255,33.732834,1463.04
          -84.728104,33.732777,1463.04
          -84.736862,33.732731,1455.42
          -84.748367,33.732651,1463.04
          -84.757393,33.732651,1463.04
          -84.768677,33.73259,1455.42
          -84.77639,33.732559,1463.04
          -84.787788,33.732544,1463.04
          -84.799973,33.732498,1463.04
          -84.808334,33.732449,1455.42
          -84.819092,33.732449,1455.42
          -84.829422,33.732468,1455.42
          -84.840073,33.732559,1463.04
          -84.850159,33.732605,1463.04
          -84.859772,33.732635,1470.66
          -84.869164,33.732651,1463.04
          -84.879395,33.732635,1455.42
          -84.886719,33.732265,1463.04
          -84.889008,33.731892,1463.04
          -84.891243,33.731415,1463.04
          -84.893486,33.730728,1463.04
          -84.895416,33.729984,1463.04
          -84.897804,33.72876,1463.04
          -84.899429,33.727753,1463.04
          -84.900772,33.726837,1463.04
          -84.902863,33.724957,1463.04
          -84.90406,33.723652,1463.04
          -84.905373,33.721802,1463.04
          -84.905991,33.720657,1463.04
          -84.906937,33.718552,1463.04
          -84.907547,33.716854,1463.04
          -84.907951,33.715271,1463.04
          -84.90834,33.713654,1463.04
          -84.908676,33.71196,1463.04
          -84.909012,33.710175,1463.04
          -84.909241,33.708527,1455.42
          -84.909439,33.706844,1455.42
          -84.909668,33.705265,1455.42
          -84.909836,33.703682,1463.04
          -84.910065,33.702003,1463.04
          -84.910248,33.700516,1463.04
          -84.910416,33.698639,1463.04
          -84.910583,33.697495,1463.04
          -84.910812,33.69516,1463.04
          -84.910973,33.693878,1463.04
          -84.911209,33.691856,1463.04
          -84.911385,33.690319,1463.04
          -84.911926,33.685181,1463.04
          -84.912659,33.678497,1463.04
          -84.912811,33.675144,1455.42
          -84.912659,33.673141,1455.42
          -84.912376,33.671494,1455.42
          -84.911926,33.670029,1455.42
          -84.91127,33.668488,1455.42
          -84.910583,33.667328,1455.42
          -84.90918,33.665497,1463.04
          -84.907951,33.664261,1463.04
          -84.906693,33.663181,1463.04
          -84.904869,33.661789,1463.04
          -84.903412,33.660736,1463.04
          -84.902,33.659687,1463.04
          -84.900452,33.658619,1463.04
          -84.899147,33.657761,1455.42
          -84.897469,33.656708,1455.42
          -84.895844,33.655792,1455.42
          -84.894104,33.654922,1455.42
          -84.89193,33.653961,1455.42
          -84.890099,33.653263,1455.42
          -84.887985,33.652565,1455.42
          -84.8862,33.652039,1463.04
          -84.88446,33.651581,1463.04
          -84.8825,33.651123,1463.04
          -84.880661,33.650749,1463.04
          -84.87825,33.650333,1463.04
          -84.876366,33.650005,1463.04
          -84.874306,33.649727,1463.04
          -84.872017,33.649475,1463.04
          -84.869957,33.649307,1463.04
          -84.868011,33.649166,1463.04
          -84.865891,33.649029,1463.04
          -84.864059,33.648972,1463.04
          -84.861534,33.64888,1463.04
          -84.85952,33.648834,1463.04
          -84.857368,33.64875,1463.04
          -84.855263,33.648697,1463.04
          -84.853195,33.648701,1455.42
          -84.851242,33.648655,1463.04
          -84.849182,33.648655,1463.04
          -84.847015,33.648655,1463.04
          -84.845009,33.648655,1463.04
          -84.84304,33.648651,1463.04
          -84.84153,33.648651,1463.04
          -84.839111,33.648701,1463.04
          -84.832947,33.648697,1463.04
          -84.824867,33.64875,1463.04
          -84.818916,33.648796,1463.04
          -84.810699,33.648834,1463.04
          -84.80455,33.648888,1463.04
          -84.796852,33.648972,1463.04
          -84.789276,33.649029,1463.04
          -84.781158,33.649109,1463.04
          -84.774994,33.649155,1463.04
          -84.766678,33.649216,1463.04
          -84.75872,33.649261,1463.04
          -84.75106,33.649246,1463.04
          -84.744949,33.649292,1463.04
          -84.736877,33.649292,1463.04
          -84.730881,33.649292,1463.04
          -84.722916,33.649292,1463.04
          -84.715057,33.649307,1463.04
          -84.706779,33.649292,1463.04
          -84.700943,33.649292,1463.04
          -84.693375,33.649307,1463.04
          -84.685478,33.649292,1470.66
          -84.677574,33.649246,1455.42
          -84.671692,33.649216,1424.94
          -84.66317,33.649246,1379.22
          -84.65554,33.649292,1341.12
          -84.649719,33.649307,1310.64
          -84.641586,33.649338,1272.54
          -84.633797,33.649384,1234.44
          -84.628082,33.649399,1203.96
          -84.620232,33.649429,1165.86
          -84.612808,33.649448,1120.14
          -84.605263,33.649475,1082.04
          -84.599648,33.649494,1059.18
          -84.59198,33.649475,1021.08
          -84.584747,33.649475,982.98
          -84.577629,33.649475,952.5
          -84.570755,33.649494,914.4
          -84.563599,33.649494,876.3
          -84.558792,33.649494,853.44
          -84.552322,33.649494,822.96
          -84.546127,33.649475,784.86
          -84.541924,33.649475,762
          -84.536209,33.649475,739.14
          -84.53064,33.649494,708.66
          -84.525162,33.649521,685.8
          -84.519058,33.649567,647.7
          -84.513168,33.649567,624.84
          -84.507179,33.64954,594.36
          -84.501228,33.649521,563.88
          -84.495049,33.64954,533.4
          -84.489609,33.64954,510.54
          -84.483604,33.649586,472.44
          -84.477409,33.649567,441.96
          -84.47287,33.649612,426.72
          -84.467468,33.64954,396.24
          -84.464462,33.649521,373.38
          -84.462891,33.64954,365.76
          -84.461487,33.649521,358.14
          -84.460533,33.649521,358.14
          -84.458687,33.649521,350.52
          -84.45768,33.649521,342.9
          -84.455887,33.649521,335.28
          -84.449844,33.64954,312.42
          -84.444008,33.64954,274.32
          -84.437943,33.64954,236.22
          -84.432228,33.649567,228.6
          -84.426826,33.649559,0
          -84.423531,33.649559,0
          -84.42231,33.649529,0
          -84.421753,33.64954,0
          -84.421501,33.649551,0
          -84.421021,33.649559,0
          -84.420593,33.649559,0
          -84.420189,33.649559,0
          -84.419777,33.649551,0
          -84.419258,33.649529,0
          -84.418961,33.649521,0
          -84.418678,33.649502,0
          -84.418457,33.649502,0
          -84.418243,33.649479,0
          -84.41803,33.649429,0
          -84.417732,33.649361,0
          -84.41748,33.649288,0
          -84.417099,33.649189,0
          -84.416832,33.64909,0
          -84.416321,33.648849,0
          -84.416092,33.64867,0
          -84.415947,33.64843,0
          -84.415962,33.64819,0
          -84.416168,33.648003,0
          -84.416748,33.6479,0
          -84.416992,33.6479,0
          -84.416458,33.647934,0
          -84.417336,33.647907,0
          -84.417656,33.647907,0
          -84.418419,33.6479,0
          -84.41864,33.6479,0
          -84.418961,33.6479,0
          -84.41925,33.6479,0
          -84.419579,33.6479,0
          -84.419952,33.6479,0
          -84.420311,33.6479,0
          -84.420563,33.6479,0
          -84.420837,33.6479,0
          -84.421059,33.6479,0
          -84.421333,33.6479,0
          -84.42157,33.6479,0
          -84.421791,33.6479,0
          -84.422043,33.6479,0
          -84.422256,33.647732,0
          -84.422379,33.647442,0
          -84.422363,33.647179,0
          -84.422409,33.64695,0
          -84.422401,33.646721,0
          -84.422401,33.646431,0
          -84.422401,33.646229,0
          -84.422401,33.646,0
          -84.422394,33.645779,0
          -84.422379,33.64547,0
          -84.42234,33.645161,0
          -84.422424,33.644886,0
          -84.422646,33.644749,0
          -84.422951,33.644703,0
          -84.42321,33.644699,0
          -84.423454,33.644699,0
          -84.423706,33.644703,0
          -84.423965,33.644699,0
          -84.424194,33.644699,0
          -84.424454,33.644699,0
          -84.424866,33.644699,0
          -84.425293,33.644691,0
          -84.425545,33.644691,0
          -84.426224,33.644699,0
          -84.426987,33.64468,0
          -84.427193,33.64463,0
          -84.427338,33.644409,0
          -84.42733,33.644169,0
          -84.427338,33.643921,0
          -84.427338,33.643719,0
          -84.427338,33.643478,0
          -84.427338,33.64323,0
          -84.427338,33.643021,0
          -84.427338,33.642761,0
          -84.427338,33.642529,0
          -84.427353,33.642319,0
          -84.427338,33.642029,0
          -84.427345,33.641335,0
          -84.427338,33.640926,0
          -84.42733,33.640614,0
          -84.426834,33.640045,0
          -84.426193,33.640057,0
        </coordinates>
      </LineString>
    </Placemark>
  </Document>
</kml>