<?xml version='1.0' encoding='utf-8'?>
<kml xmlns="http://www.opengis.net/kml/2.2">
  <Document>
    <Placemark>
      <name>DL380-2023-07-07</name>
      <TimeStamp>
        <when>2023-07-07</when>
      </TimeStamp>
      <LineString>
        <altitudeMode>absolute</altitudeMode>
        <coordinates>
          -77.039902,38.852787,0
          -77.03994,38.853115,0
          -77.039673,38.853394,0
          -77.039413,38.853615,0
          -77.039398,38.853825,0
          -77.039413,38.854042,0
          -77.039429,38.854259,0
          -77.039459,38.854477,0
          -77.039474,38.854683,0
          -77.039505,38.854931,0
          -77.03952,38.855164,0
          -77.039551,38.855373,0
          -77.039581,38.855598,0
          -77.039597,38.855804,0
          -77.039627,38.85601,0
          -77.039642,38.85622,0
          -77.039673,38.856514,0
          -77.039703,38.856827,0
          -77.039742,38.857269,0
          -77.039787,38.857727,0
          -77.039833,38.858139,0
          -77.039886,38.858608,0
          -77.039894,38.858997,0
          -77.039886,38.859211,0
          -77.039955,38.859421,0
          -77.039955,38.859673,0
          -77.039894,38.85989,0
          -77.039803,38.86013,0
          -77.039734,38.860348,0
          -77.039551,38.860748,0
          -77.039307,38.860981,0
          -77.039078,38.861076,0
          -77.038849,38.86108,0
          -77.038712,38.860863,0
          -77.038681,38.860622,0
          -77.038651,38.860413,0
          -77.038612,38.860107,0
          -77.038589,38.85984,0
          -77.038559,38.859619,0
          -77.038544,38.859364,0
          -77.038521,38.859112,0
          -77.038483,38.858772,0
          -77.038208,38.856102,0
          -77.037682,38.850906,38.1
          -77.037048,38.844536,45.72
          -77.03643,38.83754,137.16
          -77.036011,38.833145,243.84
          -77.035713,38.825638,342.9
          -77.035706,38.82019,441.96
          -77.035713,38.816711,464.82
          -77.035767,38.811764,510.54
          -77.035767,38.806458,541.02
          -77.035774,38.799271,594.36
          -77.035599,38.790573,640.08
          -77.035774,38.78421,693.42
          -77.036011,38.782391,701.04
          -77.036621,38.779457,716.28
          -77.036911,38.778488,723.9
          -77.03804,38.775375,739.14
          -77.038757,38.77364,762
          -77.04187,38.768379,769.62
          -77.043121,38.766586,784.86
          -77.046448,38.762886,800.1
          -77.048668,38.760818,822.96
          -77.051758,38.758324,838.2
          -77.052795,38.757576,853.44
          -77.058701,38.753998,868.68
          -77.062523,38.752167,891.54
          -77.066109,38.750793,914.4
          -77.070168,38.749466,944.88
          -77.073608,38.748592,975.36
          -77.079041,38.74757,998.22
          -77.083191,38.747009,1021.08
          -77.086166,38.746719,1036.32
          -77.091675,38.746311,1066.8
          -77.097214,38.745941,1089.66
          -77.100342,38.745754,1112.52
          -77.107841,38.745255,1158.24
          -77.112366,38.744961,1203.96
          -77.11731,38.744682,1249.68
          -77.121399,38.74445,1295.4
          -77.136414,38.743565,1432.56
          -77.150055,38.742783,1562.1
          -77.174599,38.741409,1775.46
          -77.196106,38.740215,1958.34
          -77.222122,38.738708,2179.32
          -77.243324,38.739075,2354.58
          -77.248337,38.739853,2392.68
          -77.253357,38.740864,2430.78
          -77.258011,38.74205,2461.26
          -77.262306,38.743423,2499.36
          -77.266907,38.745117,2537.46
          -77.271446,38.747086,2567.94
          -77.275681,38.749146,2613.66
          -77.279907,38.751293,2659.38
          -77.283691,38.753155,2697.48
          -77.288223,38.755371,2743.2
          -77.292419,38.757393,2781.3
          -77.2967,38.759445,2827.02
          -77.301025,38.76149,2865.12
          -77.322144,38.771542,3055.62
          -77.343384,38.781693,3253.74
          -77.365601,38.792305,3451.86
          -77.387207,38.802689,3619.5
          -77.409546,38.813301,3771.9
          -77.459656,38.837322,4152.9
          -77.510925,38.8619,4587.24
          -77.561867,38.886292,4922.52
          -77.614563,38.911339,5212.08
          -77.665398,38.933441,5204.46
          -77.672424,38.935547,5204.46
          -77.676506,38.936646,5212.08
          -77.684151,38.938477,5212.08
          -77.691727,38.940079,5204.46
          -77.696327,38.940903,5204.46
          -77.704033,38.942047,5204.46
          -77.709778,38.942764,5204.46
          -77.715195,38.943283,5204.46
          -77.72113,38.943741,5204.46
          -77.726074,38.944019,5204.46
          -77.732544,38.944252,5204.46
          -77.738281,38.944485,5204.46
          -77.743958,38.944672,5204.46
          -77.805115,38.947083,5212.08
          -77.869659,38.950287,5212.08
          -77.87545,38.951385,5212.08
          -77.881226,38.952679,5212.08
          -77.886559,38.954041,5212.08
          -77.891632,38.955414,5212.08
          -77.897095,38.956963,5212.08
          -77.90271,38.958542,5212.08
          -77.908081,38.960033,5212.08
          -77.913544,38.961594,5212.08
          -77.91925,38.9632,5212.08
          -77.981972,38.980865,5273.04
          -78.047112,38.999084,5676.9
          -78.100525,39.011242,5935.98
          -78.109032,39.012314,5958.84
          -78.115181,39.013,5989.32
          -78.12146,39.013569,6019.8
          -78.128113,39.014126,6050.28
          -78.131531,39.014359,6073.14
          -78.137756,39.014687,6111.24
          -78.141754,39.014877,6134.1
          -78.152832,39.015106,6164.58
          -78.159187,39.015198,6195.06
          -78.227432,39.016022,6484.62
          -78.30011,39.016872,6835.14
          -78.372047,39.017395,7162.8
          -78.445557,39.017853,7421.88
          -78.519112,39.018173,7658.1
          -78.594666,39.018501,7863.84
          -78.671387,39.018784,8061.96
          -78.743896,39.019062,8237.22
          -78.824875,39.01918,8290.56
          -78.907593,39.019199,8343.9
          -78.989609,39.019226,8389.62
          -79.077698,39.019295,8534.4
          -79.165588,39.019573,8534.4
          -79.243896,39.024044,8534.4
          -79.326355,39.02935,8534.4
          -79.409058,39.034744,8534.4
          -79.496834,39.040329,8534.4
          -79.58374,39.045784,8534.4
          -79.665985,39.050995,8542.02
          -79.745178,39.056072,8534.4
          -79.829346,39.06134,8534.4
          -79.915146,39.066513,8534.4
          -79.997681,39.071339,8534.4
          -80.08609,39.076447,8534.4
          -80.162903,39.080837,8534.4
          -80.253662,39.086002,8534.4
          -80.335312,39.090637,8534.4
          -80.422134,39.095261,8534.4
          -80.50853,39.09993,8534.4
          -80.588501,39.104065,8534.4
          -80.676514,39.108627,8534.4
          -80.763306,39.113144,8534.4
          -80.845337,39.117474,8534.4
          -80.93689,39.122036,8534.4
          -81.024292,39.126251,8534.4
          -81.111877,39.130413,8534.4
          -81.19812,39.136326,8534.4
          -81.285828,39.142891,8572.5
          -81.373764,39.149048,8694.42
          -81.465027,39.155228,8900.16
          -81.553833,39.161186,9075.42
          -81.644661,39.167084,9235.44
          -81.731934,39.172684,9456.42
          -81.823853,39.178501,9745.98
          -81.909348,39.183884,10248.9
          -81.990128,39.189102,10363.2
          -82.071228,39.194237,10363.2
          -82.15242,39.199173,10363.2
          -82.228424,39.203705,10363.2
          -82.309326,39.208576,10462.26
          -82.390114,39.213364,10576.56
          -82.471977,39.218262,10690.86
          -82.555298,39.223286,10789.92
          -82.633728,39.227646,10873.74
          -82.709595,39.231804,10942.32
          -82.7948,39.236599,10972.8
          -82.874817,39.24107,10972.8
          -82.954285,39.245399,10972.8
          -83.035507,39.249664,10972.8
          -83.117302,39.254013,10972.8
          -83.202209,39.258389,10972.8
          -83.286865,39.26281,10972.8
          -83.368103,39.266953,10972.8
          -83.452759,39.271236,10972.8
          -83.53186,39.275116,10972.8
          -83.614563,39.279148,10972.8
          -83.696655,39.283035,10972.8
          -83.786377,39.287434,10972.8
          -83.867676,39.291161,10972.8
          -83.949219,39.294838,10972.8
          -84.029823,39.298599,10972.8
          -84.114311,39.302261,10972.8
          -84.192772,39.30574,10972.8
          -84.276482,39.309448,10972.8
          -84.359299,39.312927,10972.8
          -84.444916,39.316406,10972.8
          -84.520935,39.319511,10972.8
          -84.606606,39.322998,10972.8
          -84.689545,39.326294,10972.8
          -84.774803,39.32959,10972.8
          -84.852013,39.332474,10972.8
          -84.938782,39.335758,10972.8
          -85.020264,39.338875,10972.8
          -85.098427,39.341629,10972.8
          -85.177856,39.344368,10972.8
          -85.264412,39.347351,10972.8
          -85.348724,39.350235,10965.18
          -85.428436,39.35289,10972.8
          -85.513123,39.355541,10972.8
          -85.594246,39.3582,10972.8
          -85.675842,39.360802,10972.8
          -85.756653,39.363281,10972.8
          -85.839584,39.365662,10972.8
          -85.912659,39.367737,10972.8
          -85.992973,39.370056,10972.8
          -86.067566,39.372066,10972.8
          -86.147766,39.374115,10972.8
          -86.225952,39.37579,10972.8
          -86.303101,39.374039,10972.8
          -86.384888,39.371929,10972.8
          -86.464729,39.370331,10972.8
          -86.545654,39.3689,10972.8
          -86.62616,39.367691,10972.8
          -86.700256,39.366436,10972.8
          -86.774475,39.364899,10972.8
          -86.857071,39.36319,10972.8
          -86.937622,39.36145,10972.8
          -87.018524,39.359665,10972.8
          -87.094292,39.357925,10972.8
          -87.175232,39.356148,10972.8
          -87.250671,39.354282,10972.8
          -87.332054,39.352112,10972.8
          -87.415291,39.350006,10972.8
          -87.485924,39.348175,10972.8
          -87.565514,39.345932,10972.8
          -87.646477,39.343689,10972.8
          -87.727142,39.341354,10972.8
          -87.806259,39.339157,10972.8
          -87.882996,39.336922,10972.8
          -87.961609,39.334408,10972.8
          -88.040794,39.33197,10972.8
          -88.116684,39.32959,10972.8
          -88.189827,39.327255,10972.8
          -88.262817,39.324818,10972.8
          -88.329239,39.32254,10972.8
          -88.403702,39.320068,10972.8
          -88.479172,39.317413,10972.8
          -88.554047,39.314667,10972.8
          -88.628975,39.312012,10972.8
          -88.703194,39.309265,10972.8
          -88.777649,39.306473,10972.8
          -88.853516,39.303589,10972.8
          -88.929253,39.300659,10972.8
          -89.004395,39.297771,10972.8
          -89.075256,39.29493,10972.8
          -89.149635,39.29187,10972.8
          -89.225105,39.288757,10972.8
          -89.297607,39.285713,10972.8
          -89.375854,39.28236,10972.8
          -89.446594,39.279335,10972.8
          -89.524307,39.275894,10972.8
          -89.599976,39.272446,10972.8
          -89.671608,39.269211,10972.8
          -89.747139,39.265823,10972.8
          -89.820557,39.262299,10972.8
          -89.892403,39.259003,10972.8
          -89.968933,39.255405,10972.8
          -90.044678,39.251728,10972.8
          -90.122704,39.247787,10972.8
          -90.191063,39.244354,10972.8
          -90.265938,39.240646,10972.8
          -90.337471,39.237167,10972.8
          -90.411095,39.233322,10972.8
          -90.488342,39.229198,10972.8
          -90.561615,39.225357,10972.8
          -90.63607,39.221375,10972.8
          -90.710945,39.217255,10972.8
          -90.779251,39.213547,10972.8
          -90.854065,39.20932,10972.8
          -90.928169,39.205215,10972.8
          -91.003098,39.201004,10972.8
          -91.078735,39.196705,10972.8
          -91.154602,39.192234,10972.8
          -91.230888,39.187729,10972.8
          -91.306297,39.183289,10972.8
          -91.382996,39.178596,10972.8
          -91.459045,39.17408,10972.8
          -91.534683,39.16951,10972.8
          -91.610657,39.164909,10972.8
          -91.686577,39.159988,10972.8
          -91.761963,39.155182,10972.8
          -91.838257,39.150291,10972.8
          -91.911133,39.145638,10972.8
          -91.988045,39.140488,10972.8
          -92.059265,39.135769,10972.8
          -92.135376,39.130741,10972.8
          -92.211304,39.125713,10972.8
          -92.280502,39.121078,10972.8
          -92.36039,39.115585,10972.8
          -92.43988,39.110073,10972.8
          -92.516106,39.104736,10972.8
          -92.593445,39.09927,10972.8
          -92.67141,39.093704,10972.8
          -92.739235,39.088806,10972.8
          -92.817574,39.083176,10972.8
          -92.888977,39.07795,10972.8
          -92.967087,39.072235,10972.8
          -93.044922,39.06636,10972.8
          -93.123642,39.060379,10972.8
          -93.201202,39.054611,10972.8
          -93.27375,39.049255,10972.8
          -93.351067,39.043213,10972.8
          -93.429344,39.037079,10972.8
          -93.509239,39.030716,10972.8
          -93.588318,39.024323,10972.8
          -93.667885,39.017944,10972.8
          -93.746277,39.011707,10972.8
          -93.825096,39.005447,10972.8
          -93.90403,38.998901,10972.8
          -93.978958,38.99263,10972.8
          -94.052612,38.986568,10972.8
          -94.13147,38.979912,10972.8
          -94.209656,38.973347,10972.8
          -94.291054,38.9664,10972.8
          -94.367981,38.959755,10972.8
          -94.442749,38.953331,10972.8
          -94.523804,38.946209,10972.8
          -94.606377,38.938889,10972.8
          -94.685791,38.931747,10972.8
          -94.76162,38.924973,10972.8
          -94.835266,38.918369,10972.8
          -94.917297,38.910969,10972.8
          -94.994995,38.903938,10972.8
          -95.068909,38.896954,10972.8
          -95.149422,38.88945,10972.8
          -95.223282,38.882584,10972.8
          -95.29541,38.875854,10980.42
          -95.371834,38.868668,10972.8
          -95.45459,38.860783,10972.8
          -95.529709,38.853424,10972.8
          -95.609894,38.845642,10972.8
          -95.680908,38.838718,10972.8
          -95.760063,38.830948,10972.8
          -95.838013,38.82317,10972.8
          -95.914673,38.815536,10972.8
          -95.991882,38.807949,10972.8
          -96.061348,38.800919,10972.8
          -96.13678,38.793144,10988.04
          -96.21199,38.7854,11132.82
          -96.287048,38.777641,11308.08
          -96.359291,38.770157,11452.86
          -96.428078,38.763016,11590.02
          -96.502808,38.755203,11582.4
          -96.576294,38.747524,11582.4
          -96.648804,38.739796,11582.4
          -96.722412,38.731926,11582.4
          -96.789131,38.724701,11582.4
          -96.862633,38.716827,11582.4
          -96.930641,38.709366,11582.4
          -97.00235,38.701538,11582.4
          -97.073288,38.69371,11582.4
          -97.146667,38.685654,11582.4
          -97.213837,38.678192,11582.4
          -97.285484,38.67009,11582.4
          -97.356445,38.662098,11582.4
          -97.426582,38.654251,11582.4
          -97.496315,38.646423,11582.4
          -97.561157,38.639008,11582.4
          -97.631676,38.630859,11582.4
          -97.702576,38.622623,11582.4
          -97.773132,38.614384,11582.4
          -97.844116,38.606094,11582.4
          -97.911949,38.598083,11582.4
          -97.982521,38.589752,11582.4
          -98.054588,38.581192,11582.4
          -98.125107,38.572769,11582.4
          -98.195679,38.564346,11582.4
          -98.264702,38.556061,11582.4
          -98.335876,38.547455,11582.4
          -98.40802,38.538597,11582.4
          -98.474304,38.530449,11582.4
          -98.545532,38.521652,11582.4
          -98.617699,38.512665,11582.4
          -98.687798,38.504059,11582.4
          -98.755676,38.495583,11582.4
          -98.82843,38.486412,11582.4
          -98.900955,38.477234,11582.4
          -98.973618,38.467987,11582.4
          -99.04557,38.458832,11582.4
          -99.119202,38.449493,11582.4
          -99.191139,38.440201,11582.4
          -99.263084,38.430817,11582.4
          -99.336052,38.421249,11582.4
          -99.401611,38.412735,11582.4
          -99.473618,38.403267,11582.4
          -99.546356,38.393646,11582.4
          -99.619247,38.383904,11582.4
          -99.692863,38.374054,11582.4
          -99.766129,38.364304,11582.4
          -99.839394,38.354435,11582.4
          -99.912354,38.344566,11582.4
          -99.983124,38.334961,11582.4
          -100.052551,38.325439,11582.4
          -100.126472,38.315323,11582.4
          -100.200569,38.305115,11582.4
          -100.275085,38.294708,11582.4
          -100.346199,38.28484,11582.4
          -100.405724,38.273575,11582.4
          -100.412003,38.271469,11582.4
          -100.418983,38.269058,11582.4
          -100.425209,38.266846,11582.4
          -100.431168,38.264694,11582.4
          -100.437775,38.262314,11582.4
          -100.44455,38.259842,11582.4
          -100.45092,38.257553,11582.4
          -100.519234,38.232513,11582.4
          -100.58754,38.207561,11582.4
          -100.656914,38.182617,11582.4
          -100.720924,38.159801,11582.4
          -100.79216,38.134521,11582.4
          -100.859863,38.110687,11582.4
          -100.930977,38.085644,11582.4
          -101.001114,38.060989,11582.4
          -101.072586,38.03595,11582.4
          -101.138939,38.012741,11582.4
          -101.209038,37.9883,11582.4
          -101.277878,37.96431,11582.4
          -101.345894,37.940632,11582.4
          -101.41217,37.91787,11582.4
          -101.484802,37.893402,11582.4
          -101.557327,37.869186,11582.4
          -101.630318,37.845016,11582.4
          -101.696114,37.822449,11582.4
          -101.771133,37.794086,11582.4
          -101.843964,37.767242,11582.4
          -101.908943,37.743019,11582.4
          -101.982872,37.715469,11582.4
          -102.055405,37.686783,11590.02
          -102.118217,37.660061,11582.4
          -102.19297,37.623985,11582.4
          -102.262474,37.589069,11582.4
          -102.329758,37.553146,11582.4
          -102.39077,37.519547,11582.4
          -102.459389,37.481583,11582.4
          -102.523697,37.446388,11582.4
          -102.592125,37.4091,11582.4
          -102.659058,37.372555,11582.4
          -102.725632,37.336384,11582.4
          -102.792862,37.300491,11582.4
          -102.855873,37.269516,11582.4
          -102.927811,37.243195,11582.4
          -103.000336,37.217651,11582.4
          -103.072273,37.193893,11582.4
          -103.13784,37.172882,11582.4
          -103.210938,37.151943,11582.4
          -103.256699,37.142761,11582.4
          -103.265579,37.141663,11582.4
          -103.272324,37.140957,11582.4
          -103.276917,37.140537,11582.4
          -103.285919,37.139786,11582.4
          -103.292923,37.139191,11582.4
          -103.367851,37.132782,11582.4
          -103.444229,37.126053,11582.4
          -103.519814,37.119125,11582.4
          -103.59343,37.112423,11582.4
          -103.6661,37.105717,11582.4
          -103.744308,37.09845,11582.4
          -103.814255,37.092041,11582.4
          -103.891075,37.085003,11582.4
          -103.965843,37.077942,11582.4
          -104.043274,37.070709,11582.4
          -104.111046,37.064285,11582.4
          -104.189255,37.056793,11582.4
          -104.260315,37.04995,11582.4
          -104.333473,37.042877,11582.4
          -104.411842,37.035187,11582.4
          -104.483025,37.02821,11582.4
          -104.556007,37.021042,11582.4
          -104.632973,37.013489,11582.4
          -104.709023,37.005817,11582.4
          -104.787712,36.997925,11582.4
          -104.864983,36.990036,11582.4
          -104.935211,36.982819,11582.4
          -105.013474,36.974766,11582.4
          -105.084709,36.967457,11582.4
          -105.161972,36.959358,11582.4
          -105.237915,36.951397,11582.4
          -105.318344,36.94302,11582.4
          -105.399193,36.934406,11582.4
          -105.475494,36.926258,11582.4
          -105.551086,36.918137,11582.4
          -105.630142,36.9095,11582.4
          -105.706825,36.901245,11582.4
          -105.785072,36.892731,11582.4
          -105.862045,36.884315,11590.02
          -105.937523,36.875984,11582.4
          -106.010124,36.867836,11582.4
          -106.084335,36.859497,11582.4
          -106.162178,36.850662,11582.4
          -106.233757,36.84251,11582.4
          -106.310547,36.833805,11582.4
          -106.387825,36.825027,11582.4
          -106.464706,36.816116,11582.4
          -106.543015,36.807037,11582.4
          -106.619858,36.7981,11582.4
          -106.691376,36.78978,11582.4
          -106.767822,36.780716,11582.4
          -106.844437,36.771614,11582.4
          -106.923691,36.762085,11582.4
          -106.999802,36.752884,11582.4
          -107.072296,36.744186,11582.4
          -107.149948,36.734802,11582.4
          -107.224106,36.725739,11582.4
          -107.304901,36.715759,11582.4
          -107.374992,36.707108,11582.4
          -107.451897,36.697548,11582.4
          -107.529152,36.687958,11582.4
          -107.606529,36.678135,11582.4
          -107.676239,36.669292,11582.4
          -107.752533,36.659775,11582.4
          -107.829437,36.649979,11582.4
          -107.906456,36.640137,11582.4
          -107.983215,36.63028,11582.4
          -108.059944,36.620365,11582.4
          -108.127838,36.611526,11582.4
          -108.207558,36.601139,11582.4
          -108.284698,36.591084,11582.4
          -108.360901,36.581039,11582.4
          -108.436691,36.570881,11582.4
          -108.516373,36.560257,11582.4
          -108.592819,36.550003,11582.4
          -108.667206,36.539978,11582.4
          -108.743423,36.529633,11582.4
          -108.815346,36.519882,11582.4
          -108.888702,36.509903,11582.4
          -108.964577,36.49942,11582.4
          -109.036674,36.48946,11582.4
          -109.113113,36.478848,11582.4
          -109.182587,36.469162,11582.4
          -109.256119,36.458862,11582.4
          -109.332108,36.448196,11582.4
          -109.407974,36.437531,11582.4
          -109.479813,36.427311,11582.4
          -109.558014,36.416107,11582.4
          -109.635605,36.404984,11582.4
          -109.713303,36.39386,11582.4
          -109.782578,36.383831,11582.4
          -109.86145,36.372437,11582.4
          -109.939369,36.361023,11582.4
          -110.016502,36.349617,11582.4
          -110.094162,36.338196,11582.4
          -110.163177,36.327988,11582.4
          -110.240501,36.316517,11582.4
          -110.316055,36.305252,11582.4
          -110.393784,36.293522,11582.4
          -110.470161,36.281929,11582.4
          -110.547821,36.270199,11582.4
          -110.624023,36.258682,11582.4
          -110.700699,36.246964,11582.4
          -110.778008,36.235146,11582.4
          -110.856628,36.222885,11582.4
          -110.933762,36.210938,11582.4
          -111.004425,36.199997,11582.4
          -111.08242,36.187775,11582.4
          -111.159607,36.175606,11582.4
          -111.231606,36.1642,11582.4
          -111.3022,36.153076,11582.4
          -111.383896,36.140133,11582.4
          -111.461617,36.127701,11582.4
          -111.531601,36.116547,11582.4
          -111.60923,36.104099,11582.4
          -111.685577,36.091644,11582.4
          -111.763687,36.078964,11574.78
          -111.83287,36.064251,11590.02
          -111.846481,36.060059,11582.4
          -111.918579,36.03717,11582.4
          -111.993141,36.013367,11582.4
          -112.061401,35.991486,11582.4
          -112.135582,35.967655,11582.4
          -112.209091,35.94397,11582.4
          -112.277412,35.92194,11582.4
          -112.352501,35.897686,11582.4
          -112.425026,35.87418,11582.4
          -112.494507,35.851601,11582.4
          -112.565399,35.828476,11582.4
          -112.636353,35.805313,11582.4
          -112.711372,35.780685,11582.4
          -112.784729,35.756424,11582.4
          -112.858772,35.732025,11582.4
          -112.934601,35.707104,11582.4
          -113.005722,35.683594,11582.4
          -113.076843,35.660038,11582.4
          -113.147339,35.636627,11582.4
          -113.221298,35.61195,11582.4
          -113.295456,35.587231,11582.4
          -113.368378,35.562698,11582.4
          -113.440079,35.53862,11582.4
          -113.51355,35.513992,11582.4
          -113.587296,35.489193,11582.4
          -113.660431,35.464417,11582.4
          -113.734421,35.439285,11582.4
          -113.799133,35.417313,11582.4
          -113.875923,35.391357,11582.4
          -113.950134,35.365906,11582.4
          -114.023651,35.340549,11582.4
          -114.098625,35.314865,11582.4
          -114.172256,35.289669,11582.4
          -114.247856,35.263641,11582.4
          -114.321625,35.238091,11582.4
          -114.390152,35.214432,11582.4
          -114.464783,35.188511,11582.4
          -114.533157,35.164722,11582.4
          -114.610748,35.13763,11582.4
          -114.685654,35.111561,11582.4
          -114.757187,35.086807,11582.4
          -114.833107,35.060307,11582.4
          -114.906792,35.034027,11582.4
          -114.978317,35.003357,11582.4
          -115.047623,34.973301,11582.4
          -115.113602,34.944672,11582.4
          -115.183701,34.914227,11582.4
          -115.25631,34.884991,11582.4
          -115.262665,34.883453,11582.4
          -115.26976,34.882011,11582.4
          -115.27713,34.880814,11582.4
          -115.284805,34.879963,11582.4
          -115.291672,34.879402,11582.4
          -115.298538,34.879124,11582.4
          -115.306335,34.87912,11582.4
          -115.313812,34.879452,11582.4
          -115.321487,34.8801,11582.4
          -115.328926,34.881042,11582.4
          -115.335907,34.882149,11582.4
          -115.343498,34.883743,11582.4
          -115.348488,34.884933,11582.4
          -115.357788,34.887314,11582.4
          -115.358971,34.887634,11582.4
          -115.362396,34.888577,11582.4
          -115.370697,34.890854,11582.4
          -115.374237,34.89188,11582.4
          -115.382538,34.894161,11582.4
          -115.389862,34.896255,11582.4
          -115.397758,34.898483,11582.4
          -115.46843,34.918507,11582.4
          -115.550598,34.939594,11590.02
          -115.557518,34.940155,11590.02
          -115.565132,34.940277,11590.02
          -115.572906,34.939968,11590.02
          -115.580292,34.939224,11590.02
          -115.586769,34.938263,11582.4
          -115.594223,34.936707,11582.4
          -115.601921,34.934662,11582.4
          -115.608742,34.932495,11582.4
          -115.614456,34.930435,11582.4
          -115.622414,34.927048,11582.4
          -115.628807,34.923935,11582.4
          -115.635109,34.920464,11582.4
          -115.641251,34.916794,11582.4
          -115.646324,34.91362,11582.4
          -115.652519,34.909653,11582.4
          -115.658173,34.906078,11582.4
          -115.664917,34.90189,11582.4
          -115.671013,34.898117,11582.4
          -115.67701,34.894455,11582.4
          -115.743599,34.854683,11582.4
          -115.809975,34.81535,11582.4
          -115.86927,34.780197,11582.4
          -115.933678,34.742065,11582.4
          -115.994827,34.705765,11582.4
          -116.059853,34.667038,11582.4
          -116.124313,34.628677,11399.52
          -116.18956,34.58963,10988.04
          -116.255867,34.54985,10530.84
          -116.317291,34.512993,10187.94
          -116.381424,34.474319,9814.56
          -116.446152,34.435528,9448.8
          -116.513672,34.402058,9098.28
          -116.582825,34.373428,8488.68
          -116.656982,34.342804,7985.76
          -116.727051,34.314304,7627.62
          -116.790787,34.288841,7315.2
          -116.856133,34.262787,6995.16
          -116.917709,34.237637,6675.12
          -116.976181,34.213848,6377.94
          -117.042328,34.194992,6057.9
          -117.106857,34.177597,5692.14
          -117.171082,34.159985,5349.24
          -117.233795,34.142807,5021.58
          -117.296219,34.125816,4678.68
          -117.357269,34.109013,4366.26
          -117.416161,34.093506,4076.7
          -117.467422,34.080708,3909.06
          -117.51886,34.066044,3672.84
          -117.567223,34.048645,3436.62
          -117.589355,34.040718,3314.7
          -117.610657,34.033035,3215.64
          -117.631348,34.025391,3162.3
          -117.651611,34.018234,3147.06
          -117.672989,34.010834,3101.34
          -117.690353,34.006783,3063.24
          -117.694183,34.00613,3040.38
          -117.698593,34.005432,3025.14
          -117.702484,34.004967,3002.28
          -117.707581,34.00436,2987.04
          -117.712494,34.003849,2971.8
          -117.716881,34.003326,2948.94
          -117.720963,34.002918,2933.7
          -117.743614,34.000626,2842.26
          -117.765656,33.998589,2758.44
          -117.787231,33.996586,2674.62
          -117.808167,33.994587,2590.8
          -117.827866,33.992661,2506.98
          -117.850685,33.990677,2423.16
          -117.869347,33.989044,2354.58
          -117.890984,33.98703,2270.76
          -117.912659,33.98481,2186.94
          -117.932236,33.982773,2103.12
          -117.955231,33.980389,2019.3
          -117.976067,33.978241,1935.48
          -117.996582,33.976227,1866.9
          -118.014793,33.97443,1790.7
          -118.036133,33.972382,1699.26
          -118.054504,33.970566,1630.68
          -118.075905,33.968472,1539.24
          -118.096046,33.966469,1447.8
          -118.107262,33.965351,1402.08
          -118.121399,33.96386,1341.12
          -118.133186,33.962677,1287.78
          -118.144913,33.961533,1234.44
          -118.156471,33.960464,1181.1
          -118.167633,33.959297,1120.14
          -118.178619,33.958134,1059.18
          -118.18869,33.957066,998.22
          -118.200012,33.955853,944.88
          -118.210663,33.954784,906.78
          -118.22084,33.953804,853.44
          -118.230324,33.952881,800.1
          -118.240974,33.951828,731.52
          -118.250259,33.950966,670.56
          -118.260315,33.950043,647.7
          -118.26844,33.949219,624.84
          -118.277725,33.948265,594.36
          -118.285332,33.94743,556.26
          -118.292885,33.946636,510.54
          -118.301239,33.945797,464.82
          -118.309311,33.944962,426.72
          -118.316925,33.944138,388.62
          -118.324356,33.943378,350.52
          -118.331566,33.942585,320.04
          -118.339066,33.941841,281.94
          -118.3461,33.941097,251.46
          -118.353485,33.940399,213.36
          -118.360756,33.939651,175.26
          -118.36821,33.938873,137.16
          -118.375229,33.938164,106.68
          -118.381744,33.937466,76.2
          -118.38974,33.93663,53.34
          -118.394737,33.936161,38.1
          -118.400444,33.935566,0
          -118.402489,33.935371,0
          -118.402748,33.93536,0
          -118.403061,33.935349,0
          -118.40329,33.935349,0
          -118.403709,33.935349,0
          -118.404053,33.935371,0
          -118.404381,33.935406,0
          -118.4048,33.935474,0
          -118.405052,33.935524,0
          -118.405289,33.935589,0
          -118.405556,33.935658,0
          -118.405807,33.935749,0
          -118.406052,33.935837,0
          -118.40654,33.935955,0
          -118.406746,33.935966,0
          -118.40699,33.935978,0
          -118.407257,33.935966,0
          -118.407501,33.93594,0
          -118.407753,33.93594,0
          -118.407967,33.935963,0
          -118.408195,33.936001,0
          -118.40847,33.936092,0
          -118.408722,33.936207,0
          -118.40892,33.936447,0
          -118.408966,33.936676,0
          -118.408997,33.936909,0
          -118.409035,33.937168,0
          -118.409073,33.937397,0
          -118.409172,33.937618,0
          -118.409386,33.937763,0
          -118.409706,33.937786,0
          -118.409958,33.937775,0
          -118.410202,33.937744,0
          -118.410477,33.93771,0
          -118.410698,33.937683,0
          -118.410919,33.937664,0
          -118.411514,33.937618,0
          -118.412163,33.937546,0
          -118.412964,33.937466,0
          -118.413689,33.937397,0
          -118.414528,33.937305,0
          -118.415237,33.937237,0
          -118.415977,33.937164,0
          -118.416451,33.93713,0
          -118.416656,33.937191,0
          -118.41684,33.937443,0
          -118.416893,33.937687,0
          -118.416939,33.937931,0
          -118.416962,33.938141,0
          -118.416992,33.938362,0
          -118.417091,33.938965,0
          -118.417183,33.939571,0
          -118.417297,33.940411,0
          -118.417381,33.941017,0
          -118.41745,33.941517,0
          -118.417542,33.942066,0
          -118.417625,33.942627,0
          -118.417709,33.943249,0
          -118.417809,33.943874,0
          -118.417877,33.944378,0
          -118.417953,33.944916,0
          -118.418015,33.945286,0
          -118.418037,33.945496,0
          -118.418083,33.945717,0
          -118.418114,33.945957,0
          -118.418167,33.946255,0
          -118.418213,33.946545,0
          -118.418251,33.946861,0
          -118.418213,33.94709,0
          -118.417984,33.94725,0
          -118.417747,33.947308,0
          -118.417542,33.94733,0
          -118.417328,33.947353,0
          -118.417099,33.94738,0
          -118.41671,33.947422,0
          -118.416351,33.947456,0
          -118.416023,33.947491,0
          -118.41552,33.947544,0
          -118.414795,33.947613,0
          -118.41436,33.947651,0
          -118.414146,33.947582,0
          -118.413948,33.947376,0
          -118.413857,33.947147,0
          -118.413406,33.946903,0
          -118.413177,33.946907,0
          -118.412918,33.946926,0
          -118.412643,33.946964,0
          -118.412361,33.947033,0
          -118.412086,33.947113,0
          -118.411797,33.947193,0
          -118.411446,33.947266,0
          -118.411201,33.947296,0
          -118.410973,33.947323,0
          -118.410698,33.947353,0
          -118.410477,33.947369,0
          -118.409943,33.947422,0
          -118.409431,33.947487,0
          -118.408966,33.947536,0
          -118.40844,33.947578,0
          -118.407928,33.947636,0
          -118.40741,33.947697,0
          -118.406914,33.947742,0
          -118.406342,33.9478,0
          -118.405884,33.947845,0
          -118.405449,33.947891,0
          -118.405106,33.947929,0
          -118.404732,33.947971,0
          -118.404335,33.948006,0
          -118.404106,33.947987,0
          -118.404015,33.947777,0
          -118.40403,33.947571,0
          -118.404053,33.947369,0
        </coordinates>
      </LineString>
    </Placemark>
  </Document>
</kml>