<?xml version='1.0' encoding='utf-8'?>
<kml xmlns="http://www.opengis.net/kml/2.2">
  <Document>
    <Placemark>
      <name>DL392-2023-07-11</name>
      <TimeStamp>
        <when>2023-07-11</when>
      </TimeStamp>
      <LineString>
        <altitudeMode>absolute</altitudeMode>
        <coordinates>
          -84.441994,33.639229,0
          -84.441689,33.639217,0
          -84.441475,33.639206,0
          -84.441269,33.639278,0
          -84.441933,33.639229,0
          -84.441231,33.639332,0
          -84.441223,33.639336,0
          -84.441246,33.639252,0
          -84.4412,33.63905,0
          -84.441147,33.638809,0
          -84.441147,33.638588,0
          -84.441154,33.638363,0
          -84.441162,33.638111,0
          -84.441154,33.637825,0
          -84.441139,33.637482,0
          -84.441154,33.637093,0
          -84.441116,33.63689,0
          -84.440857,33.636669,0
          -84.440628,33.636635,0
          -84.440399,33.636635,0
          -84.440132,33.636635,0
          -84.439919,33.636635,0
          -84.439682,33.636635,0
          -84.439461,33.636635,0
          -84.438858,33.636635,0
          -84.438187,33.636635,0
          -84.437454,33.636646,0
          -84.436714,33.636646,0
          -84.43589,33.636635,0
          -84.435081,33.636646,0
          -84.43425,33.636635,0
          -84.433205,33.636646,0
          -84.432281,33.636646,0
          -84.430962,33.636646,0
          -84.42968,33.636635,0
          -84.428604,33.636635,0
          -84.427315,33.636578,0
          -84.425323,33.636551,0
          -84.424004,33.636555,0
          -84.422157,33.636543,0
          -84.421875,33.636494,0
          -84.421562,33.636341,0
          -84.421219,33.636166,0
          -84.420959,33.636028,0
          -84.420654,33.635891,0
          -84.420235,33.635796,0
          -84.41996,33.635807,0
          -84.419701,33.635811,0
          -84.41938,33.635822,0
          -84.419159,33.635818,0
          -84.418861,33.635818,0
          -84.418541,33.635822,0
          -84.417641,33.635818,0
          -84.41674,33.635818,0
          -84.415611,33.635822,0
          -84.414665,33.635818,0
          -84.413712,33.635818,0
          -84.412849,33.635818,0
          -84.412247,33.635818,0
          -84.411606,33.635811,0
          -84.410919,33.635818,0
          -84.41037,33.635811,0
          -84.409821,33.635811,0
          -84.409462,33.635811,0
          -84.409248,33.635777,0
          -84.409058,33.635529,0
          -84.40905,33.635296,0
          -84.40905,33.634953,0
          -84.409088,33.634747,0
          -84.409302,33.634678,0
          -84.409515,33.634724,0
          -84.409744,33.634712,0
          -84.410805,33.634724,0
          -84.413086,33.634724,0
          -84.418427,33.634735,281.94
          -84.422264,33.634735,281.94
          -84.430832,33.634735,281.94
          -84.439835,33.634689,373.38
          -84.448372,33.63446,487.68
          -84.45665,33.634178,601.98
          -84.465248,33.633957,701.04
          -84.473595,33.633133,769.62
          -84.47657,33.632538,784.86
          -84.479424,33.63176,792.48
          -84.482574,33.630825,807.72
          -84.485199,33.629974,822.96
          -84.488297,33.628826,838.2
          -84.491196,33.627686,845.82
          -84.494446,33.626312,861.06
          -84.497025,33.625214,876.3
          -84.499664,33.624069,891.54
          -84.50325,33.622513,906.78
          -84.506439,33.621098,922.02
          -84.509804,33.619629,929.64
          -84.512886,33.618256,937.26
          -84.523315,33.613693,975.36
          -84.53447,33.609039,1028.7
          -84.546188,33.604156,1112.52
          -84.557648,33.599358,1234.44
          -84.561478,33.597401,1280.16
          -84.562668,33.596741,1318.26
          -84.565971,33.594589,1371.6
          -84.568237,33.592934,1417.32
          -84.573257,33.588501,1463.04
          -84.573708,33.587997,1485.9
          -84.576584,33.584694,1531.62
          -84.579926,33.579575,1584.96
          -84.581741,33.575989,1623.06
          -84.582993,33.572403,1661.16
          -84.583908,33.568306,1706.88
          -84.584259,33.565655,1737.36
          -84.584358,33.564331,1775.46
          -84.584137,33.556435,1821.18
          -84.584023,33.555084,1851.66
          -84.583458,33.549408,1882.14
          -84.583397,33.548847,1927.86
          -84.582733,33.541992,1965.96
          -84.582474,33.537872,2011.68
          -84.582367,33.534119,2057.4
          -84.582336,33.530415,2095.5
          -84.583458,33.511047,2316.48
          -84.581726,33.491356,2499.36
          -84.580391,33.487701,2522.22
          -84.578575,33.483948,2552.7
          -84.576286,33.480137,2583.18
          -84.573631,33.476624,2613.66
          -84.570625,33.473339,2644.14
          -84.567314,33.470268,2674.62
          -84.563675,33.467426,2697.48
          -84.559517,33.464767,2727.96
          -84.555435,33.462681,2750.82
          -84.551056,33.460785,2773.68
          -84.546295,33.459187,2804.16
          -84.541588,33.458023,2827.02
          -84.536552,33.457169,2857.5
          -84.531441,33.456722,2887.98
          -84.526443,33.456528,2910.84
          -84.521172,33.456482,2941.32
          -84.516144,33.456535,2971.8
          -84.511154,33.456535,3002.28
          -84.505905,33.456528,3032.76
          -84.500336,33.456535,3063.24
          -84.495079,33.456528,3101.34
          -84.490578,33.456482,3124.2
          -84.463882,33.45607,3215.64
          -84.435646,33.455696,3299.46
          -84.407028,33.455612,3368.04
          -84.38549,33.455566,3421.38
          -84.351761,33.456299,3497.58
          -84.337265,33.458542,3520.44
          -84.329735,33.460419,3550.92
          -84.323364,33.462433,3566.16
          -84.318832,33.464169,3596.64
          -84.313118,33.466591,3611.88
          -84.309578,33.468109,3642.36
          -84.302917,33.471104,3672.84
          -84.296303,33.474087,3703.32
          -84.290413,33.476692,3733.8
          -84.28492,33.47916,3756.66
          -84.280212,33.481255,3787.14
          -84.273544,33.484234,3817.62
          -84.209984,33.51265,4168.14
          -84.14669,33.540936,4457.7
          -84.081688,33.569889,4747.26
          -84.021034,33.596889,4975.86
          -83.954323,33.626495,5250.18
          -83.88768,33.655975,5547.36
          -83.81974,33.686096,5791.2
          -83.74884,33.717319,6004.56
          -83.6772,33.748928,6271.26
          -83.60704,33.784168,6454.14
          -83.541298,33.819317,6697.98
          -83.475204,33.854557,6873.24
          -83.404167,33.892548,7078.98
          -83.332275,33.930855,7231.38
          -83.26326,33.967491,7399.02
          -83.190536,34.006084,7589.52
          -83.115921,34.045746,7696.2
          -83.039093,34.086456,7848.6
          -82.967239,34.124268,7985.76
          -82.889885,34.164597,8130.54
          -82.817131,34.202682,8237.22
          -82.739662,34.243057,8366.76
          -82.668114,34.280323,8557.26
          -82.588989,34.321243,8983.98
          -82.514305,34.359882,9151.62
          -82.438103,34.399246,9334.5
          -82.365875,34.436413,9563.1
          -82.295784,34.469376,9776.46
          -82.217255,34.505127,9883.14
          -82.140739,34.54509,9944.1
          -82.067245,34.589802,10073.64
          -81.998871,34.631378,10424.16
          -81.930092,34.673126,10835.64
          -81.861992,34.71447,10881.36
          -81.792755,34.756271,10934.7
          -81.72393,34.797684,10988.04
          -81.651367,34.841415,11049
          -81.579597,34.884567,11132.82
          -81.509308,34.926819,11224.26
          -81.434845,34.971344,11277.6
          -81.362617,35.014526,11277.6
          -81.291046,35.057281,11277.6
          -81.217972,35.100666,11277.6
          -81.145973,35.143433,11277.6
          -81.077309,35.184036,11285.22
          -81.004143,35.227383,11285.22
          -80.930725,35.270908,11285.22
          -80.853645,35.316391,11277.6
          -80.783234,35.357822,11277.6
          -80.716614,35.397018,11277.6
          -80.644226,35.439423,11277.6
          -80.57402,35.480534,11269.98
          -80.496361,35.525921,11269.98
          -80.427284,35.566143,11269.98
          -80.359207,35.605713,11269.98
          -80.284813,35.648773,11277.6
          -80.211533,35.691277,11285.22
          -80.136383,35.734707,11285.22
          -80.068947,35.773674,11201.4
          -79.994438,35.816315,11049
          -79.922615,35.857559,10888.98
          -79.847832,35.900391,10736.58
          -79.774017,35.943237,10668
          -79.705643,35.983566,10668
          -79.6306,36.027428,10668
          -79.557205,36.070404,10668
          -79.48185,36.114304,10668
          -79.409698,36.156143,10538.46
          -79.337143,36.198395,10386.06
          -79.25631,36.245106,10226.04
          -79.188828,36.28418,10081.26
          -79.110779,36.329498,9921.24
          -79.041489,36.369354,9761.22
          -78.965576,36.413113,9364.98
          -78.890648,36.456161,8945.88
          -78.814751,36.499561,8831.58
          -78.739014,36.542496,8839.2
          -78.665558,36.588428,8839.2
          -78.601395,36.638798,8839.2
          -78.539772,36.690353,8823.96
          -78.477058,36.742447,8671.56
          -78.413925,36.794937,8519.16
          -78.351685,36.847137,8351.52
          -78.296394,36.893112,8191.5
          -78.236511,36.942738,8031.48
          -78.177757,36.991199,7879.08
          -78.119781,37.039009,7703.82
          -78.060486,37.087749,7551.42
          -78.002579,37.135483,7376.16
          -77.945313,37.182621,7315.2
          -77.890205,37.227814,7284.72
          -77.829369,37.277664,7124.7
          -77.770721,37.325397,6957.06
          -77.713821,37.371719,6797.04
          -77.657394,37.417618,6621.78
          -77.601089,37.463192,6461.76
          -77.549866,37.504765,6400.8
          -77.494095,37.55006,6400.8
          -77.456886,37.583588,6400.8
          -77.451401,37.590931,6400.8
          -77.449348,37.594254,6400.8
          -77.445663,37.601028,6400.8
          -77.442215,37.609222,6385.56
          -77.440994,37.612885,6385.56
          -77.438248,37.620895,6355.08
          -77.436546,37.626114,6332.22
          -77.434738,37.631882,6301.74
          -77.433395,37.636047,6271.26
          -77.431755,37.641312,6248.4
          -77.429733,37.647678,6210.3
          -77.412178,37.704254,5913.12
          -77.394356,37.761429,5600.7
          -77.378143,37.814056,5318.76
          -77.362335,37.864838,5044.44
          -77.34584,37.91782,4762.5
          -77.329956,37.969635,4488.18
          -77.314003,38.021439,4213.86
          -77.299385,38.069023,3954.78
          -77.283386,38.120316,3695.7
          -77.268097,38.168598,3459.48
          -77.260941,38.191452,3345.18
          -77.254692,38.211273,3253.74
          -77.247856,38.232746,3200.4
          -77.240929,38.254395,3147.06
          -77.234238,38.275543,3093.72
          -77.229111,38.291592,3040.38
          -77.222839,38.311096,2933.7
          -77.217873,38.326401,2827.02
          -77.211739,38.337677,2773.68
          -77.209106,38.340889,2758.44
          -77.206657,38.343449,2750.82
          -77.203033,38.347137,2735.58
          -77.201462,38.348618,2735.58
          -77.199234,38.350708,2735.58
          -77.193741,38.355789,2727.96
          -77.190475,38.358765,2727.96
          -77.186317,38.362427,2727.96
          -77.18248,38.365795,2720.34
          -77.180206,38.367794,2720.34
          -77.175972,38.371521,2720.34
          -77.158531,38.386837,2727.96
          -77.140564,38.40271,2705.1
          -77.124146,38.417267,2583.18
          -77.107178,38.432178,2476.5
          -77.090225,38.447113,2415.54
          -77.07476,38.460983,2369.82
          -77.059021,38.475006,2308.86
          -77.044197,38.488129,2247.9
          -77.029846,38.500656,2194.56
          -77.016541,38.513412,2125.98
          -77.014893,38.515972,2110.74
          -77.013489,38.518673,2103.12
          -77.012329,38.521603,2087.88
          -77.01165,38.524429,2065.02
          -77.011292,38.527176,2042.16
          -77.011108,38.529984,2019.3
          -77.011177,38.53299,1996.44
          -77.011238,38.535828,1973.58
          -77.011353,38.538967,1943.1
          -77.011475,38.541809,1920.24
          -77.011658,38.544323,1889.76
          -77.01178,38.547161,1859.28
          -77.011963,38.550003,1836.42
          -77.012192,38.552948,1813.56
          -77.012329,38.555679,1783.08
          -77.013123,38.566898,1684.02
          -77.012451,38.575325,1600.2
          -77.012009,38.578217,1577.34
          -77.011597,38.583565,1524
          -77.011597,38.586266,1501.14
          -77.012024,38.594551,1424.94
          -77.012268,38.597206,1394.46
          -77.01255,38.600006,1363.98
          -77.012848,38.602798,1341.12
          -77.013123,38.6054,1310.64
          -77.013382,38.6082,1287.78
          -77.013672,38.611076,1264.92
          -77.013916,38.61401,1242.06
          -77.014397,38.618729,1196.34
          -77.015236,38.627838,1127.76
          -77.016052,38.635845,1066.8
          -77.016846,38.644131,1013.46
          -77.017685,38.652237,952.5
          -77.018456,38.660202,891.54
          -77.019348,38.668476,838.2
          -77.020134,38.67627,769.62
          -77.020966,38.684509,723.9
          -77.021729,38.692356,693.42
          -77.0224,38.700272,670.56
          -77.023178,38.708084,640.08
          -77.024048,38.715866,609.6
          -77.024841,38.723454,579.12
          -77.025505,38.730011,548.64
          -77.026222,38.73674,525.78
          -77.027161,38.745567,502.92
          -77.027954,38.749695,480.06
          -77.028442,38.751804,464.82
          -77.029091,38.753632,457.2
          -77.030045,38.756058,449.58
          -77.030701,38.757431,441.96
          -77.032013,38.760269,441.96
          -77.03302,38.762188,434.34
          -77.03363,38.763397,434.34
          -77.034584,38.765259,426.72
          -77.035767,38.768051,419.1
          -77.036316,38.770054,403.86
          -77.036789,38.773865,381
          -77.036743,38.774803,373.38
          -77.036377,38.777641,358.14
          -77.03595,38.779366,342.9
          -77.034973,38.781971,335.28
          -77.03418,38.783928,327.66
          -77.033745,38.785034,312.42
          -77.032898,38.787697,297.18
          -77.032532,38.789421,289.56
          -77.032249,38.791534,274.32
          -77.032166,38.793514,266.7
          -77.03241,38.797428,251.46
          -77.032547,38.799683,236.22
          -77.032654,38.801708,228.6
          -77.03273,38.802704,213.36
          -77.033028,38.806229,198.12
          -77.033447,38.809204,182.88
          -77.033813,38.811485,167.64
          -77.034042,38.813324,160.02
          -77.034485,38.818935,121.92
          -77.034973,38.824192,91.44
          -77.035339,38.828339,68.58
          -77.036133,38.835461,30.48
          -77.036804,38.841976,0
          -77.037445,38.848709,0
          -77.03788,38.852852,0
          -77.038086,38.85479,0
          -77.038239,38.855667,0
          -77.038704,38.856571,0
          -77.03894,38.856777,0
          -77.039162,38.856926,0
          -77.039398,38.856945,0
          -77.039612,38.856846,0
          -77.039688,38.85664,0
          -77.039658,38.856422,0
          -77.039627,38.856197,0
          -77.039597,38.855988,0
          -77.039612,38.855766,0
          -77.039856,38.855618,0
          -77.040077,38.855564,0
          -77.040253,38.855339,0
          -77.040176,38.855129,0
          -77.0401,38.854919,0
          -77.040077,38.854706,0
          -77.040054,38.854465,0
          -77.040047,38.854229,0
          -77.040001,38.85392,0
          -77.039993,38.853699,0
          -77.040001,38.853481,0
          -77.040298,38.853359,0
          -77.040627,38.85326,0
          -77.04084,38.853199,0
          -77.041054,38.853008,3.6576
          -77.041115,38.852783,0
          -77.041214,38.852566,0
          -77.04155,38.852287,0
        </coordinates>
      </LineString>
    </Placemark>
  </Document>
</kml>