<?xml version='1.0' encoding='utf-8'?>
<kml xmlns="http://www.opengis.net/kml/2.2">
  <Document>
    <Placemark>
      <name>DL5088-2023-06-16</name>
      <TimeStamp>
        <when>2023-06-16</when>
      </TimeStamp>
      <LineString>
        <altitudeMode>absolute</altitudeMode>
        <coordinates>
          -77.453323,38.948208,0
          -77.4533,38.947975,0
          -77.453316,38.947769,0
          -77.453323,38.947556,0
          -77.45311,38.947464,0
          -77.452789,38.947384,0
          -77.452522,38.947346,0
          -77.452148,38.947338,0
          -77.451691,38.947334,0
          -77.451477,38.947323,0
          -77.451004,38.947323,0
          -77.45079,38.947323,0
          -77.450211,38.947323,0
          -77.449898,38.947311,0
          -77.449692,38.947243,0
          -77.449905,38.947033,0
          -77.450119,38.947083,0
          -77.450348,38.947174,0
          -77.450691,38.947289,0
          -77.450943,38.947323,0
          -77.451256,38.947323,0
          -77.451477,38.947323,0
          -77.45195,38.947338,0
          -77.452179,38.947334,0
          -77.452492,38.947334,0
          -77.452911,38.947346,0
          -77.453392,38.947346,0
          -77.45385,38.947346,0
          -77.454254,38.947357,0
          -77.454613,38.947369,0
          -77.454819,38.947483,0
          -77.454971,38.947689,0
          -77.455124,38.947906,0
          -77.454956,38.948124,0
          -77.45475,38.948284,0
          -77.455093,38.947826,0
          -77.45475,38.948296,0
          -77.454956,38.948101,0
          -77.455002,38.947895,0
          -77.454895,38.947678,0
          -77.454781,38.947472,0
          -77.454567,38.94754,0
          -77.454193,38.947384,0
          -77.453926,38.947357,0
          -77.45369,38.947361,0
          -77.4534,38.94735,0
          -77.453194,38.947346,0
          -77.452957,38.94735,0
          -77.452423,38.947338,0
          -77.451691,38.947334,0
          -77.450928,38.947323,0
          -77.450348,38.947323,0
          -77.449585,38.947311,0
          -77.448837,38.947311,0
          -77.448044,38.9473,0
          -77.447266,38.9473,0
          -77.446556,38.947289,0
          -77.445648,38.947277,0
          -77.444672,38.947266,0
          -77.443863,38.947266,0
          -77.443085,38.947254,0
          -77.442505,38.947254,0
          -77.442001,38.947243,0
          -77.441566,38.947243,0
          -77.441254,38.947243,0
          -77.441032,38.947231,0
          -77.440819,38.947231,0
          -77.440598,38.947231,0
          -77.440269,38.947231,0
          -77.440033,38.947174,0
          -77.439774,38.946987,0
          -77.439728,38.946728,0
          -77.439728,38.946358,0
          -77.439728,38.946102,0
          -77.439728,38.945812,0
          -77.439728,38.945606,0
          -77.439743,38.945381,0
          -77.439743,38.945091,0
          -77.439743,38.944695,0
          -77.439758,38.943916,0
          -77.439758,38.94334,0
          -77.439774,38.94268,0
          -77.439789,38.942017,0
          -77.439789,38.941463,0
          -77.439804,38.940811,0
          -77.439819,38.940132,0
          -77.439835,38.939301,0
          -77.439835,38.93856,0
          -77.43985,38.937698,0
          -77.439865,38.93684,0
          -77.43988,38.935993,0
          -77.43988,38.935047,0
          -77.439911,38.93401,0
          -77.439911,38.933125,0
          -77.439926,38.931828,0
          -77.439957,38.930832,0
          -77.439987,38.928261,0
          -77.440002,38.927448,0
          -77.439507,38.924286,0
          -77.438698,38.924274,0
          -77.438103,38.924263,0
          -77.43689,38.924236,0
          -77.436569,38.924316,0
          -77.436432,38.924915,0
          -77.436432,38.925129,0
          -77.436432,38.92535,0
          -77.436432,38.925671,0
          -77.436417,38.926128,0
          -77.436417,38.926353,0
          -77.436417,38.92662,0
          -77.436417,38.926899,0
          -77.436401,38.928085,0
          -77.436386,38.928658,0
          -77.436371,38.929367,0
          -77.436371,38.929974,0
          -77.436279,38.935455,175.26
          -77.436218,38.94239,167.64
          -77.43618,38.950333,236.22
          -77.436157,38.953796,297.18
          -77.436119,38.955872,320.04
          -77.436119,38.957886,350.52
          -77.436096,38.96064,373.38
          -77.436462,38.966969,457.2
          -77.437256,38.972881,541.02
          -77.437309,38.974686,556.26
          -77.438026,38.977203,586.74
          -77.438629,38.978714,609.6
          -77.440002,38.981728,632.46
          -77.440918,38.98373,655.32
          -77.441956,38.985775,670.56
          -77.443466,38.988739,685.8
          -77.44458,38.99099,693.42
          -77.446045,38.993645,701.04
          -77.447525,38.996521,708.66
          -77.448715,38.998856,723.9
          -77.449493,39.000275,739.14
          -77.454567,39.010208,822.96
          -77.458511,39.018036,937.26
          -77.462448,39.026367,1021.08
          -77.465736,39.03511,1089.66
          -77.466812,39.038818,1112.52
          -77.468544,39.044586,1150.62
          -77.469734,39.04866,1181.1
          -77.470329,39.05072,1203.96
          -77.471558,39.055187,1242.06
          -77.472107,39.057049,1264.92
          -77.473373,39.061569,1303.02
          -77.474274,39.064636,1333.5
          -77.476868,39.073574,1417.32
          -77.480423,39.086105,1524
          -77.485596,39.103878,1722.12
          -77.490868,39.122498,1935.48
          -77.496666,39.139664,2133.6
          -77.498398,39.142914,2171.7
          -77.50116,39.147034,2217.42
          -77.50383,39.150604,2255.52
          -77.506287,39.15369,2301.24
          -77.508842,39.156693,2339.34
          -77.511353,39.159695,2385.06
          -77.51416,39.163048,2430.78
          -77.516907,39.16626,2476.5
          -77.519531,39.169373,2514.6
          -77.521973,39.172173,2560.32
          -77.524841,39.175476,2598.42
          -77.537964,39.190887,2827.02
          -77.550819,39.206818,3009.9
          -77.564087,39.223427,3169.92
          -77.574158,39.235809,3299.46
          -77.588791,39.253784,3398.52
          -77.602585,39.270401,3413.76
          -77.616882,39.287434,3421.38
          -77.630943,39.304138,3429
          -77.644081,39.320755,3482.34
          -77.645752,39.323914,3497.58
          -77.647423,39.328171,3512.82
          -77.648384,39.332153,3528.06
          -77.648804,39.336082,3550.92
          -77.648743,39.340179,3573.78
          -77.64814,39.344513,3589.02
          -77.647339,39.347393,3611.88
          -77.645325,39.352886,3627.12
          -77.643372,39.356659,3649.98
          -77.640991,39.360291,3672.84
          -77.637512,39.364571,3688.08
          -77.635124,39.367081,3703.32
          -77.630615,39.370998,3726.18
          -77.626228,39.374268,3741.42
          -77.621513,39.377472,3764.28
          -77.616913,39.380402,3779.52
          -77.612122,39.383381,3802.38
          -77.607597,39.386169,3817.62
          -77.602882,39.389053,3832.86
          -77.598167,39.391937,3848.1
          -77.593452,39.394821,3870.96
          -77.589088,39.397522,3886.2
          -77.53553,39.429611,4076.7
          -77.480301,39.461151,4267.2
          -77.439392,39.487701,4396.74
          -77.43573,39.491611,4411.98
          -77.432373,39.495663,4434.84
          -77.428894,39.500656,4450.08
          -77.426025,39.505692,4472.94
          -77.423759,39.510498,4488.18
          -77.421906,39.515396,4503.42
          -77.420532,39.520432,4518.66
          -77.419701,39.52478,4533.9
          -77.419189,39.530392,4556.76
          -77.419189,39.535465,4572
          -77.41922,39.536316,4579.62
          -77.420044,39.542866,4594.86
          -77.421432,39.548676,4610.1
          -77.423157,39.554039,4632.96
          -77.424927,39.558929,4648.2
          -77.426445,39.563004,4663.44
          -77.428177,39.567947,4678.68
          -77.429733,39.572205,4693.92
          -77.431946,39.578712,4709.16
          -77.432373,39.580063,4709.16
          -77.432892,39.581589,4724.4
          -77.435913,39.590488,4747.26
          -77.448837,39.620682,4846.32
          -77.451965,39.625126,4861.56
          -77.455566,39.629501,4884.42
          -77.459404,39.633545,4907.28
          -77.463646,39.637527,4930.14
          -77.467583,39.640823,4953
          -77.473373,39.644989,4975.86
          -77.478027,39.647842,4998.72
          -77.483589,39.650803,5021.58
          -77.489075,39.65329,5036.82
          -77.494873,39.655571,5059.68
          -77.501282,39.657665,5082.54
          -77.507111,39.659454,5105.4
          -77.51326,39.661285,5120.64
          -77.519531,39.663204,5143.5
          -77.525505,39.664993,5158.74
          -77.531654,39.66687,5181.6
          -77.537804,39.668747,5196.84
          -77.544014,39.670578,5219.7
          -77.613449,39.691727,5463.54
          -77.682739,39.713017,5775.96
          -77.746216,39.732567,6065.52
          -77.815979,39.753841,6355.08
          -77.885902,39.77504,6621.78
          -77.956055,39.796299,6705.6
          -78.028137,39.817989,6705.6
          -78.080551,39.836609,6705.6
          -78.086761,39.840134,6705.6
          -78.091797,39.843315,6705.6
          -78.097229,39.847038,6713.22
          -78.102417,39.851044,6713.22
          -78.106995,39.854954,6713.22
          -78.11261,39.860214,6705.6
          -78.116615,39.864349,6705.6
          -78.120255,39.868469,6705.6
          -78.124977,39.874329,6705.6
          -78.127899,39.878403,6705.6
          -78.131042,39.883026,6705.6
          -78.134399,39.888702,6705.6
          -78.137451,39.894287,6705.6
          -78.14032,39.900341,6705.6
          -78.142822,39.906395,6713.22
          -78.144974,39.912277,6705.6
          -78.146851,39.917847,6705.6
          -78.148499,39.923492,6705.6
          -78.149963,39.928986,6705.6
          -78.151436,39.93507,6705.6
          -78.15287,39.940937,6713.22
          -78.154236,39.946655,6713.22
          -78.155457,39.951782,6713.22
          -78.170593,40.017883,6705.6
          -78.185768,40.082874,6705.6
          -78.199936,40.144974,6713.22
          -78.215294,40.211498,6705.6
          -78.229149,40.271782,6713.22
          -78.24469,40.33905,6705.6
          -78.259277,40.402863,6705.6
          -78.274277,40.467533,6705.6
          -78.289635,40.533314,6705.6
          -78.302681,40.590012,6705.6
          -78.317444,40.653992,6705.6
          -78.332397,40.717941,6705.6
          -78.347229,40.78093,6705.6
          -78.36161,40.842838,6705.6
          -78.376587,40.907364,6705.6
          -78.390884,40.967461,6705.6
          -78.40625,41.029587,6705.6
          -78.420097,41.085842,6705.6
          -78.436394,41.146172,6705.6
          -78.454285,41.205139,6705.6
          -78.476257,41.259659,6705.6
          -78.49794,41.315903,6697.98
          -78.518738,41.373093,6713.22
          -78.524139,41.394112,6705.6
          -78.524529,41.399368,6697.98
          -78.524467,41.404816,6697.98
          -78.523949,41.41045,6705.6
          -78.523628,41.41222,6713.22
          -78.522034,41.419342,6720.84
          -78.521843,41.420242,6728.46
          -78.517502,41.431816,6720.84
          -78.515289,41.436768,6720.84
          -78.512962,41.442013,6720.84
          -78.510918,41.446808,6713.22
          -78.508865,41.452103,6705.6
          -78.506989,41.457275,6697.98
          -78.490158,41.513748,6697.98
          -78.474594,41.570343,6705.6
          -78.460846,41.621983,6713.22
          -78.45369,41.637905,6697.98
          -78.450745,41.642578,6697.98
          -78.447304,41.647446,6705.6
          -78.443756,41.651871,6705.6
          -78.439827,41.656311,6713.22
          -78.436058,41.660156,6713.22
          -78.430901,41.664963,6713.22
          -78.426468,41.668625,6713.22
          -78.421532,41.672424,6705.6
          -78.416451,41.675846,6705.6
          -78.410484,41.679565,6705.6
          -78.405243,41.682541,6705.6
          -78.39933,41.685715,6713.22
          -78.393379,41.688812,6713.22
          -78.387772,41.691673,6720.84
          -78.382149,41.694534,6713.22
          -78.3759,41.697693,6713.22
          -78.36972,41.700851,6705.6
          -78.364838,41.703312,6705.6
          -78.301033,41.736782,6713.22
          -78.237793,41.771091,6713.22
          -78.175453,41.805634,6697.98
          -78.112541,41.841019,6713.22
          -78.049301,41.876438,6713.22
          -77.985176,41.912144,6705.6
          -77.922638,41.947056,6690.36
          -77.860428,41.981693,6705.6
          -77.79847,42.016235,6705.6
          -77.736191,42.050404,6705.6
          -77.672592,42.085648,6705.6
          -77.608604,42.121078,6697.98
          -77.550194,42.153286,6705.6
          -77.485573,42.188736,6713.22
          -77.426521,42.221008,6697.98
          -77.356651,42.259331,6705.6
          -77.294502,42.293243,6705.6
          -77.229202,42.328537,6713.22
          -77.163414,42.364426,6697.98
          -77.095123,42.401596,6705.6
          -77.0327,42.43277,6705.6
          -77.028206,42.434418,6705.6
          -77.018761,42.437439,6705.6
          -77.011734,42.439346,6705.6
          -77.003799,42.441147,6705.6
          -77.000679,42.441769,6705.6
          -76.990463,42.443443,6705.6
          -76.983322,42.444351,6713.22
          -76.97596,42.445175,6720.84
          -76.968033,42.445999,6720.84
          -76.959663,42.446869,6720.84
          -76.954948,42.447308,6713.22
          -76.945869,42.448242,6705.6
          -76.938148,42.449032,6705.6
          -76.855736,42.456848,6705.6
          -76.773933,42.464626,6705.6
          -76.691536,42.472633,6705.6
          -76.609581,42.480545,6705.6
          -76.529167,42.488415,6705.6
          -76.447601,42.496281,6705.6
          -76.394241,42.499237,6705.6
          -76.387375,42.498779,6705.6
          -76.378868,42.497818,6705.6
          -76.372398,42.496902,6713.22
          -76.365074,42.495583,6713.22
          -76.358047,42.494095,6713.22
          -76.351234,42.492599,6713.22
          -76.343544,42.490833,6713.22
          -76.336075,42.489067,6713.22
          -76.330261,42.487656,6713.22
          -76.322594,42.48576,6713.22
          -76.315407,42.483856,6713.22
          -76.308479,42.481979,6705.6
          -76.301544,42.479965,6705.6
          -76.224709,42.456253,6705.6
          -76.149628,42.432503,6560.82
          -76.075577,42.40892,6423.66
          -76.002907,42.385628,6400.8
          -75.932571,42.363007,6400.8
          -75.860725,42.340191,6400.8
          -75.784569,42.315765,6400.8
          -75.710907,42.292099,6400.8
          -75.643295,42.270317,6400.8
          -75.567337,42.245956,6400.8
          -75.496483,42.223022,6400.8
          -75.448799,42.21167,6408.42
          -75.440994,42.210388,6408.42
          -75.433472,42.209194,6408.42
          -75.426064,42.208076,6408.42
          -75.417458,42.206772,6400.8
          -75.336433,42.194778,6400.8
          -75.293716,42.185871,6393.18
          -75.287834,42.183964,6393.18
          -75.280304,42.18145,6400.8
          -75.27372,42.179169,6408.42
          -75.268646,42.177429,6408.42
          -75.261589,42.174957,6408.42
          -75.253922,42.172325,6400.8
          -75.246445,42.169716,6393.18
          -75.174637,42.144562,6400.8
          -75.100555,42.118694,6400.8
          -75.029381,42.093796,6400.8
          -74.957222,42.068653,6400.8
          -74.888557,42.044769,6400.8
          -74.819145,42.020462,6400.8
          -74.746422,41.994919,6400.8
          -74.676697,41.970337,6393.18
          -74.603493,41.94445,6400.8
          -74.532814,41.919205,6408.42
          -74.470123,41.893291,6362.7
          -74.465141,41.890182,6355.08
          -74.460091,41.886631,6347.46
          -74.456284,41.883682,6339.84
          -74.449303,41.877693,6324.6
          -74.445023,41.873505,6316.98
          -74.440483,41.868572,6309.36
          -74.436783,41.864147,6301.74
          -74.433556,41.860062,6294.12
          -74.429947,41.85535,6286.5
          -74.426819,41.851227,6278.88
          -74.423241,41.846458,6271.26
          -74.418892,41.84079,6263.64
          -74.415443,41.836311,6248.4
          -74.37632,41.785217,6096
          -74.337555,41.734909,6096
          -74.300217,41.68697,6096
          -74.260551,41.636322,6096
          -74.219353,41.583252,6103.62
          -74.181732,41.535023,6103.62
          -74.140533,41.482933,6096
          -74.103676,41.436146,6096
          -74.088669,41.412544,6096
          -74.086617,41.407425,6096
          -74.08503,41.40263,6096
          -74.083687,41.397648,6103.62
          -74.08287,41.393509,6103.62
          -74.082123,41.387283,6096
          -74.081909,41.382385,6088.38
          -74.082275,41.377899,6088.38
          -74.083069,41.373184,6088.38
          -74.084351,41.368607,6096
          -74.085426,41.365761,6096
          -74.088318,41.359909,6096
          -74.090988,41.355659,6096
          -74.093811,41.351898,6096
          -74.096977,41.348022,6096
          -74.099976,41.344578,6096
          -74.103279,41.340668,6096
          -74.106628,41.336609,6088.38
          -74.109528,41.33308,6088.38
          -74.112518,41.329403,6088.38
          -74.114456,41.32703,6088.38
          -74.118385,41.322186,6088.38
          -74.151039,41.283318,6096
          -74.182747,41.245979,6096
          -74.215019,41.208462,6096
          -74.246231,41.171963,6096
          -74.280685,41.131649,6088.38
          -74.290672,41.116844,6096
          -74.292297,41.113037,6096
          -74.293457,41.109558,6088.38
          -74.294548,41.105022,6080.76
          -74.295105,41.101044,6073.14
          -74.295227,41.096329,6057.9
          -74.294853,41.091988,6042.66
          -74.294189,41.088226,6035.04
          -74.292984,41.084213,6019.8
          -74.291359,41.080116,6012.18
          -74.289124,41.076004,5996.94
          -74.286499,41.072067,5981.7
          -74.283447,41.068314,5974.08
          -74.279907,41.064377,5966.46
          -74.276855,41.061264,5951.22
          -74.273315,41.057693,5943.6
          -74.269951,41.054184,5928.36
          -74.265869,41.049957,5913.12
          -74.262711,41.046692,5905.5
          -74.25853,41.042316,5882.64
          -74.254593,41.038174,5875.02
          -74.217224,40.999603,5791.2
          -74.183243,40.963455,5791.2
          -74.154968,40.923523,5646.42
          -74.123901,40.878571,5440.68
          -74.095604,40.835995,5234.94
          -74.069389,40.794937,5044.44
          -74.04248,40.752594,4930.14
          -74.014084,40.709232,4853.94
          -73.986053,40.666451,4625.34
          -73.954781,40.623299,4396.74
          -73.951912,40.620785,4381.5
          -73.947289,40.617432,4358.64
          -73.942078,40.614258,4343.4
          -73.938721,40.612518,4320.54
          -73.93158,40.609451,4305.3
          -73.927795,40.60817,4282.44
          -73.916443,40.605194,4244.34
          -73.908897,40.603977,4206.24
          -73.895042,40.603279,4160.52
          -73.892105,40.603374,4130.04
          -73.882057,40.604118,4107.18
          -73.87561,40.604782,4084.32
          -73.870445,40.605377,4053.84
          -73.868164,40.605652,4023.36
          -73.859558,40.60675,3992.88
          -73.852539,40.607666,3970.02
          -73.844109,40.608727,3939.54
          -73.838623,40.609406,3916.68
          -73.832092,40.610229,3893.82
          -73.827003,40.61087,3863.34
          -73.760399,40.619713,3596.64
          -73.73175,40.624008,3482.34
          -73.70697,40.627899,3368.04
          -73.684303,40.631863,3253.74
          -73.659149,40.636425,3131.82
          -73.632813,40.642502,3009.9
          -73.623878,40.646389,2956.56
          -73.621582,40.647629,2933.7
          -73.613892,40.652252,2910.84
          -73.612328,40.653278,2880.36
          -73.6054,40.657841,2857.5
          -73.602966,40.659439,2827.02
          -73.595276,40.664612,2788.92
          -73.57428,40.67926,2682.24
          -73.554276,40.693966,2575.56
          -73.535278,40.707962,2438.4
          -73.514954,40.722565,2293.62
          -73.495667,40.737717,2179.32
          -73.493919,40.739586,2164.08
          -73.492043,40.741821,2148.84
          -73.487297,40.750385,2087.88
          -73.486176,40.753971,2065.02
          -73.485352,40.759323,2042.16
          -73.485352,40.763214,2019.3
          -73.48584,40.767105,1988.82
          -73.486572,40.769943,1965.96
          -73.48867,40.775013,1935.48
          -73.490967,40.778915,1905
          -73.49292,40.781483,1874.52
          -73.496826,40.785553,1844.04
          -73.499146,40.78743,1813.56
          -73.50415,40.790863,1783.08
          -73.508148,40.793026,1752.6
          -73.512268,40.794983,1722.12
          -73.516953,40.796707,1691.64
          -73.521629,40.798103,1661.16
          -73.526245,40.799103,1630.68
          -73.52948,40.799698,1600.2
          -73.536255,40.800797,1569.72
          -73.538818,40.801208,1539.24
          -73.545898,40.802216,1508.76
          -73.550659,40.802856,1485.9
          -73.555481,40.803497,1455.42
          -73.560181,40.804138,1424.94
          -73.563515,40.804619,1394.46
          -73.568886,40.805317,1371.6
          -73.572945,40.805828,1341.12
          -73.58429,40.807251,1257.3
          -73.597351,40.808857,1188.72
          -73.600098,40.809135,1158.24
          -73.606079,40.809402,1127.76
          -73.612022,40.80909,1097.28
          -73.616516,40.808392,1066.8
          -73.621071,40.807274,1036.32
          -73.623718,40.806427,1013.46
          -73.62912,40.804199,982.98
          -73.632492,40.802383,960.12
          -73.63501,40.800659,929.64
          -73.64093,40.795807,891.54
          -73.643677,40.793289,868.68
          -73.647095,40.78981,838.2
          -73.651222,40.78516,822.96
          -73.653091,40.782833,807.72
          -73.65509,40.780087,784.86
          -73.656403,40.778271,762
          -73.659401,40.773941,739.14
          -73.660957,40.771568,723.9
          -73.661896,40.770123,708.66
          -73.664207,40.766727,693.42
          -73.666641,40.763187,678.18
          -73.668823,40.760254,678.18
          -73.672058,40.755753,693.42
          -73.673195,40.754017,693.42
          -73.678123,40.746384,670.56
          -73.682617,40.739273,662.94
          -73.687195,40.732132,655.32
          -73.691734,40.72562,617.22
          -73.696289,40.719475,579.12
          -73.697632,40.717758,571.5
          -73.699036,40.715973,556.26
          -73.700623,40.713959,541.02
          -73.705025,40.708534,510.54
          -73.709023,40.703739,464.82
          -73.713455,40.6982,426.72
          -73.717834,40.692719,396.24
          -73.722046,40.687317,358.14
          -73.725891,40.682327,320.04
          -73.730469,40.676376,289.56
          -73.734619,40.671021,251.46
          -73.739052,40.66552,220.98
          -73.743164,40.660355,182.88
          -73.748161,40.65379,144.78
          -73.753235,40.647308,99.06
          -73.757629,40.641724,68.58
          -73.760925,40.637558,68.58
          -73.763824,40.633804,0
          -73.764145,40.633377,0
          -73.764534,40.632877,0
          -73.76532,40.63187,0
          -73.765671,40.631432,0
          -73.765968,40.631062,0
          -73.766495,40.630478,0
          -73.766731,40.630318,0
          -73.766953,40.630165,0
          -73.767334,40.629982,0
          -73.767593,40.629868,0
          -73.767853,40.629757,0
          -73.768196,40.629604,0
          -73.768433,40.629513,0
          -73.768707,40.629398,0
          -73.76918,40.629257,0
          -73.76944,40.629261,0
          -73.769653,40.629303,0
          -73.769867,40.629375,0
          -73.770149,40.629501,0
          -73.770355,40.629593,0
          -73.770638,40.629723,0
          -73.770866,40.629826,0
          -73.771088,40.629925,0
          -73.771729,40.630211,0
          -73.77243,40.630531,0
          -73.772995,40.630783,0
          -73.773582,40.63105,0
          -73.774033,40.63126,0
          -73.774399,40.631424,0
          -73.774796,40.631607,0
          -73.775146,40.63176,0
          -73.775421,40.631893,0
          -73.775642,40.631969,0
          -73.775909,40.632111,0
          -73.77639,40.632328,0
          -73.776909,40.632561,0
          -73.777359,40.632771,0
          -73.77803,40.633083,0
          -73.778259,40.633221,0
          -73.778374,40.633423,0
          -73.778091,40.633862,0
          -73.777878,40.634075,0
          -73.777687,40.634296,0
          -73.777512,40.634525,0
          -73.777328,40.634773,0
          -73.777115,40.635029,0
          -73.776794,40.635437,0
          -73.776443,40.635899,0
          -73.775955,40.636517,0
          -73.77536,40.637276,0
          -73.774719,40.638092,0
          -73.774246,40.638702,0
          -73.773819,40.63924,0
          -73.773468,40.639698,0
          -73.773331,40.639919,0
          -73.773407,40.640121,0
          -73.773666,40.640327,0
          -73.773941,40.640488,0
          -73.774185,40.640625,0
          -73.774414,40.640774,0
          -73.774673,40.640911,0
          -73.77491,40.641071,0
          -73.775131,40.641304,0
          -73.775314,40.641525,0
          -73.775482,40.641735,0
          -73.775635,40.641953,0
          -73.775864,40.64225,0
          -73.776237,40.642757,0
          -73.776566,40.643211,0
          -73.776703,40.643417,0
          -73.77697,40.643585,0
          -73.777176,40.643456,0
          -73.777435,40.643211,0
          -73.777641,40.643024,0
        </coordinates>
      </LineString>
    </Placemark>
  </Document>
</kml>