<?xml version='1.0' encoding='utf-8'?>
<kml xmlns="http://www.opengis.net/kml/2.2">
  <Document>
    <Placemark>
      <name>DL5006-2023-09-11</name>
      <TimeStamp>
        <when>2023-09-11</when>
      </TimeStamp>
      <LineString>
        <altitudeMode>absolute</altitudeMode>
        <coordinates>
          -78.792618,35.87965,0
          -78.792412,35.879814,0
          -78.792068,35.8801,0
          -78.791649,35.88044,0
          -78.790985,35.88097,0
          -78.790253,35.881531,0
          -78.781876,35.888306,0
          -78.77739,35.892822,0
          -78.777382,35.893044,0
          -78.777596,35.893276,0
          -78.777863,35.89349,0
          -78.797745,35.87809,182.88
          -78.802986,35.873932,289.56
          -78.809853,35.867889,396.24
          -78.811943,35.86594,434.34
          -78.813988,35.863983,472.44
          -78.820267,35.858231,601.98
          -78.826668,35.852345,708.66
          -78.832985,35.846527,792.48
          -78.839607,35.840378,868.68
          -78.846306,35.834099,944.88
          -78.853378,35.827393,1043.94
          -78.860802,35.820599,1135.38
          -78.868805,35.813473,1234.44
          -78.877029,35.806,1310.64
          -78.885559,35.798492,1409.7
          -78.889023,35.796017,1447.8
          -78.892006,35.794296,1485.9
          -78.896317,35.792313,1539.24
          -78.90007,35.791035,1569.72
          -78.903923,35.789978,1607.82
          -78.908043,35.789063,1645.92
          -78.912163,35.788376,1684.02
          -78.916283,35.787872,1714.5
          -78.920349,35.78759,1737.36
          -78.924751,35.787552,1760.22
          -78.929047,35.787827,1775.46
          -78.933144,35.788475,1790.7
          -78.937744,35.789612,1798.32
          -78.941971,35.791035,1798.32
          -78.945358,35.792572,1798.32
          -78.949333,35.794712,1798.32
          -78.953133,35.79718,1798.32
          -78.956345,35.79974,1798.32
          -78.959427,35.802658,1790.7
          -78.96183,35.805542,1790.7
          -78.964119,35.808792,1798.32
          -78.966042,35.812309,1798.32
          -78.967567,35.815849,1798.32
          -78.968788,35.819759,1798.32
          -78.969612,35.822971,1805.94
          -78.970367,35.826973,1813.56
          -78.970779,35.830978,1821.18
          -78.970955,35.834515,1828.8
          -78.97081,35.838409,1828.8
          -78.970352,35.842209,1836.42
          -78.969498,35.846237,1844.04
          -78.968559,35.849552,1851.66
          -78.967041,35.853333,1859.28
          -78.965439,35.85672,1874.52
          -78.963417,35.860397,1882.14
          -78.961029,35.864227,1897.38
          -78.958679,35.867661,1912.62
          -78.956161,35.871002,1927.86
          -78.95359,35.874069,1950.72
          -78.950325,35.877529,1973.58
          -78.947296,35.880478,1996.44
          -78.943893,35.883488,2019.3
          -78.940742,35.886189,2049.78
          -78.936996,35.889359,2080.26
          -78.933502,35.892242,2118.36
          -78.929932,35.895172,2156.46
          -78.926483,35.898014,2202.18
          -78.923035,35.900852,2240.28
          -78.920052,35.903366,2278.38
          -78.902725,35.918015,2484.12
          -78.888588,35.930054,2651.76
          -78.870438,35.94545,2849.88
          -78.852852,35.960346,3040.38
          -78.835258,35.975384,3253.74
          -78.816681,35.991119,3436.62
          -78.798294,36.0065,3558.54
          -78.778038,36.023392,3627.12
          -78.757668,36.040466,3627.12
          -78.736206,36.058338,3627.12
          -78.716698,36.074707,3627.12
          -78.696213,36.091873,3627.12
          -78.673386,36.11087,3627.12
          -78.6521,36.128677,3627.12
          -78.630814,36.146347,3627.12
          -78.609467,36.164063,3627.12
          -78.588013,36.181961,3627.12
          -78.567238,36.199081,3627.12
          -78.545876,36.216988,3688.08
          -78.497726,36.256886,3931.92
          -78.452492,36.294266,4221.48
          -78.403076,36.337509,4556.76
          -78.40007,36.341236,4579.62
          -78.396439,36.345932,4625.34
          -78.393005,36.35051,4648.2
          -78.389114,36.355682,4693.92
          -78.386078,36.359619,4716.78
          -78.382355,36.364471,4754.88
          -78.378868,36.369049,4785.36
          -78.375092,36.373901,4815.84
          -78.336525,36.425171,5135.88
          -78.297501,36.476944,5425.44
          -78.256607,36.531124,5600.7
          -78.214531,36.586853,5806.44
          -78.171501,36.643799,6027.42
          -78.132019,36.695965,6248.4
          -78.086411,36.756317,6393.18
          -78.041611,36.815506,6400.8
          -77.995224,36.87645,6400.8
          -77.949249,36.93692,6400.8
          -77.906082,36.993572,6400.8
          -77.8582,37.056328,6400.8
          -77.810669,37.118317,6400.8
          -77.763741,37.179459,6400.8
          -77.714363,37.24379,6400.8
          -77.669395,37.302074,6400.8
          -77.623199,37.361984,6400.8
          -77.582108,37.41515,6400.8
          -77.537979,37.472176,6400.8
          -77.495888,37.526272,6400.8
          -77.455048,37.583019,6400.8
          -77.449524,37.593567,6400.8
          -77.446922,37.599171,6400.8
          -77.445313,37.602802,6400.8
          -77.442749,37.608948,6400.8
          -77.440346,37.615402,6400.8
          -77.438423,37.620895,6400.8
          -77.436668,37.626434,6400.8
          -77.434868,37.63213,6400.8
          -77.417427,37.687294,6400.8
          -77.398331,37.748657,6248.4
          -77.380768,37.805351,5951.22
          -77.362862,37.863373,5608.32
          -77.344948,37.921501,5196.84
          -77.327911,37.977493,4823.46
          -77.311378,38.030731,4526.28
          -77.295982,38.080708,4259.58
          -77.280228,38.130569,4000.5
          -77.265472,38.17749,3718.56
          -77.250015,38.226837,3413.76
          -77.243439,38.247646,3276.6
          -77.237045,38.26799,3147.06
          -77.230606,38.288471,3009.9
          -77.224129,38.308411,2872.74
          -77.215363,38.328415,2735.58
          -77.212852,38.332397,2705.1
          -77.210686,38.335556,2674.62
          -77.207733,38.339493,2651.76
          -77.204926,38.342983,2621.28
          -77.201645,38.346615,2590.8
          -77.198769,38.349564,2560.32
          -77.195198,38.352997,2537.46
          -77.191612,38.356251,2506.98
          -77.188148,38.359371,2484.12
          -77.184448,38.36272,2453.64
          -77.181114,38.365723,2430.78
          -77.177757,38.368774,2400.3
          -77.160149,38.384506,2263.14
          -77.142662,38.40033,2125.98
          -77.126343,38.415092,2011.68
          -77.113403,38.426777,1927.86
          -77.098328,38.440231,1874.52
          -77.084229,38.452801,1851.66
          -77.071289,38.464252,1805.94
          -77.057449,38.476593,1706.88
          -77.045715,38.486923,1600.2
          -77.03434,38.496964,1508.76
          -77.026794,38.503544,1447.8
          -77.020203,38.509968,1386.84
          -77.018402,38.512299,1363.98
          -77.016731,38.514725,1341.12
          -77.015198,38.517368,1325.88
          -77.013916,38.519928,1303.02
          -77.012787,38.522507,1287.78
          -77.01178,38.525654,1272.54
          -77.011047,38.528355,1257.3
          -77.010559,38.531147,1242.06
          -77.010277,38.53363,1226.82
          -77.010162,38.536423,1219.2
          -77.010132,38.538784,1203.96
          -77.010216,38.542053,1196.34
          -77.010399,38.544891,1181.1
          -77.010574,38.547729,1173.48
          -77.010803,38.550701,1158.24
          -77.010986,38.553772,1150.62
          -77.011169,38.55666,1135.38
          -77.011353,38.559731,1127.76
          -77.011475,38.562618,1112.52
          -77.012009,38.571167,1089.66
          -77.012573,38.579514,1059.18
          -77.013245,38.588688,1036.32
          -77.013924,38.597214,1013.46
          -77.014641,38.606049,990.6
          -77.015236,38.614517,967.74
          -77.015869,38.622856,944.88
          -77.016418,38.631233,914.4
          -77.016968,38.63924,891.54
          -77.017624,38.647202,868.68
          -77.018219,38.65448,845.82
          -77.018936,38.662079,822.96
          -77.019234,38.669312,800.1
          -77.019653,38.67625,777.24
          -77.020203,38.683559,762
          -77.020935,38.690636,739.14
          -77.021744,38.69783,731.52
          -77.022522,38.704514,731.52
          -77.023438,38.711491,731.52
          -77.02417,38.716938,723.9
          -77.025146,38.72493,693.42
          -77.026001,38.732208,655.32
          -77.026756,38.739212,601.98
          -77.027344,38.745659,556.26
          -77.028069,38.753403,510.54
          -77.028671,38.759903,464.82
          -77.029419,38.767914,426.72
          -77.030045,38.774185,388.62
          -77.03064,38.780529,358.14
          -77.031296,38.786774,312.42
          -77.031837,38.792542,281.94
          -77.032433,38.798447,251.46
          -77.03302,38.803944,220.98
          -77.033569,38.809902,182.88
          -77.034119,38.815674,152.4
          -77.034668,38.821121,121.92
          -77.035294,38.827469,83.82
          -77.035599,38.829941,60.96
          -77.036377,38.837601,22.86
          -77.037048,38.84412,0
          -77.03791,38.853115,0
          -77.038055,38.854568,0
          -77.038177,38.855465,0
          -77.038223,38.855747,0
          -77.038315,38.85601,0
          -77.038513,38.856304,0
          -77.038757,38.856537,0
          -77.039017,38.856758,0
          -77.03923,38.856861,0
          -77.039459,38.856869,0
          -77.039673,38.856674,0
          -77.039658,38.856434,0
          -77.039642,38.856232,0
          -77.039612,38.85601,0
          -77.039658,38.855778,0
          -77.039719,38.855576,0
          -77.039627,38.85537,0
          -77.039551,38.855164,0
          -77.039505,38.854923,0
          -77.039474,38.854694,0
          -77.039459,38.854443,0
          -77.039413,38.854099,0
          -77.039391,38.853756,0
          -77.039444,38.853535,0
          -77.039673,38.853436,0
          -77.039932,38.853405,0
          -77.040421,38.853333,0
          -77.040718,38.853264,0
          -77.041,38.853168,0
          -77.042191,38.852776,0
          -77.042122,38.852554,0
          -77.042015,38.85228,0
        </coordinates>
      </LineString>
    </Placemark>
  </Document>
</kml>