<?xml version='1.0' encoding='utf-8'?>
<kml xmlns="http://www.opengis.net/kml/2.2">
  <Document>
    <Placemark>
      <name>DL715-2025-12-14</name>
      <TimeStamp>
        <when>2025-12-14</when>
      </TimeStamp>
      <LineString>
        <altitudeMode>absolute</altitudeMode>
        <coordinates>
          -118.406494,33.946003,0
          -118.406281,33.946018,0
          -118.406059,33.946095,0
          -118.405853,33.946049,0
          -118.405869,33.946251,0
          -118.405891,33.946461,0
          -118.405922,33.946671,0
          -118.405952,33.946884,0
          -118.405975,33.947102,0
          -118.406006,33.947311,0
          -118.406006,33.947533,0
          -118.406006,33.947765,0
          -118.406006,33.948097,0
          -118.405991,33.948463,0
          -118.405777,33.948639,0
          -118.405548,33.948685,0
          -118.405304,33.948727,0
          -118.405037,33.948753,0
          -118.404823,33.948765,0
          -118.404579,33.948795,0
          -118.404366,33.948814,0
          -118.404106,33.948849,0
          -118.403847,33.948872,0
          -118.40358,33.948898,0
          -118.403046,33.948952,0
          -118.402802,33.948975,0
          -118.402504,33.949009,0
          -118.402245,33.949036,0
          -118.402016,33.949059,0
          -118.401802,33.949081,0
          -118.401566,33.949104,0
          -118.401352,33.949127,0
          -118.400902,33.949173,0
          -118.400635,33.949196,0
          -118.400276,33.949242,0
          -118.399956,33.949268,0
          -118.399628,33.94931,0
          -118.399361,33.949425,0
          -118.399178,33.949631,0
          -118.399124,33.949871,0
          -118.399155,33.950138,0
          -118.399216,33.950371,0
          -118.399429,33.950443,0
          -118.399658,33.950409,0
          -118.40078,33.950306,0
          -118.403511,33.95002,0
          -118.408012,33.94957,0
          -118.412552,33.949081,0
          -118.414177,33.948944,7.62
          -118.416077,33.94873,0
          -118.421234,33.948219,7.62
          -118.429581,33.94743,129.54
          -118.435936,33.946869,251.46
          -118.437775,33.946655,289.56
          -118.445663,33.945892,388.62
          -118.452133,33.945194,441.96
          -118.460587,33.944183,487.68
          -118.469696,33.943424,518.16
          -118.472046,33.943283,533.4
          -118.479698,33.942947,571.5
          -118.482056,33.942867,586.74
          -118.484634,33.942818,594.36
          -118.487602,33.942764,594.36
          -118.490128,33.942772,609.6
          -118.49276,33.942764,617.22
          -118.495171,33.942719,632.46
          -118.49791,33.94268,647.7
          -118.501167,33.942635,662.94
          -118.503639,33.942535,678.18
          -118.506546,33.942402,693.42
          -118.508896,33.942215,716.28
          -118.511818,33.941895,731.52
          -118.5149,33.941422,762
          -118.517761,33.940796,784.86
          -118.520119,33.940063,807.72
          -118.523087,33.938919,838.2
          -118.525497,33.93782,861.06
          -118.528191,33.936447,876.3
          -118.530975,33.934906,891.54
          -118.533173,33.933609,906.78
          -118.535645,33.93219,914.4
          -118.538277,33.930542,929.64
          -118.539452,33.92981,937.26
          -118.542938,33.927597,967.74
          -118.545288,33.926105,990.6
          -118.547638,33.924591,1013.46
          -118.550606,33.922714,1036.32
          -118.553078,33.921112,1059.18
          -118.555923,33.919266,1089.66
          -118.558273,33.917728,1120.14
          -118.560501,33.916286,1143
          -118.562965,33.914654,1173.48
          -118.565857,33.912781,1211.58
          -118.575668,33.906368,1333.5
          -118.585808,33.89978,1455.42
          -118.593582,33.894779,1554.48
          -118.610306,33.883072,1752.6
          -118.612686,33.880718,1783.08
          -118.614517,33.87867,1805.94
          -118.616241,33.876389,1836.42
          -118.617668,33.874153,1866.9
          -118.618881,33.871811,1889.76
          -118.620071,33.869175,1920.24
          -118.620789,33.867096,1950.72
          -118.621513,33.864487,1981.2
          -118.622185,33.861374,2019.3
          -118.622528,33.8587,2042.16
          -118.62265,33.856277,2065.02
          -118.62265,33.853813,2080.26
          -118.62236,33.850552,2103.12
          -118.621964,33.848099,2125.98
          -118.621155,33.845058,2148.84
          -118.620468,33.84301,2164.08
          -118.61927,33.839996,2186.94
          -118.617981,33.837479,2217.42
          -118.616417,33.834869,2240.28
          -118.614792,33.832443,2270.76
          -118.612915,33.829651,2301.24
          -118.611427,33.827499,2324.1
          -118.609482,33.824715,2354.58
          -118.607559,33.82196,2385.06
          -118.606049,33.819782,2415.54
          -118.604584,33.817703,2438.4
          -118.602509,33.814709,2468.88
          -118.601166,33.812714,2491.74
          -118.599655,33.810516,2506.98
          -118.59803,33.808182,2529.84
          -118.596291,33.805756,2560.32
          -118.584198,33.788406,2766.06
          -118.573761,33.773529,2933.7
          -118.56311,33.75824,3078.48
          -118.551064,33.741016,3192.78
          -118.53772,33.721802,3276.6
          -118.526505,33.708481,3398.52
          -118.523926,33.706192,3421.38
          -118.521133,33.703819,3444.24
          -118.518547,33.701889,3467.1
          -118.515068,33.699463,3497.58
          -118.512329,33.697723,3512.82
          -118.509178,33.695908,3535.68
          -118.505287,33.693859,3558.54
          -118.502258,33.692413,3581.4
          -118.497963,33.690598,3604.26
          -118.494614,33.689346,3627.12
          -118.491379,33.688271,3649.98
          -118.487549,33.687103,3672.84
          -118.484184,33.686142,3695.7
          -118.480713,33.685135,3718.56
          -118.476448,33.683941,3749.04
          -118.472916,33.682938,3771.9
          -118.468895,33.681755,3794.76
          -118.465179,33.680683,3817.62
          -118.460587,33.679321,3848.1
          -118.456718,33.678177,3870.96
          -118.453156,33.677097,3893.82
          -118.449829,33.676117,3916.68
          -118.39254,33.659088,4145.28
          -118.362869,33.652939,4206.24
          -118.357658,33.652428,4229.1
          -118.352905,33.652054,4244.34
          -118.349136,33.651867,4259.58
          -118.344727,33.65168,4274.82
          -118.339691,33.651634,4290.06
          -118.335228,33.65168,4305.3
          -118.330994,33.65181,4328.16
          -118.326569,33.652084,4351.02
          -118.321518,33.652496,4381.5
          -118.317093,33.652908,4411.98
          -118.312912,33.653358,4434.84
          -118.308517,33.653824,4457.7
          -118.303467,33.654335,4488.18
          -118.29921,33.654739,4511.04
          -118.294785,33.655197,4526.28
          -118.290581,33.655609,4549.14
          -118.285904,33.656059,4572
          -118.280823,33.656525,4594.86
          -118.212334,33.662888,4869.18
          -118.141876,33.669559,5135.88
          -118.068222,33.676483,5440.68
          -117.99585,33.683243,5737.86
          -117.921295,33.690132,6019.8
          -117.845467,33.697083,6225.54
          -117.767326,33.704178,6431.28
          -117.693214,33.710896,6652.26
          -117.614655,33.717926,6926.58
          -117.537979,33.72477,7178.04
          -117.456894,33.731937,7406.64
          -117.381577,33.738556,7597.14
          -117.3004,33.745716,7772.4
          -117.221947,33.750885,7924.8
          -117.140381,33.74968,8100.06
          -117.058182,33.748184,8275.32
          -116.972183,33.746414,8442.96
          -116.888031,33.744553,8595.36
          -116.801933,33.74263,8747.76
          -116.719093,33.740688,8930.64
          -116.63887,33.738781,9098.28
          -116.553223,33.736633,9265.92
          -116.468353,33.734451,9425.94
          -116.38826,33.732376,9563.1
          -116.303398,33.730042,9700.26
          -116.219322,33.727707,9837.42
          -116.134064,33.725418,9989.82
          -116.072014,33.729034,10058.4
          -116.065346,33.729904,10058.4
          -116.060356,33.730637,10058.4
          -116.055336,33.731426,10058.4
          -116.048973,33.732513,10058.4
          -116.043945,33.733429,10058.4
          -116.038719,33.734436,10058.4
          -116.033478,33.735523,10058.4
          -116.027733,33.736816,10058.4
          -116.023026,33.737915,10058.4
          -116.017586,33.739243,10058.4
          -116.011337,33.740875,10058.4
          -116.006432,33.742218,10058.4
          -115.999718,33.744087,10058.4
          -115.994553,33.745514,10058.4
          -115.98967,33.746887,10058.4
          -115.906158,33.769924,10058.4
          -115.825722,33.79216,10058.4
          -115.743713,33.814774,10058.4
          -115.659943,33.837891,10058.4
          -115.579033,33.860096,10058.4
          -115.496063,33.882813,10058.4
          -115.415192,33.904861,10058.4
          -115.333069,33.927155,10058.4
          -115.248657,33.949997,10058.4
          -115.167549,33.971558,10058.4
          -115.083908,33.993889,10058.4
          -115.00135,34.009003,10058.4
          -114.91716,34.021088,10058.4
          -114.832634,34.033493,10058.4
          -114.752655,34.045326,10058.4
          -114.667511,34.05785,10058.4
          -114.583397,34.070095,10058.4
          -114.498138,34.082523,10058.4
          -114.413635,34.094696,10058.4
          -114.329391,34.106827,10058.4
          -114.245087,34.118866,10058.4
          -114.160172,34.130951,10058.4
          -114.075851,34.142761,10058.4
          -113.988983,34.154938,10058.4
          -113.90448,34.166782,10058.4
          -113.822784,34.178055,10058.4
          -113.734726,34.190277,10058.4
          -113.651489,34.201675,10058.4
          -113.56424,34.213615,10058.4
          -113.477264,34.225533,10058.4
          -113.392693,34.236877,10058.4
          -113.30555,34.248573,10058.4
          -113.220406,34.259979,10058.4
          -113.132217,34.271667,10058.4
          -113.041809,34.283661,10058.4
          -112.959183,34.294601,10058.4
          -112.870842,34.306091,10058.4
          -112.786598,34.317032,10058.4
          -112.702072,34.327881,10058.4
          -112.611038,34.3396,10058.4
          -112.522644,34.350906,10058.4
          -112.438339,34.361572,10058.4
          -112.35054,34.372684,10058.4
          -112.261162,34.383949,10058.4
          -112.178192,34.394375,10058.4
          -112.093849,34.404804,10058.4
          -112.003616,34.415928,10058.4
          -111.920189,34.426163,10058.4
          -111.833153,34.436737,10058.4
          -111.74366,34.447586,10058.4
          -111.654907,34.458294,10058.4
          -111.56723,34.468643,10058.4
          -111.478889,34.479218,10058.4
          -111.390999,34.489655,10058.4
          -111.301147,34.500275,10058.4
          -111.219193,34.509842,10058.4
          -111.135338,34.519455,10058.4
          -111.050812,34.529114,10058.4
          -110.963058,34.5392,10058.4
          -110.881927,34.548386,10058.4
          -110.796371,34.558052,10058.4
          -110.710182,34.567795,10058.4
          -110.623917,34.577374,10058.4
          -110.537201,34.587021,10058.4
          -110.448975,34.596634,10058.4
          -110.362183,34.60619,10058.4
          -110.275383,34.61573,10058.4
          -110.186981,34.62532,10058.4
          -110.102013,34.634445,10058.4
          -110.013,34.643875,10058.4
          -109.924622,34.653114,10058.4
          -109.83699,34.662323,10058.4
          -109.7528,34.671066,10058.4
          -109.664093,34.680206,10058.4
          -109.576462,34.689194,10058.4
          -109.488174,34.698212,10058.4
          -109.399612,34.707092,10058.4
          -109.315857,34.715542,10058.4
          -109.226128,34.72467,10058.4
          -109.137848,34.733368,10058.4
          -109.048752,34.742168,10058.4
          -108.957642,34.751038,10058.4
          -108.869408,34.759552,10058.4
          -108.778549,34.768238,10058.4
          -108.688034,34.776802,10058.4
          -108.597778,34.785461,10058.4
          -108.512589,34.793423,10058.4
          -108.424461,34.801666,10058.4
          -108.335281,34.809814,10058.4
          -108.244858,34.818096,10058.4
          -108.156197,34.826065,10058.4
          -108.068504,34.834015,10058.4
          -107.980331,34.841835,10058.4
          -107.89241,34.84964,10058.4
          -107.803963,34.857422,10058.4
          -107.715286,34.865067,10058.4
          -107.624817,34.872887,10058.4
          -107.5383,34.880241,10058.4
          -107.449722,34.887829,10058.4
          -107.35994,34.89537,10058.4
          -107.270393,34.902912,10058.4
          -107.180954,34.910313,10058.4
          -107.092369,34.917526,10058.4
          -107.002243,34.92485,10058.4
          -106.914352,34.931763,10058.4
          -106.829544,34.938492,10058.4
          -106.739563,34.945648,10058.4
          -106.65258,34.952454,10058.4
          -106.566353,34.959103,10058.4
          -106.482124,34.965546,10058.4
          -106.392502,34.972275,10058.4
          -106.308197,34.978638,10058.4
          -106.224007,34.984955,10058.4
          -106.136002,34.991501,10058.4
          -106.05114,34.997772,10058.4
          -105.962738,35.00407,10058.4
          -105.874512,35.010361,10058.4
          -105.784439,35.016724,10058.4
          -105.70182,35.022629,10058.4
          -105.617126,35.028652,10058.4
          -105.533211,35.034348,10058.4
          -105.448402,35.039978,10058.4
          -105.36158,35.045746,10058.4
          -105.271667,35.051743,10058.4
          -105.182884,35.057556,10058.4
          -105.094238,35.063377,10058.4
          -105.005951,35.069057,10058.4
          -104.921341,35.074493,10058.4
          -104.836807,35.079765,10058.4
          -104.752518,35.08498,10058.4
          -104.662918,35.090473,10058.4
          -104.57135,35.096054,10058.4
          -104.481323,35.101456,10058.4
          -104.395172,35.106537,10058.4
          -104.302254,35.11198,10058.4
          -104.21199,35.117249,10058.4
          -104.126846,35.122101,10058.4
          -104.041672,35.126923,10058.4
          -103.950806,35.13195,10058.4
          -103.865723,35.136604,10058.4
          -103.77697,35.141399,10058.4
          -103.692337,35.145821,10058.4
          -103.601692,35.150528,10058.4
          -103.516884,35.154877,10058.4
          -103.423279,35.159775,10058.4
          -103.335609,35.164169,10058.4
          -103.245049,35.168728,10058.4
          -103.154556,35.173233,10058.4
          -103.064003,35.17757,10058.4
          -102.972221,35.181885,10058.4
          -102.793465,35.190281,10058.4
          -102.701485,35.194427,10058.4
          -102.615852,35.198238,10058.4
          -102.527847,35.202011,10058.4
          -102.436584,35.205875,10058.4
          -102.34491,35.20974,10058.4
          -102.253761,35.213463,10058.4
          -102.162323,35.217186,10058.4
          -102.072685,35.220795,10058.4
          -101.979584,35.224548,10058.4
          -101.887146,35.228127,10058.4
          -101.798027,35.23143,10058.4
          -101.705872,35.234737,10058.4
          -101.618042,35.237595,10058.4
          -101.528259,35.240067,10058.4
          -101.440201,35.242401,10058.4
          -101.351509,35.244781,10058.4
          -101.262817,35.247116,10058.4
          -101.178879,35.24926,10058.4
          -101.089645,35.251591,10058.4
          -101.000412,35.253685,10058.4
          -100.912003,35.255768,10058.4
          -100.826851,35.257828,10058.4
          -100.738609,35.259781,10058.4
          -100.649757,35.261627,10058.4
          -100.560608,35.263508,10058.4
          -100.471085,35.265228,10058.4
          -100.386169,35.266953,10058.4
          -100.296524,35.268627,10058.4
          -100.211334,35.270187,10058.4
          -100.12236,35.271652,10058.4
          -100.033554,35.273003,10058.4
          -99.949287,35.274353,10058.4
          -99.864746,35.275589,10058.4
          -99.776428,35.276867,10058.4
          -99.688339,35.278152,10058.4
          -99.602623,35.279251,10058.4
          -99.513992,35.280304,10058.4
          -99.432053,35.281219,10058.4
          -99.3405,35.282089,10058.4
          -99.252205,35.283005,10058.4
          -99.163513,35.283691,10058.4
          -99.078712,35.28447,10058.4
          -98.990082,35.285156,10058.4
          -98.904533,35.285805,10058.4
          -98.813782,35.286457,10058.4
          -98.722733,35.286831,10058.4
          -98.632797,35.287109,10058.4
          -98.542572,35.287388,10058.4
          -98.455696,35.287766,10058.4
          -98.36644,35.28804,10058.4
          -98.276329,35.28841,10058.4
          -98.188995,35.288544,10058.4
          -98.099434,35.288506,10058.4
          -98.013763,35.288364,10058.4
          -97.924179,35.28804,10058.4
          -97.830971,35.287666,10058.4
          -97.742157,35.287445,10058.4
          -97.651917,35.287445,10058.4
          -97.566071,35.287388,10058.4
          -97.479935,35.287064,10058.4
          -97.391228,35.286549,10058.4
          -97.301056,35.285851,10058.4
          -97.210922,35.285156,10058.4
          -97.118683,35.284424,10058.4
          -97.033371,35.283783,10058.4
          -96.940956,35.282867,10058.4
          -96.848984,35.281803,10058.4
          -96.763626,35.280853,10058.4
          -96.671738,35.279892,10058.4
          -96.582329,35.278683,10058.4
          -96.488571,35.27742,10058.4
          -96.396851,35.276077,10058.4
          -96.309875,35.274902,10058.4
          -96.223068,35.273666,10058.4
          -96.130547,35.272259,10058.4
          -96.039108,35.270737,10058.4
          -95.946518,35.269135,10058.4
          -95.858696,35.267555,10058.4
          -95.771774,35.265884,10058.4
          -95.681419,35.264099,10058.4
          -95.595535,35.26236,10058.4
          -95.502487,35.260391,10058.4
          -95.410934,35.25824,10058.4
          -95.322128,35.25618,10058.4
          -95.230698,35.25412,10058.4
          -95.14283,35.251961,10058.4
          -95.051361,35.249725,10058.4
          -94.960152,35.247444,10058.4
          -94.872086,35.245258,10058.4
          -94.780281,35.24279,10058.4
          -94.687775,35.240139,10058.4
          -94.60006,35.237576,10058.4
          -94.507492,35.234783,10058.4
          -94.420509,35.232147,10058.4
          -94.329926,35.229401,10058.4
          -94.241791,35.226654,10058.4
          -94.150368,35.223724,10058.4
          -94.055725,35.220539,10058.4
          -93.9636,35.217361,10058.4
          -93.874054,35.214207,10058.4
          -93.782211,35.210903,10058.4
          -93.688881,35.207657,10058.4
          -93.600822,35.204498,10058.4
          -93.507668,35.200928,10058.4
          -93.420616,35.197449,10058.4
          -93.326401,35.193726,10058.4
          -93.234917,35.190079,10058.4
          -93.143097,35.186325,10058.4
          -93.052689,35.182709,10058.4
          -92.960365,35.178909,10058.4
          -92.867317,35.174919,10058.4
          -92.776108,35.170868,10058.4
          -92.684364,35.166641,10058.4
          -92.597977,35.16272,10058.4
          -92.50351,35.15844,10058.4
          -92.408699,35.154099,10058.4
          -92.315872,35.149612,10058.4
          -92.223526,35.145172,10058.4
          -92.131065,35.140686,10058.4
          -92.036339,35.13588,10058.4
          -91.944412,35.131111,10058.4
          -91.850914,35.126312,10058.4
          -91.758041,35.121429,10058.4
          -91.664314,35.116447,10058.4
          -91.572128,35.111652,10058.4
          -91.478279,35.106628,10058.4
          -91.386627,35.101505,10058.4
          -91.297302,35.096478,10058.4
          -91.203751,35.091122,10058.4
          -91.112823,35.085911,10058.4
          -91.021667,35.080601,10058.4
          -90.929352,35.07518,10058.4
          -90.839333,35.069824,10058.4
          -90.747292,35.064102,10058.4
          -90.654259,35.058304,10058.4
          -90.561447,35.052532,10058.4
          -90.468582,35.046761,10058.4
          -90.375992,35.040848,10058.4
          -90.283905,35.034988,10058.4
          -90.190598,35.029022,10058.4
          -90.096466,35.022858,10058.4
          -90.00206,35.016407,10058.4
          -89.909706,35.004768,10058.4
          -89.818039,34.991966,10058.4
          -89.725456,34.979095,10058.4
          -89.632935,34.965946,10058.4
          -89.542862,34.953144,10058.4
          -89.449112,34.939682,10058.4
          -89.357689,34.926636,10058.4
          -89.265633,34.913296,10058.4
          -89.174179,34.899902,10058.4
          -89.082306,34.88649,10058.4
          -88.989655,34.872887,10058.4
          -88.899292,34.859528,10058.4
          -88.807182,34.84584,10058.4
          -88.714256,34.831966,10058.4
          -88.624252,34.818562,10058.4
          -88.532822,34.804779,10058.4
          -88.442238,34.791092,10058.4
          -88.348801,34.776764,10058.4
          -88.257324,34.762665,10058.4
          -88.166199,34.748592,10058.4
          -88.072685,34.734055,10058.4
          -87.982178,34.719917,10058.4
          -87.892113,34.705811,10058.4
          -87.798843,34.691006,10058.4
          -87.707054,34.676376,10058.4
          -87.614006,34.661636,10058.4
          -87.521782,34.64711,10058.4
          -87.430573,34.632492,10058.4
          -87.338104,34.616291,10058.4
          -87.245468,34.598785,10058.4
          -87.151291,34.580978,10058.4
          -87.059311,34.563995,10058.4
          -86.966263,34.548065,10058.4
          -86.878052,34.528027,10058.4
          -86.788391,34.505032,9997.44
          -86.69928,34.481964,9837.42
          -86.609375,34.458481,9677.4
          -86.52002,34.434875,9525
          -86.429611,34.41095,9364.98
          -86.342178,34.387672,9204.96
          -86.256462,34.365005,9052.56
          -86.167847,34.341568,8892.54
          -86.082626,34.319099,8724.9
          -85.995941,34.296711,8389.62
          -85.910896,34.274734,8046.72
          -85.82682,34.253082,7703.82
          -85.744034,34.231339,7360.92
          -85.66584,34.210785,7033.26
          -85.591446,34.191269,6713.22
          -85.514442,34.170914,6377.94
          -85.438766,34.150864,6042.66
          -85.366226,34.131683,5722.62
          -85.292984,34.112873,5379.72
          -85.218887,34.093742,4991.1
          -85.145813,34.074703,4610.1
          -85.074036,34.054047,4213.86
          -85.07,34.052307,4198.62
          -85.064842,34.049881,4175.76
          -85.060959,34.047935,4160.52
          -85.055817,34.045166,4145.28
          -85.05217,34.04306,4130.04
          -85.048195,34.040634,4122.42
          -85.04483,34.038483,4114.8
          -85.040291,34.035461,4107.18
          -85.036476,34.032898,4099.56
          -85.033791,34.031067,4091.94
          -85.029259,34.028057,4076.7
          -85.025658,34.025665,4069.08
          -85.020782,34.022415,4053.84
          -85.016968,34.019943,4046.22
          -85.013519,34.017673,4038.6
          -85.010086,34.015442,4030.98
          -84.952126,33.977734,3863.34
          -84.894554,33.939743,3703.32
          -84.840889,33.904228,3550.92
          -84.81546,33.88765,3512.82
          -84.793854,33.873596,3512.82
          -84.772804,33.859772,3520.44
          -84.747299,33.843063,3512.82
          -84.725708,33.828766,3512.82
          -84.704422,33.814663,3512.82
          -84.683418,33.800694,3512.82
          -84.662132,33.786404,3512.82
          -84.644562,33.774673,3512.82
          -84.625687,33.76215,3528.06
          -84.609245,33.752243,3520.44
          -84.60125,33.748371,3520.44
          -84.598259,33.747025,3512.82
          -84.594612,33.745483,3512.82
          -84.591866,33.744366,3505.2
          -84.588943,33.743298,3497.58
          -84.586143,33.742271,3482.34
          -84.582886,33.741203,3459.48
          -84.57991,33.740223,3444.24
          -84.576988,33.739388,3421.38
          -84.574097,33.738602,3406.14
          -84.571213,33.73785,3383.28
          -84.567711,33.737045,3360.42
          -84.564857,33.7365,3345.18
          -84.561478,33.735847,3329.94
          -84.558502,33.735336,3314.7
          -84.555542,33.734848,3299.46
          -84.552406,33.734436,3284.22
          -84.549438,33.73407,3268.98
          -84.546494,33.733753,3253.74
          -84.5438,33.733566,3238.5
          -84.539909,33.733292,3215.64
          -84.53727,33.733154,3200.4
          -84.533852,33.733017,3177.54
          -84.530983,33.732964,3162.3
          -84.527603,33.732964,3147.06
          -84.524658,33.732971,3131.82
          -84.521973,33.732971,3116.58
          -84.518738,33.732964,3101.34
          -84.515358,33.732971,3086.1
          -84.511993,33.732971,3070.86
          -84.509064,33.732964,3055.62
          -84.506279,33.732925,3040.38
          -84.487442,33.732914,2948.94
          -84.469391,33.732971,2865.12
          -84.448425,33.7332,2766.06
          -84.43045,33.733379,2651.76
          -84.410706,33.733429,2514.6
          -84.389938,33.733196,2377.44
          -84.372826,33.733055,2316.48
          -84.353928,33.733017,2225.04
          -84.337219,33.733017,2125.98
          -84.321838,33.732964,2049.78
          -84.303589,33.732834,1958.34
          -84.288399,33.732788,1866.9
          -84.269714,33.732914,1760.22
          -84.252861,33.733063,1668.78
          -84.242546,33.73233,1615.44
          -84.240082,33.731735,1600.2
          -84.237785,33.731003,1584.96
          -84.23555,33.730076,1577.34
          -84.232964,33.728714,1562.1
          -84.231033,33.72747,1554.48
          -84.229149,33.726013,1546.86
          -84.227303,33.724319,1539.24
          -84.225708,33.72258,1531.62
          -84.223991,33.720245,1516.38
          -84.222733,33.718063,1508.76
          -84.221878,33.716156,1501.14
          -84.221138,33.71402,1493.52
          -84.220566,33.711826,1485.9
          -84.220215,33.709641,1478.28
          -84.220047,33.707638,1470.66
          -84.219933,33.704845,1463.04
          -84.219879,33.702518,1455.42
          -84.219818,33.700188,1455.42
          -84.219788,33.698364,1447.8
          -84.219734,33.695618,1440.18
          -84.219681,33.693466,1424.94
          -84.21962,33.691177,1417.32
          -84.219589,33.689156,1402.08
          -84.219528,33.686874,1394.46
          -84.219513,33.685364,1386.84
          -84.219757,33.681942,1371.6
          -84.220161,33.679798,1356.36
          -84.220688,33.677719,1348.74
          -84.221527,33.675659,1341.12
          -84.222595,33.673599,1341.12
          -84.223877,33.671654,1333.5
          -84.225197,33.670025,1333.5
          -84.227074,33.668106,1333.5
          -84.228424,33.666916,1325.88
          -84.230576,33.665321,1325.88
          -84.232635,33.664158,1318.26
          -84.234535,33.663208,1310.64
          -84.236938,33.662201,1303.02
          -84.238876,33.661457,1295.4
          -84.240707,33.660854,1287.78
          -84.243385,33.659912,1264.92
          -84.245522,33.659271,1257.3
          -84.247398,33.658665,1242.06
          -84.249573,33.658012,1226.82
          -84.251572,33.657394,1211.58
          -84.254318,33.656616,1196.34
          -84.256279,33.656021,1181.1
          -84.258469,33.65538,1165.86
          -84.260727,33.654709,1150.62
          -84.263123,33.654007,1135.38
          -84.265305,33.653366,1112.52
          -84.267265,33.652771,1104.9
          -84.275833,33.650425,1036.32
          -84.278366,33.649887,1021.08
          -84.280777,33.649475,998.22
          -84.282516,33.649292,990.6
          -84.284935,33.649075,975.36
          -84.287109,33.648983,960.12
          -84.28894,33.648983,952.5
          -84.290924,33.648972,944.88
          -84.292992,33.649017,937.26
          -84.295181,33.649075,929.64
          -84.297195,33.649155,914.4
          -84.299072,33.649166,906.78
          -84.301064,33.649246,891.54
          -84.30336,33.649261,883.92
          -84.305359,33.649353,868.68
          -84.307312,33.649399,861.06
          -84.309143,33.649448,853.44
          -84.311028,33.649494,838.2
          -84.312729,33.649521,822.96
          -84.320122,33.649567,754.38
          -84.326683,33.649475,693.42
          -84.331169,33.649494,662.94
          -84.332825,33.649494,655.32
          -84.334488,33.649494,647.7
          -84.336205,33.64954,632.46
          -84.337784,33.649567,624.84
          -84.339798,33.649567,609.6
          -84.343185,33.649586,579.12
          -84.34462,33.649567,571.5
          -84.346466,33.649521,556.26
          -84.347755,33.649521,541.02
          -84.349724,33.649475,525.78
          -84.352684,33.649448,495.3
          -84.359497,33.64954,434.34
          -84.365555,33.64954,396.24
          -84.370308,33.649586,373.38
          -84.376793,33.649567,342.9
          -84.381561,33.649567,320.04
          -84.388176,33.649521,281.94
          -84.394623,33.64954,251.46
          -84.401062,33.649521,220.98
          -84.40773,33.64954,190.5
          -84.414886,33.64954,152.4
          -84.421501,33.649559,0
          -84.425056,33.649551,0
          -84.427605,33.649555,0
          -84.429718,33.64954,0
          -84.43,33.649532,0
          -84.430664,33.649483,0
          -84.431847,33.649239,0
          -84.432159,33.649132,0
          -84.432388,33.64904,0
          -84.432709,33.648903,0
          -84.433014,33.648766,0
          -84.433311,33.64864,0
          -84.433563,33.64856,0
          -84.433884,33.648495,0
          -84.434151,33.648457,0
          -84.434837,33.64843,0
          -84.435081,33.648441,0
          -84.435455,33.648445,0
          -84.435814,33.648445,0
          -84.436432,33.648441,0
          -84.436684,33.648441,0
          -84.437386,33.648445,0
          -84.437683,33.648445,0
          -84.437897,33.648445,0
          -84.438156,33.648434,0
          -84.438744,33.648251,0
          -84.439018,33.64806,0
          -84.439308,33.64793,0
          -84.439522,33.647869,0
          -84.439751,33.647839,0
          -84.440002,33.64785,0
          -84.440338,33.64782,0
          -84.440666,33.647839,0
          -84.440918,33.647861,0
          -84.441147,33.647839,0
          -84.441391,33.647839,0
          -84.44162,33.647839,0
          -84.441948,33.647839,0
          -84.442162,33.647839,0
          -84.442436,33.647839,0
          -84.442688,33.647789,0
          -84.442917,33.647629,0
          -84.443161,33.647339,0
          -84.443336,33.646969,0
          -84.443352,33.646759,0
          -84.44323,33.64629,0
          -84.443031,33.64603,0
          -84.442802,33.645821,0
          -84.442459,33.645748,0
          -84.442238,33.645748,0
          -84.442001,33.645771,0
          -84.441757,33.64576,0
          -84.441521,33.64571,0
          -84.441193,33.645569,0
          -84.440941,33.64542,0
          -84.440689,33.645248,0
          -84.440453,33.645069,0
          -84.440422,33.644829,0
          -84.44046,33.64455,0
          -84.440308,33.644341,0
          -84.440102,33.644241,0
          -84.439827,33.644249,0
          -84.439552,33.644329,0
          -84.439293,33.644348,0
          -84.43882,33.644402,0
          -84.438599,33.644421,0
          -84.438362,33.64447,0
          -84.438103,33.644482,0
          -84.437866,33.644531,0
          -84.437622,33.644539,0
          -84.437317,33.644566,0
          -84.437042,33.644581,0
          -84.436752,33.644592,0
          -84.436249,33.644581,0
          -84.435646,33.6446,0
          -84.435127,33.6446,0
          -84.434921,33.6446,0
          -84.434601,33.6446,0
          -84.434288,33.6446,0
          -84.433983,33.6446,0
          -84.433769,33.6446,0
          -84.433563,33.6446,0
          -84.433258,33.6446,0
          -84.432938,33.6446,0
          -84.432648,33.6446,0
          -84.432381,33.6446,0
          -84.432152,33.6446,0
          -84.431938,33.6446,0
          -84.431702,33.644569,0
          -84.431473,33.644428,0
          -84.431313,33.644161,0
          -84.431297,33.643929,0
          -84.431297,33.643688,0
          -84.431313,33.643459,0
          -84.431297,33.643242,0
          -84.431297,33.642929,0
          -84.431297,33.642719,0
          -84.431297,33.642471,0
          -84.431313,33.642231,0
          -84.431313,33.64201,0
          -84.431305,33.641674,0
          -84.431305,33.641384,0
          -84.431305,33.641148,0
          -84.431305,33.640835,0
          -84.431305,33.640297,0
          -84.431305,33.639858,0
          -84.431305,33.639019,0
          -84.43129,33.638546,0
          -84.43129,33.638065,0
          -84.43129,33.637714,0
          -84.43129,33.637493,0
          -84.43129,33.637264,0
          -84.431335,33.636993,0
          -84.431541,33.636772,0
          -84.431755,33.636692,0
          -84.432007,33.636658,0
          -84.432213,33.636646,0
          -84.43248,33.636646,0
          -84.432739,33.636646,0
          -84.432945,33.636635,0
          -84.433212,33.636635,0
          -84.433533,33.636646,0
          -84.434006,33.636646,0
          -84.434212,33.636681,0
          -84.434425,33.636806,0
          -84.43454,33.637024,0
          -84.43457,33.637241,0
          -84.434586,33.63747,0
          -84.434586,33.637699,0
          -84.434586,33.637917,0
          -84.434555,33.638145,0
          -84.434196,33.638355,0
          -84.433929,33.638531,0
          -84.433937,33.638741,0
          -84.433968,33.63903,0
          -84.433922,33.639336,0
          -84.433922,33.639648,0
          -84.433922,33.640675,0
          -84.433922,33.641079,0
          -84.433922,33.641304,0
          -84.433754,33.64151,0
          -84.433365,33.641521,0
          -84.433151,33.641521,0
        </coordinates>
      </LineString>
    </Placemark>
  </Document>
</kml>