<?xml version='1.0' encoding='utf-8'?>
<kml xmlns="http://www.opengis.net/kml/2.2">
  <Document>
    <Placemark>
      <name>DL919-2026-02-26</name>
      <TimeStamp>
        <when>2026-02-26</when>
      </TimeStamp>
      <LineString>
        <altitudeMode>absolute</altitudeMode>
        <coordinates>
          -84.432152,33.64159,0
          -84.431931,33.64159,0
          -84.431702,33.641613,0
          -84.431488,33.641567,0
          -84.431335,33.641777,0
          -84.43132,33.642101,0
          -84.431305,33.642792,0
          -84.431305,33.643284,0
          -84.431305,33.643719,0
          -84.43129,33.644142,0
          -84.431175,33.644375,0
          -84.431305,33.643284,0
          -84.430771,33.644611,0
          -84.43055,33.6446,0
          -84.430321,33.644588,0
          -84.430061,33.6446,0
          -84.429749,33.6446,0
          -84.429512,33.6446,0
          -84.429138,33.6446,0
          -84.428864,33.6446,0
          -84.428581,33.6446,0
          -84.428169,33.6446,0
          -84.427872,33.6446,0
          -84.427567,33.644619,0
          -84.427361,33.64465,0
          -84.427147,33.64465,0
          -84.426941,33.644691,0
          -84.426697,33.644691,0
          -84.426468,33.644691,0
          -84.426231,33.64468,0
          -84.425987,33.64468,0
          -84.425743,33.64468,0
          -84.425339,33.64468,0
          -84.425079,33.64468,0
          -84.424667,33.64468,0
          -84.424377,33.644691,0
          -84.424072,33.64468,0
          -84.423622,33.64468,0
          -84.423317,33.644691,0
          -84.42308,33.644691,0
          -84.422722,33.644699,0
          -84.422447,33.644783,0
          -84.422104,33.644932,0
          -84.421608,33.64518,0
          -84.42099,33.645451,0
          -84.420578,33.64547,0
          -84.420311,33.645439,0
          -84.420052,33.645401,0
          -84.419777,33.645409,0
          -84.419487,33.645409,0
          -84.41906,33.64542,0
          -84.41861,33.645409,0
          -84.418137,33.64542,0
          -84.417847,33.64542,0
          -84.416901,33.64542,0
          -84.416573,33.64542,0
          -84.416267,33.645439,0
          -84.415924,33.645432,0
          -84.415695,33.645424,0
          -84.415314,33.645424,0
          -84.415108,33.645424,0
          -84.414398,33.645409,0
          -84.413986,33.645439,0
          -84.413719,33.645439,0
          -84.413467,33.645439,0
          -84.413193,33.645439,0
          -84.412918,33.645439,0
          -84.412521,33.64542,0
          -84.41227,33.645409,0
          -84.411819,33.645432,0
          -84.411476,33.645435,0
          -84.411148,33.645432,0
          -84.410873,33.645424,0
          -84.410606,33.645424,0
          -84.410271,33.645424,0
          -84.409218,33.645424,0
          -84.408501,33.64542,0
          -84.408218,33.645466,0
          -84.407959,33.645561,0
          -84.4076,33.645664,0
          -84.407257,33.645699,0
          -84.407005,33.645699,0
          -84.406715,33.645699,0
          -84.406456,33.645699,0
          -84.406197,33.645699,0
          -84.405945,33.645699,0
          -84.405739,33.645748,0
          -84.405678,33.646,0
          -84.40567,33.646271,0
          -84.40567,33.646515,0
          -84.405663,33.646717,0
          -84.405884,33.646854,0
          -84.406097,33.646797,0
          -84.406311,33.646805,0
          -84.407661,33.646805,0
          -84.411201,33.64679,0
          -84.418449,33.646801,0
          -84.425407,33.646801,0
          -84.432709,33.646801,0
          -84.438057,33.646912,518.16
          -84.439461,33.647003,541.02
          -84.441368,33.647232,563.88
          -84.443497,33.647724,601.98
          -84.444786,33.648148,624.84
          -84.446075,33.648651,655.32
          -84.448242,33.64954,701.04
          -84.449905,33.650238,731.52
          -84.451569,33.651031,754.38
          -84.452805,33.651581,769.62
          -84.454765,33.652542,800.1
          -84.45639,33.653412,815.34
          -84.457855,33.654148,830.58
          -84.459755,33.655151,845.82
          -84.461266,33.655975,861.06
          -84.46283,33.656757,868.68
          -84.464554,33.657688,883.92
          -84.466209,33.658573,891.54
          -84.46788,33.659454,899.16
          -84.469391,33.660233,906.78
          -84.471016,33.661057,922.02
          -84.472702,33.661926,929.64
          -84.474548,33.662888,937.26
          -84.480042,33.665726,975.36
          -84.487328,33.669434,1013.46
          -84.495506,33.673653,1059.18
          -84.50106,33.676392,1089.66
          -84.509865,33.68074,1120.14
          -84.518394,33.684826,1165.86
          -84.527832,33.689251,1211.58
          -84.534698,33.692463,1257.3
          -84.544617,33.696945,1371.6
          -84.554443,33.701214,1493.52
          -84.564224,33.705311,1577.34
          -84.579788,33.712013,1737.36
          -84.597015,33.719463,1912.62
          -84.612579,33.724674,2034.54
          -84.614578,33.725235,2057.4
          -84.617386,33.726025,2080.26
          -84.620529,33.726864,2110.74
          -84.623222,33.727562,2133.6
          -84.625511,33.728119,2156.46
          -84.628807,33.728943,2186.94
          -84.631638,33.72961,2217.42
          -84.636932,33.730957,2286
          -84.639473,33.731659,2316.48
          -84.642151,33.732468,2346.96
          -84.644722,33.733337,2377.44
          -84.647644,33.734344,2415.54
          -84.650002,33.735149,2438.4
          -84.652344,33.735943,2468.88
          -84.654984,33.736824,2491.74
          -84.658119,33.737823,2522.22
          -84.660706,33.738594,2545.08
          -84.662643,33.739155,2560.32
          -84.665634,33.739975,2583.18
          -84.668434,33.740799,2606.04
          -84.670792,33.74144,2621.28
          -84.687378,33.746017,2720.34
          -84.70414,33.750732,2842.26
          -84.724159,33.75647,2987.04
          -84.741379,33.76038,3055.62
          -84.743546,33.760666,3063.24
          -84.746521,33.760895,3070.86
          -84.74968,33.761078,3070.86
          -84.753242,33.761124,3070.86
          -84.755539,33.761124,3070.86
          -84.759232,33.761078,3070.86
          -84.762718,33.760986,3063.24
          -84.765572,33.760849,3063.24
          -84.768661,33.760666,3055.62
          -84.771881,33.760475,3063.24
          -84.775772,33.760197,3063.24
          -84.779533,33.759933,3063.24
          -84.782524,33.759731,3055.62
          -84.785553,33.759495,3055.62
          -84.788834,33.759247,3055.62
          -84.792313,33.758972,3055.62
          -84.813248,33.757401,3055.62
          -84.834251,33.755817,3055.62
          -84.858055,33.753632,3055.62
          -84.877846,33.749817,3055.62
          -84.881775,33.748901,3055.62
          -84.88501,33.748138,3055.62
          -84.888107,33.747391,3055.62
          -84.891418,33.746601,3055.62
          -84.894722,33.745834,3055.62
          -84.898109,33.744972,3055.62
          -84.919662,33.739609,3063.24
          -84.939362,33.734638,3086.1
          -84.959961,33.729424,3177.54
          -84.979591,33.724491,3291.84
          -85.00341,33.718323,3406.14
          -85.024033,33.71315,3535.68
          -85.044708,33.70787,3634.74
          -85.065598,33.702564,3665.22
          -85.116127,33.689621,3779.52
          -85.168648,33.676025,4175.76
          -85.210075,33.667324,4465.32
          -85.214165,33.666916,4495.8
          -85.218086,33.66655,4518.66
          -85.221466,33.666298,4541.52
          -85.225006,33.666065,4564.38
          -85.228271,33.665833,4579.62
          -85.232552,33.665588,4602.48
          -85.235886,33.665367,4617.72
          -85.239273,33.665176,4640.58
          -85.242081,33.664993,4655.82
          -85.295441,33.661148,4953
          -85.350204,33.65601,5234.94
          -85.406052,33.65266,5471.16
          -85.409378,33.652847,5486.4
          -85.412704,33.653046,5501.64
          -85.417038,33.653358,5516.88
          -85.4207,33.653637,5532.12
          -85.423523,33.65387,5547.36
          -85.42778,33.654236,5562.6
          -85.432144,33.654613,5585.46
          -85.435471,33.654942,5600.7
          -85.439011,33.655266,5615.94
          -85.493317,33.660667,5806.44
          -85.550537,33.667648,6057.9
          -85.60141,33.672306,6271.26
          -85.604347,33.672089,6278.88
          -85.608841,33.671513,6286.5
          -85.612587,33.670898,6301.74
          -85.616005,33.67012,6309.36
          -85.620056,33.669044,6324.6
          -85.623383,33.668022,6339.84
          -85.627609,33.666641,6355.08
          -85.63131,33.665314,6377.94
          -85.634674,33.664032,6393.18
          -85.638771,33.662483,6416.04
          -85.64196,33.66124,6431.28
          -85.646095,33.65955,6454.14
          -85.649582,33.658154,6477
          -85.652275,33.657036,6484.62
          -85.656342,33.655361,6507.48
          -85.659775,33.653915,6522.72
          -85.663536,33.652313,6537.96
          -85.666901,33.650894,6553.2
          -85.719147,33.627869,6835.14
          -85.770096,33.604244,7147.56
          -85.817642,33.581108,7307.58
          -85.868568,33.556202,7315.2
          -85.91748,33.53215,7315.2
          -85.967735,33.507694,7482.84
          -86.019646,33.483116,7635.24
          -86.074402,33.458073,7749.54
          -86.128586,33.433456,8023.86
          -86.179619,33.408169,8237.22
          -86.196426,33.397614,8290.56
          -86.199348,33.39555,8290.56
          -86.203453,33.392715,8305.8
          -86.205925,33.39093,8305.8
          -86.254112,33.356075,8389.62
          -86.30233,33.321533,8458.2
          -86.351273,33.28688,8526.78
          -86.403099,33.250866,8534.4
          -86.455734,33.213673,8534.4
          -86.506851,33.177174,8542.02
          -86.561501,33.143284,8534.4
          -86.613739,33.113571,8534.4
          -86.669441,33.085007,8534.4
          -86.694069,33.075317,8534.4
          -86.698891,33.073689,8534.4
          -86.702728,33.072418,8534.4
          -86.708221,33.070633,8534.4
          -86.712173,33.069397,8534.4
          -86.774086,33.050079,8526.78
          -86.835548,33.034634,8526.78
          -86.897316,33.021782,8534.4
          -86.962776,33.009796,8534.4
          -87.023659,32.999577,8526.78
          -87.088234,32.991478,8519.16
          -87.154709,32.983978,8519.16
          -87.221191,32.977371,8526.78
          -87.284637,32.973137,8542.02
          -87.348312,32.968388,8549.64
          -87.414345,32.963127,8618.22
          -87.481102,32.957821,8732.52
          -87.548203,32.95256,8862.06
          -87.614487,32.947311,8999.22
          -87.676613,32.942364,9128.76
          -87.739449,32.937336,9258.3
          -87.805099,32.932022,9380.22
          -87.870903,32.926666,9525
          -87.932999,32.921555,9662.16
          -87.997963,32.916183,9745.98
          -88.060196,32.911057,9753.6
          -88.124908,32.905746,9753.6
          -88.188904,32.900391,9753.6
          -88.255699,32.894741,9753.6
          -88.320999,32.889248,9753.6
          -88.38726,32.883591,9753.6
          -88.452332,32.877983,9753.6
          -88.514923,32.872559,9753.6
          -88.581169,32.866791,9761.22
          -88.645935,32.861115,9753.6
          -88.710846,32.855453,9745.98
          -88.771996,32.85331,9745.98
          -88.775925,32.853592,9745.98
          -88.780907,32.854057,9745.98
          -88.784164,32.854382,9745.98
          -88.789207,32.854988,9745.98
          -88.79425,32.855732,9745.98
          -88.797783,32.856243,9745.98
          -88.801819,32.856987,9745.98
          -88.805893,32.857727,9745.98
          -88.810181,32.858643,9745.98
          -88.813919,32.859421,9745.98
          -88.818916,32.860527,9745.98
          -88.823036,32.861435,9745.98
          -88.827042,32.862305,9745.98
          -88.831711,32.863358,9745.98
          -88.891647,32.876266,9745.98
          -88.954544,32.889862,9745.98
          -89.014854,32.902817,9745.98
          -89.077919,32.916412,9753.6
          -89.139763,32.929703,9753.6
          -89.20256,32.943192,9753.6
          -89.265732,32.956696,9753.6
          -89.32782,32.970016,9761.22
          -89.391136,32.983429,9753.6
          -89.453377,32.996658,9753.6
          -89.515999,33.012177,9753.6
          -89.576912,33.032024,9753.6
          -89.635155,33.051346,9753.6
          -89.69474,33.073643,9753.6
          -89.751801,33.095058,9761.22
          -89.810768,33.116982,9753.6
          -89.871017,33.139389,9753.6
          -89.932159,33.162231,9753.6
          -89.991928,33.184669,9753.6
          -90.051567,33.207153,9753.6
          -90.110817,33.229404,9753.6
          -90.170731,33.251999,9753.6
          -90.229614,33.274155,9753.6
          -90.291359,33.294907,9753.6
          -90.348648,33.314178,9753.6
          -90.412155,33.331238,9753.6
          -90.47258,33.343132,9753.6
          -90.535637,33.355545,9753.6
          -90.596909,33.367573,9745.98
          -90.660301,33.379864,9753.6
          -90.724091,33.3922,9753.6
          -90.783272,33.403656,9753.6
          -90.84507,33.415604,9753.6
          -90.907913,33.427643,9745.98
          -90.970421,33.439499,9753.6
          -91.033615,33.451553,9753.6
          -91.093086,33.462891,9753.6
          -91.157822,33.475063,9753.6
          -91.221725,33.487118,9761.22
          -91.283257,33.498734,9761.22
          -91.347618,33.510769,9768.84
          -91.411743,33.522823,9761.22
          -91.477005,33.53508,9761.22
          -91.538422,33.546478,9753.6
          -91.603783,33.558563,9745.98
          -91.667694,33.570354,9753.6
          -91.731522,33.58223,9761.22
          -91.796822,33.594131,9753.6
          -91.857376,33.605221,9745.98
          -91.921097,33.616928,9745.98
          -91.982643,33.628098,9745.98
          -92.044144,33.639297,9745.98
          -92.108398,33.651031,9753.6
          -92.173172,33.662716,9753.6
          -92.234596,33.673782,9761.22
          -92.298599,33.6852,9761.22
          -92.358513,33.695908,9761.22
          -92.423058,33.707451,9761.22
          -92.486389,33.718689,9753.6
          -92.551117,33.730122,9753.6
          -92.613541,33.741203,9753.6
          -92.676125,33.752243,9745.98
          -92.73851,33.763176,9745.98
          -92.801575,33.774208,9745.98
          -92.86554,33.785381,9745.98
          -92.929573,33.796505,9753.6
          -92.990578,33.807037,9753.6
          -93.055687,33.818291,9761.22
          -93.117088,33.828964,9761.22
          -93.178078,33.839401,9761.22
          -93.244217,33.850754,9761.22
          -93.306427,33.861355,9761.22
          -93.369766,33.872105,9768.84
          -93.434082,33.882908,9761.22
          -93.498474,33.893738,9753.6
          -93.559685,33.904083,9753.6
          -93.620338,33.914238,9745.98
          -93.683105,33.92485,9745.98
          -93.745552,33.935211,9738.36
          -93.809456,33.945877,9738.36
          -93.869598,33.955902,9738.36
          -93.932358,33.966282,9745.98
          -93.99527,33.976547,9753.6
          -94.056129,33.98658,9761.22
          -94.120605,33.997101,9768.84
          -94.183434,34.007401,9761.22
          -94.244026,34.017197,9761.22
          -94.309326,34.027729,9753.6
          -94.373566,34.038071,9753.6
          -94.43367,34.047703,9745.98
          -94.496605,34.057846,9753.6
          -94.560181,34.067951,9753.6
          -94.623169,34.078033,9753.6
          -94.688583,34.088436,9761.22
          -94.752487,34.098541,9761.22
          -94.816048,34.108521,9761.22
          -94.877197,34.118134,9753.6
          -94.942001,34.128113,9745.98
          -95.004333,34.137825,9745.98
          -95.067329,34.147659,9745.98
          -95.131073,34.157516,9745.98
          -95.19384,34.167206,9753.6
          -95.254555,34.176605,9753.6
          -95.319847,34.186432,9745.98
          -95.384048,34.196297,9745.98
          -95.447479,34.205978,9753.6
          -95.511833,34.215683,9768.84
          -95.578194,34.225716,9768.84
          -95.643105,34.235458,9761.22
          -95.706543,34.244942,9906
          -95.770226,34.254395,10043.16
          -95.832001,34.263474,10195.56
          -95.89296,34.272549,10355.58
          -95.955597,34.281921,10363.2
          -96.016846,34.29089,10363.2
          -96.077957,34.299828,10363.2
          -96.139565,34.308838,10363.2
          -96.200577,34.317753,10355.58
          -96.260834,34.326458,10355.58
          -96.321732,34.335342,10347.96
          -96.381393,34.343868,10347.96
          -96.441818,34.352524,10355.58
          -96.502472,34.361233,10363.2
          -96.564331,34.369984,10363.2
          -96.626648,34.378826,10370.82
          -96.687874,34.387482,10370.82
          -96.748291,34.395958,10370.82
          -96.809692,34.404617,10370.82
          -96.871658,34.413231,10370.82
          -96.93293,34.421677,10370.82
          -96.995544,34.430408,10370.82
          -97.057312,34.438889,10370.82
          -97.119713,34.447491,10370.82
          -97.182198,34.456104,10370.82
          -97.244965,34.464622,10363.2
          -97.307571,34.47319,10363.2
          -97.369476,34.481613,10363.2
          -97.432472,34.490158,10355.58
          -97.49189,34.498123,10355.58
          -97.553268,34.506382,10347.96
          -97.617561,34.514923,10355.58
          -97.681236,34.523346,10363.2
          -97.74456,34.531658,10370.82
          -97.808083,34.540009,10378.44
          -97.871147,34.548294,10378.44
          -97.935272,34.556656,10370.82
          -97.998329,34.564819,10363.2
          -98.061333,34.573059,10355.58
          -98.125305,34.581238,10355.58
          -98.188461,34.589355,10355.58
          -98.2481,34.597,10363.2
          -98.312134,34.605164,10370.82
          -98.376175,34.613251,10378.44
          -98.439621,34.621223,10378.44
          -98.49987,34.628815,10370.82
          -98.566139,34.637146,10370.82
          -98.630547,34.645111,10363.2
          -98.691902,34.65274,10363.2
          -98.757561,34.660858,10363.2
          -98.821739,34.668777,10370.82
          -98.882729,34.676239,10370.82
          -98.946571,34.684158,10363.2
          -99.01033,34.691799,10355.58
          -99.073196,34.699356,10355.58
          -99.135803,34.706818,10355.58
          -99.199036,34.714371,10347.96
          -99.26239,34.721966,10347.96
          -99.322235,34.729065,10347.96
          -99.385689,34.736526,10355.58
          -99.448761,34.743984,10363.2
          -99.512146,34.75145,10370.82
          -99.577049,34.759003,10370.82
          -99.640335,34.766281,10370.82
          -99.7062,34.773834,10370.82
          -99.767746,34.780975,10370.82
          -99.83168,34.7883,10370.82
          -99.897247,34.79575,10363.2
          -99.961395,34.803059,10355.58
          -100.027145,34.810459,10355.58
          -100.093857,34.817909,10355.58
          -100.157761,34.825058,10363.2
          -100.222832,34.832245,10363.2
          -100.288811,34.839649,10325.1
          -100.355515,34.846985,10172.7
          -100.422302,34.854218,10012.68
          -100.490486,34.861725,9860.28
          -100.558983,34.868958,9761.22
          -100.627151,34.87624,9753.6
          -100.695816,34.88364,9753.6
          -100.763626,34.890949,9753.6
          -100.83075,34.898071,9753.6
          -100.89978,34.905304,9753.6
          -100.966934,34.912354,9753.6
          -101.035652,34.919533,9753.6
          -101.099915,34.926235,9753.6
          -101.167488,34.93317,9753.6
          -101.23558,34.940155,9753.6
          -101.303902,34.94709,9753.6
          -101.367546,34.953598,9745.98
          -101.433182,34.96019,9745.98
          -101.495567,34.966415,9745.98
          -101.562996,34.973099,9745.98
          -101.628578,34.979645,9753.6
          -101.694611,34.986145,9761.22
          -101.760178,34.992619,9761.22
          -101.82914,34.999283,9761.22
          -101.897339,35.005886,9761.22
          -101.960335,35.011936,9761.22
          -102.031433,35.018738,9761.22
          -102.099442,35.025204,9753.6
          -102.167862,35.031647,9745.98
          -102.234131,35.03796,9761.22
          -102.303284,35.044373,9761.22
          -102.366623,35.050278,9761.22
          -102.43412,35.056534,9761.22
          -102.501587,35.062725,9753.6
          -102.564354,35.068451,9745.98
          -102.630188,35.074448,9738.36
          -102.697617,35.080509,9738.36
          -102.76371,35.086422,9745.98
          -102.82682,35.092072,9753.6
          -102.893715,35.098061,9753.6
          -102.959663,35.103836,9753.6
          -103.026985,35.109741,9745.98
          -103.09391,35.115555,9753.6
          -103.162827,35.121521,9753.6
          -103.232178,35.127434,9753.6
          -103.296425,35.132858,9761.22
          -103.363205,35.138561,9761.22
          -103.434204,35.144485,9761.22
          -103.500008,35.149933,9761.22
          -103.568634,35.155643,9753.6
          -103.634659,35.161045,9753.6
          -103.705559,35.166862,9753.6
          -103.774559,35.172409,9745.98
          -103.841003,35.177757,9745.98
          -103.907486,35.183205,9745.98
          -103.974152,35.188419,9745.98
          -104.043274,35.193924,9753.6
          -104.113022,35.199356,9761.22
          -104.180717,35.204617,9761.22
          -104.251564,35.210129,9753.6
          -104.32222,35.215557,9761.22
          -104.392838,35.220959,9753.6
          -104.464401,35.226242,9745.98
          -104.537315,35.231735,9768.84
          -104.609299,35.237045,9768.84
          -104.679367,35.242233,9753.6
          -104.749962,35.247398,9745.98
          -104.819443,35.252426,9738.36
          -104.889053,35.257416,9738.36
          -104.956017,35.262203,9745.98
          -105.024567,35.267044,9753.6
          -105.094688,35.271931,9753.6
          -105.166458,35.276917,9753.6
          -105.240784,35.282082,9761.22
          -105.31002,35.286804,9761.22
          -105.381386,35.291622,9753.6
          -105.449638,35.296234,9753.6
          -105.521698,35.301029,9753.6
          -105.59404,35.305775,9761.22
          -105.668083,35.310616,9768.84
          -105.734825,35.314957,9768.84
          -105.807838,35.319626,9761.22
          -105.879448,35.324165,9753.6
          -105.950485,35.328598,9753.6
          -106.020462,35.332962,9745.98
          -106.088959,35.337204,9745.98
          -106.161057,35.341599,9738.36
          -106.232758,35.345947,9738.36
          -106.30114,35.350048,9753.6
          -106.372025,35.354237,9768.84
          -106.44281,35.358398,9761.22
          -106.513306,35.362518,9768.84
          -106.586723,35.36676,9761.22
          -106.65625,35.370712,9761.22
          -106.729668,35.374859,9761.22
          -106.799614,35.378769,9753.6
          -106.872841,35.38282,9753.6
          -106.945183,35.386776,9761.22
          -107.015541,35.390594,9761.22
          -107.086777,35.394424,9761.22
          -107.158646,35.398178,9761.22
          -107.228142,35.401859,9761.22
          -107.301888,35.405678,9761.22
          -107.375793,35.409393,9761.22
          -107.443375,35.412781,9761.22
          -107.514954,35.416386,9761.22
          -107.583847,35.419785,9753.6
          -107.653687,35.423225,9738.36
          -107.722878,35.426579,9738.36
          -107.793175,35.429932,9745.98
          -107.859505,35.433002,9753.6
          -107.929161,35.436214,9753.6
          -108.001389,35.439568,9753.6
          -108.068306,35.442593,9753.6
          -108.135391,35.445648,9753.6
          -108.201485,35.448578,9745.98
          -108.272781,35.451645,9745.98
          -108.341446,35.454575,9745.98
          -108.41227,35.457535,9761.22
          -108.483414,35.460571,9761.22
          -108.549362,35.463261,9768.84
          -108.617622,35.466103,9761.22
          -108.68763,35.468987,9761.22
          -108.755241,35.471596,9753.6
          -108.825485,35.474342,9753.6
          -108.892746,35.47625,9753.6
          -108.963104,35.476669,9745.98
          -109.030037,35.476959,9745.98
          -109.10067,35.477276,9753.6
          -109.171715,35.477509,9753.6
          -109.241806,35.477737,9753.6
          -109.311043,35.477879,9753.6
          -109.380997,35.478065,9761.22
          -109.449631,35.478104,9761.22
          -109.518646,35.478149,9761.22
          -109.590256,35.478111,9753.6
          -109.659805,35.478149,9753.6
          -109.731445,35.47802,9745.98
          -109.802567,35.478298,9745.98
          -109.820328,35.479927,9745.98
          -109.824997,35.480621,9745.98
          -109.830437,35.481583,9745.98
          -109.834785,35.482452,9753.6
          -109.838165,35.483185,9745.98
          -109.842712,35.484257,9745.98
          -109.847092,35.48542,9753.6
          -109.851303,35.486679,9753.6
          -109.855682,35.488029,9753.6
          -109.860649,35.489731,9753.6
          -109.863808,35.490913,9753.6
          -109.867722,35.492451,9753.6
          -109.872398,35.494404,9753.6
          -109.876778,35.496407,9753.6
          -109.880447,35.498199,9753.6
          -109.884171,35.500076,9753.6
          -109.888062,35.502228,9753.6
          -109.891434,35.504105,9753.6
          -109.895889,35.506603,9753.6
          -109.899162,35.508556,9753.6
          -109.903564,35.511108,9753.6
          -109.906601,35.512894,9753.6
          -109.91114,35.515587,9753.6
          -109.914528,35.51759,9753.6
          -109.91861,35.520035,9753.6
          -109.922188,35.522152,9753.6
          -109.97776,35.555157,9753.6
          -110.03392,35.588486,9761.22
          -110.092186,35.622936,9761.22
          -110.132271,35.642719,9753.6
          -110.136597,35.644302,9761.22
          -110.141624,35.645981,9753.6
          -110.14566,35.647202,9753.6
          -110.149452,35.648262,9753.6
          -110.153618,35.649307,9753.6
          -110.157913,35.650314,9753.6
          -110.162422,35.651241,9753.6
          -110.167526,35.652191,9753.6
          -110.171715,35.65287,9753.6
          -110.176277,35.653473,9753.6
          -110.180595,35.653988,9753.6
          -110.185837,35.654434,9753.6
          -110.191002,35.654778,9753.6
          -110.19503,35.654964,9753.6
          -110.200768,35.655029,9753.6
          -110.205002,35.655029,9753.6
          -110.209465,35.654919,9753.6
          -110.214027,35.654686,9753.6
          -110.21888,35.654358,9753.6
          -110.223602,35.653931,9753.6
          -110.227951,35.653473,9753.6
          -110.232407,35.653015,9753.6
          -110.238045,35.652359,9753.6
          -110.242485,35.65189,9753.6
          -110.246658,35.651413,9753.6
          -110.251923,35.650818,9753.6
          -110.256042,35.650356,9753.6
          -110.321724,35.643002,9753.6
          -110.391968,35.634995,9753.6
          -110.45929,35.62722,9753.6
          -110.526237,35.619415,9753.6
          -110.595474,35.611359,9753.6
          -110.664696,35.603199,9753.6
          -110.729271,35.595612,9753.6
          -110.79998,35.587326,9753.6
          -110.868927,35.579132,9753.6
          -110.939598,35.570618,9753.6
          -111.005859,35.562653,9753.6
          -111.076218,35.554131,9753.6
          -111.146637,35.545612,9753.6
          -111.216721,35.537018,9753.6
          -111.285721,35.528435,9601.2
          -111.355614,35.519962,9441.18
          -111.420822,35.511887,9281.16
          -111.487137,35.503601,9151.62
          -111.55529,35.495102,9144
          -111.620178,35.486893,9144
          -111.687599,35.47839,9144
          -111.756668,35.469593,9144
          -111.826797,35.462036,9144
          -111.89505,35.46196,9144
          -111.962608,35.469082,9144
          -112.026787,35.477097,9144
          -112.094078,35.485519,9144
          -112.165314,35.494308,9144
          -112.23484,35.502869,9144
          -112.304527,35.51149,9144
          -112.374115,35.520035,9144
          -112.445534,35.528763,9144
          -112.514549,35.53714,9144
          -112.57988,35.545029,9144
          -112.649017,35.553387,9144
          -112.715546,35.561417,9144
          -112.784065,35.569542,9144
          -112.854195,35.577896,9144
          -112.919991,35.585693,9144
          -112.989769,35.593933,9144
          -113.060364,35.602158,9144
          -113.130951,35.610367,9121.14
          -113.199966,35.618374,8892.54
          -113.26796,35.62619,8534.4
          -113.335709,35.634018,8168.64
          -113.400414,35.641323,7825.74
          -113.465569,35.648773,7482.84
          -113.52816,35.657433,7193.28
          -113.593307,35.668213,6934.2
          -113.654968,35.678288,6690.36
          -113.715134,35.688171,6469.38
          -113.776985,35.698212,6233.16
          -113.838959,35.708176,5989.32
          -113.90181,35.718277,5745.48
          -113.959747,35.727676,5509.26
          -114.019089,35.737198,5280.66
          -114.074997,35.74617,5067.3
          -114.130707,35.755051,4853.94
          -114.151634,35.759426,4770.12
          -114.155045,35.760544,4754.88
          -114.157944,35.76157,4747.26
          -114.161682,35.763012,4732.02
          -114.16449,35.764221,4716.78
          -114.168091,35.765808,4701.54
          -114.171356,35.767227,4693.92
          -114.174477,35.768597,4678.68
          -114.177223,35.76981,4671.06
          -114.180679,35.771347,4655.82
          -114.183655,35.772694,4640.58
          -114.186691,35.773998,4632.96
          -114.189896,35.775421,4617.72
          -114.192581,35.776657,4602.48
          -114.240746,35.797741,4396.74
          -114.286156,35.817665,4198.62
          -114.33374,35.839005,3985.26
          -114.375977,35.865005,3787.14
          -114.416367,35.890091,3596.64
          -114.432907,35.900345,3520.44
          -114.449043,35.910416,3444.24
          -114.466026,35.921009,3360.42
          -114.481544,35.930695,3284.22
          -114.497681,35.940765,3215.64
          -114.516281,35.952347,3124.2
          -114.532814,35.962646,3040.38
          -114.549126,35.972683,2964.18
          -114.565079,35.982506,2903.22
          -114.580475,35.991989,2880.36
          -114.597687,36.002571,2842.26
          -114.613991,36.012627,2796.54
          -114.627914,36.021149,2766.06
          -114.64222,36.029896,2689.86
          -114.655212,36.037537,2590.8
          -114.671555,36.045818,2484.12
          -114.687508,36.053638,2407.92
          -114.701241,36.060341,2392.68
          -114.715805,36.06752,2385.06
          -114.723213,36.070396,2385.06
          -114.726105,36.071136,2385.06
          -114.729141,36.071777,2385.06
          -114.731514,36.072117,2385.06
          -114.734177,36.072372,2385.06
          -114.737259,36.072556,2377.44
          -114.739807,36.072678,2377.44
          -114.742325,36.072769,2369.82
          -114.744873,36.07283,2362.2
          -114.747787,36.072876,2362.2
          -114.750305,36.072922,2354.58
          -114.752724,36.072956,2354.58
          -114.755692,36.073013,2339.34
          -114.758087,36.073059,2331.72
          -114.760963,36.073097,2324.1
          -114.763298,36.073151,2316.48
          -114.765991,36.073235,2308.86
          -114.781036,36.073425,2240.28
          -114.79689,36.07338,2164.08
          -114.813141,36.073425,2080.26
          -114.828926,36.073467,1996.44
          -114.843948,36.073467,1927.86
          -114.858971,36.073517,1844.04
          -114.873566,36.073517,1767.84
          -114.888237,36.073563,1691.64
          -114.904518,36.073563,1607.82
          -114.917511,36.073563,1546.86
          -114.930267,36.073563,1493.52
          -114.938263,36.073608,1463.04
          -114.946228,36.073608,1432.56
          -114.952011,36.073608,1402.08
          -114.959885,36.073654,1371.6
          -114.965317,36.0737,1341.12
          -114.973358,36.073746,1303.02
          -114.981216,36.07375,1257.3
          -114.986824,36.0737,1226.82
          -114.994774,36.073654,1188.72
          -115.002365,36.073654,1158.24
          -115.010025,36.0737,1120.14
          -115.017853,36.073795,1089.66
          -115.025223,36.073795,1051.56
          -115.03334,36.0737,1021.08
          -115.039009,36.073654,990.6
          -115.046539,36.073654,960.12
          -115.051987,36.0737,929.64
          -115.060104,36.073792,891.54
          -115.065422,36.0737,868.68
          -115.072845,36.073654,830.58
          -115.080124,36.0737,800.1
          -115.085823,36.0737,777.24
          -115.093063,36.0737,746.76
          -115.10025,36.0737,716.28
          -115.107384,36.0737,678.18
          -115.114159,36.0737,647.7
          -115.121353,36.073654,617.22
          -115.128479,36.073654,579.12
          -115.133446,36.073654,571.5
          -115.13958,36.073654,579.12
          -115.143356,36.073654,0
          -115.146332,36.073666,0
          -115.147148,36.0737,0
          -115.147362,36.073723,0
          -115.14782,36.073784,0
          -115.148277,36.073864,0
          -115.148689,36.073963,0
          -115.149078,36.074089,0
          -115.149391,36.074203,0
          -115.149734,36.074341,0
          -115.150024,36.07449,0
          -115.150307,36.074619,0
          -115.150597,36.074764,0
          -115.150879,36.074936,0
          -115.151108,36.075119,0
          -115.151344,36.075356,0
          -115.151497,36.075588,0
          -115.151611,36.075817,0
          -115.151619,36.076042,0
          -115.151474,36.076275,0
          -115.151207,36.076389,0
          -115.150955,36.076401,0
          -115.150726,36.076401,0
          -115.150436,36.076389,0
          -115.150162,36.076389,0
          -115.149864,36.076389,0
          -115.149597,36.076389,0
          -115.149338,36.076389,0
          -115.148453,36.076401,0
          -115.147575,36.076401,0
          -115.146637,36.076401,0
          -115.145599,36.076401,0
          -115.144356,36.076389,0
          -115.143127,36.076401,0
          -115.142197,36.076401,0
          -115.141159,36.076401,0
          -115.140152,36.076401,0
          -115.139404,36.076401,0
          -115.138489,36.076401,0
          -115.138206,36.076424,0
          -115.137978,36.076542,0
          -115.137909,36.076756,0
          -115.137924,36.076996,0
          -115.137924,36.077213,0
          -115.137917,36.077427,0
          -115.137924,36.077705,0
          -115.137932,36.077972,0
          -115.138062,36.078186,0
          -115.138351,36.078278,0
          -115.138634,36.078274,0
          -115.13884,36.078266,0
          -115.139053,36.078274,0
          -115.139282,36.078323,0
          -115.139496,36.078495,0
          -115.139542,36.078739,0
          -115.139404,36.078949,0
          -115.139191,36.079113,0
          -115.138939,36.07933,0
          -115.138733,36.079487,0
          -115.138527,36.079731,0
          -115.138634,36.079952,0
          -115.138702,36.080162,0
          -115.138779,36.080372,0
        </coordinates>
      </LineString>
    </Placemark>
  </Document>
</kml>