<?xml version='1.0' encoding='utf-8'?>
<kml xmlns="http://www.opengis.net/kml/2.2">
  <Document>
    <Placemark>
      <name>DL919-2026-03-01</name>
      <TimeStamp>
        <when>2026-03-01</when>
      </TimeStamp>
      <LineString>
        <altitudeMode>absolute</altitudeMode>
        <coordinates>
          -84.429008,33.642265,0
          -84.428726,33.642288,0
          -84.428513,33.642281,0
          -84.428307,33.642262,0
          -84.42807,33.643826,0
          -84.42791,33.644501,0
          -84.427597,33.644669,0
          -84.427322,33.64468,0
          -84.427101,33.644691,0
          -84.426781,33.64468,0
          -84.426453,33.64468,0
          -84.426079,33.64468,0
          -84.425873,33.64468,0
          -84.425667,33.64468,0
          -84.42543,33.644691,0
          -84.425125,33.644691,0
          -84.424332,33.644691,0
          -84.42408,33.644699,0
          -84.423828,33.644691,0
          -84.423531,33.644691,0
          -84.423264,33.644691,0
          -84.423012,33.644691,0
          -84.422798,33.644691,0
          -84.422577,33.644733,0
          -84.422295,33.644825,0
          -84.421852,33.645046,0
          -84.42131,33.645321,0
          -84.420998,33.645432,0
          -84.420677,33.645451,0
          -84.420357,33.645432,0
          -84.420151,33.645439,0
          -84.419769,33.645432,0
          -84.41938,33.64542,0
          -84.418991,33.645432,0
          -84.418701,33.64542,0
          -84.417847,33.64542,0
          -84.417587,33.645424,0
          -84.416946,33.64542,0
          -84.41671,33.645439,0
          -84.416451,33.64542,0
          -84.416199,33.64542,0
          -84.415756,33.645432,0
          -84.415527,33.645432,0
          -84.415131,33.645424,0
          -84.414429,33.645439,0
          -84.414047,33.645439,0
          -84.41378,33.645439,0
          -84.413528,33.645432,0
          -84.413116,33.645439,0
          -84.412827,33.645439,0
          -84.412529,33.645439,0
          -84.412231,33.645432,0
          -84.411926,33.645439,0
          -84.411629,33.64542,0
          -84.411339,33.645424,0
          -84.41082,33.645432,0
          -84.410187,33.645435,0
          -84.409904,33.645424,0
          -84.409676,33.645432,0
          -84.409271,33.645432,0
          -84.408859,33.64542,0
          -84.408295,33.645447,0
          -84.408005,33.645512,0
          -84.407669,33.645596,0
          -84.407356,33.645664,0
          -84.407127,33.645687,0
          -84.406837,33.645699,0
          -84.406532,33.645699,0
          -84.406296,33.645699,0
          -84.405968,33.645733,0
          -84.405731,33.645893,0
          -84.405663,33.646168,0
          -84.405685,33.646397,0
          -84.405678,33.646614,0
          -84.405769,33.64682,0
          -84.405983,33.646832,0
          -84.406197,33.646805,0
          -84.406448,33.646809,0
          -84.406723,33.646809,0
          -84.407242,33.646809,0
          -84.407974,33.646809,0
          -84.408813,33.646805,0
          -84.412369,33.646793,243.84
          -84.418854,33.646801,0
          -84.425911,33.646801,0
          -84.431648,33.646793,289.56
          -84.439606,33.646702,411.48
          -84.447266,33.646561,541.02
          -84.452911,33.646454,624.84
          -84.458519,33.6465,693.42
          -84.460716,33.646652,716.28
          -84.462547,33.646885,731.52
          -84.464432,33.647167,746.76
          -84.466385,33.647491,769.62
          -84.468163,33.647827,784.86
          -84.470047,33.64819,800.1
          -84.471649,33.648518,807.72
          -84.473541,33.648926,822.96
          -84.475952,33.649429,838.2
          -84.477013,33.649658,845.82
          -84.47982,33.650253,868.68
          -84.481667,33.650665,876.3
          -84.483688,33.651123,883.92
          -84.485703,33.651581,891.54
          -84.48761,33.651993,899.16
          -84.489967,33.652496,914.4
          -84.491844,33.652893,922.02
          -84.493958,33.653358,929.64
          -84.500389,33.654694,960.12
          -84.509636,33.656616,998.22
          -84.518776,33.658401,1036.32
          -84.526863,33.65992,1074.42
          -84.53688,33.661835,1104.9
          -84.545403,33.66346,1120.14
          -84.556725,33.665588,1165.86
          -84.568634,33.667881,1203.96
          -84.57724,33.669571,1257.3
          -84.59024,33.672226,1379.22
          -84.60228,33.674587,1501.14
          -84.61412,33.676682,1630.68
          -84.633179,33.679779,1828.8
          -84.652237,33.682732,2011.68
          -84.671349,33.685776,2179.32
          -84.690399,33.688923,2324.1
          -84.712997,33.692871,2537.46
          -84.735191,33.696533,2735.58
          -84.755287,33.699677,2910.84
          -84.764793,33.700104,2994.66
          -84.768105,33.699909,3025.14
          -84.772018,33.699371,3055.62
          -84.774567,33.698978,3078.48
          -84.778404,33.698235,3108.96
          -84.781494,33.697495,3131.82
          -84.784576,33.696716,3139.44
          -84.788223,33.695618,3154.68
          -84.79097,33.694794,3162.3
          -84.794708,33.693531,3162.3
          -84.797859,33.692459,3169.92
          -84.801178,33.69125,3177.54
          -84.804092,33.690132,3177.54
          -84.807892,33.688614,3192.78
          -84.810791,33.687481,3200.4
          -84.814682,33.685898,3208.02
          -84.8181,33.68454,3223.26
          -84.820618,33.683533,3230.88
          -84.824585,33.681988,3246.12
          -84.827614,33.680824,3253.74
          -84.852104,33.671841,3329.94
          -84.87471,33.664169,3398.52
          -84.902626,33.655472,3497.58
          -84.93071,33.647644,3589.02
          -84.954529,33.640278,3756.66
          -85.01049,33.62077,4206.24
          -85.069435,33.601364,4602.48
          -85.128593,33.583015,4899.66
          -85.188675,33.563931,5265.42
          -85.247437,33.544891,5669.28
          -85.283516,33.535309,5760.72
          -85.287689,33.534714,5775.96
          -85.292084,33.534256,5798.82
          -85.29686,33.53389,5829.3
          -85.301865,33.533615,5867.4
          -85.305534,33.533485,5890.26
          -85.309456,33.533298,5920.74
          -85.313728,33.533157,5951.22
          -85.317749,33.532974,5981.7
          -85.321899,33.532787,6004.56
          -85.326744,33.532516,6027.42
          -85.330704,33.532333,6050.28
          -85.335129,33.532043,6073.14
          -85.339546,33.531784,6096
          -85.343369,33.531528,6118.86
          -85.4039,33.527527,6537.96
          -85.466461,33.523895,6697.98
          -85.529633,33.520451,6705.6
          -85.591568,33.517052,6705.6
          -85.658493,33.513374,6705.6
          -85.724915,33.509697,6728.46
          -85.790421,33.505966,6888.48
          -85.858208,33.502201,7063.74
          -85.922729,33.498478,7292.34
          -85.98848,33.494755,7482.84
          -86.057251,33.490704,7650.48
          -86.130287,33.48642,7871.46
          -86.200928,33.4823,8084.82
          -86.267174,33.478317,8229.6
          -86.339355,33.473969,8374.38
          -86.41082,33.469574,8481.06
          -86.484825,33.465054,8648.7
          -86.557358,33.460537,8823.96
          -86.630394,33.455883,9006.84
          -86.702507,33.451401,9189.72
          -86.776352,33.446621,9387.84
          -86.846252,33.442104,9555.48
          -86.918556,33.437393,9753.6
          -86.988235,33.432793,9982.2
          -87.059029,33.428185,10126.98
          -87.128998,33.423523,10325.1
          -87.197701,33.418919,10447.02
          -87.2649,33.414322,10622.28
          -87.334976,33.409565,10812.78
          -87.401405,33.404938,10942.32
          -87.469666,33.400208,10972.8
          -87.538109,33.395412,10972.8
          -87.606216,33.390617,10972.8
          -87.673813,33.385822,10972.8
          -87.741707,33.380951,10972.8
          -87.808784,33.376091,10972.8
          -87.876236,33.371109,10972.8
          -87.942696,33.366268,10972.8
          -88.010757,33.361221,10972.8
          -88.078987,33.356186,10965.18
          -88.143478,33.351326,10965.18
          -88.211754,33.346161,10972.8
          -88.281647,33.340851,10972.8
          -88.349808,33.33564,10972.8
          -88.418571,33.330276,10980.42
          -88.487701,33.324837,10988.04
          -88.557426,33.319344,10988.04
          -88.624344,33.314117,10988.04
          -88.68911,33.30899,10980.42
          -88.75647,33.303612,10972.8
          -88.821213,33.298397,10965.18
          -88.889282,33.292923,10965.18
          -88.958549,33.287201,10965.18
          -89.024963,33.281826,10965.18
          -89.09301,33.276146,10965.18
          -89.162628,33.270279,10972.8
          -89.232246,33.264462,10980.42
          -89.296768,33.259003,10980.42
          -89.363617,33.253326,10980.42
          -89.433083,33.247421,10972.8
          -89.499077,33.241745,10972.8
          -89.566597,33.235832,10972.8
          -89.636665,33.229733,10972.8
          -89.706497,33.223618,10980.42
          -89.773849,33.217667,10980.42
          -89.841797,33.211624,10972.8
          -89.910904,33.205444,10972.8
          -89.978195,33.199402,10965.18
          -90.046692,33.193233,10972.8
          -90.11541,33.186951,10972.8
          -90.184578,33.180618,10972.8
          -90.249283,33.174637,10972.8
          -90.318275,33.168228,10972.8
          -90.388474,33.161682,10972.8
          -90.458183,33.155182,10972.8
          -90.528664,33.148499,10980.42
          -90.598251,33.141933,10980.42
          -90.669014,33.135132,10972.8
          -90.738213,33.128433,10972.8
          -90.807716,33.121822,10972.8
          -90.878235,33.114933,10972.8
          -90.949699,33.107906,10972.8
          -91.018982,33.101063,10972.8
          -91.08638,33.094391,10980.42
          -91.152245,33.087845,10972.8
          -91.220322,33.081043,10972.8
          -91.291443,33.073883,10972.8
          -91.358131,33.067108,10965.18
          -91.428055,33.059956,10965.18
          -91.49958,33.052647,10972.8
          -91.568802,33.045525,10972.8
          -91.639603,33.038223,10972.8
          -91.710297,33.030853,10972.8
          -91.780067,33.023552,10972.8
          -91.849655,33.016205,10972.8
          -91.919472,33.008797,10972.8
          -91.984459,33.001877,10972.8
          -92.055283,32.993851,10972.8
          -92.123436,32.985535,10972.8
          -92.193695,32.977066,10972.8
          -92.266037,32.968369,10972.8
          -92.334763,32.959991,10965.18
          -92.402214,32.951797,10972.8
          -92.472092,32.943237,10972.8
          -92.542831,32.934452,10980.42
          -92.613976,32.925705,10972.8
          -92.681595,32.917282,10972.8
          -92.751175,32.908615,10980.42
          -92.821022,32.89991,10972.8
          -92.892319,32.890869,10980.42
          -92.962738,32.881943,10972.8
          -93.032776,32.873062,10972.8
          -93.100616,32.864365,10972.8
          -93.169891,32.855499,10972.8
          -93.24102,32.846375,10972.8
          -93.312431,32.837063,10972.8
          -93.383072,32.827927,10972.8
          -93.454704,32.818542,10972.8
          -93.524414,32.809387,10972.8
          -93.592361,32.800472,10965.18
          -93.662514,32.791214,10965.18
          -93.7314,32.782013,10965.18
          -93.80217,32.774731,10965.18
          -93.87175,32.774872,10972.8
          -93.940338,32.778267,10972.8
          -94.01001,32.781666,10972.8
          -94.079964,32.78511,10980.42
          -94.149353,32.788418,10972.8
          -94.220596,32.791767,10972.8
          -94.289154,32.795029,10972.8
          -94.360229,32.798286,10972.8
          -94.43119,32.80164,10972.8
          -94.498795,32.804672,10972.8
          -94.570038,32.807922,10980.42
          -94.640625,32.811035,10972.8
          -94.707024,32.813972,10972.8
          -94.777847,32.817078,10972.8
          -94.848221,32.820026,10965.18
          -94.917427,32.822937,10965.18
          -94.988998,32.825912,10965.18
          -95.059425,32.828823,10972.8
          -95.131119,32.831711,10972.8
          -95.202026,32.834564,10980.42
          -95.273438,32.837357,10980.42
          -95.34375,32.840149,10972.8
          -95.414413,32.842838,10972.8
          -95.485313,32.845535,10972.8
          -95.554657,32.848099,10972.8
          -95.627632,32.85075,10972.8
          -95.698387,32.853287,10972.8
          -95.769249,32.855804,10972.8
          -95.839905,32.858292,10972.8
          -95.911095,32.86076,10972.8
          -95.982727,32.863178,10972.8
          -96.054138,32.865509,10972.8
          -96.127129,32.867889,10972.8
          -96.198708,32.870178,10972.8
          -96.269844,32.872375,10972.8
          -96.340485,32.874573,10972.8
          -96.408279,32.876678,10972.8
          -96.480927,32.878822,10980.42
          -96.552444,32.880871,10980.42
          -96.624306,32.882919,10988.04
          -96.697159,32.88501,10980.42
          -96.769829,32.887024,10972.8
          -96.840111,32.888924,10972.8
          -96.91259,32.890831,10972.8
          -96.984337,32.890686,10965.18
          -97.056473,32.890228,10965.18
          -97.127045,32.891483,10965.18
          -97.196701,32.899841,10965.18
          -97.266617,32.915924,10972.8
          -97.333153,32.935616,10980.42
          -97.400612,32.95546,10980.42
          -97.467735,32.975189,10980.42
          -97.537277,32.99556,10980.42
          -97.604736,33.015381,10972.8
          -97.6717,33.034882,10972.8
          -97.738663,33.054474,10965.18
          -97.801468,33.072758,10965.18
          -97.871376,33.093109,10957.56
          -97.938499,33.112564,10965.18
          -98.005951,33.132019,10972.8
          -98.074783,33.151943,10972.8
          -98.142662,33.171402,10980.42
          -98.209587,33.190628,10980.42
          -98.278145,33.210297,10980.42
          -98.345322,33.229523,10980.42
          -98.414459,33.249332,10972.8
          -98.483803,33.269024,10972.8
          -98.549553,33.287643,10980.42
          -98.615974,33.306519,10980.42
          -98.681068,33.324966,10980.42
          -98.751343,33.344856,10965.18
          -98.816528,33.363106,10957.56
          -98.886429,33.382656,10957.56
          -98.957275,33.402439,10965.18
          -99.025269,33.421463,10972.8
          -99.091461,33.439911,10980.42
          -99.161278,33.45932,10980.42
          -99.231651,33.478878,10980.42
          -99.3013,33.498093,10980.42
          -99.371223,33.51738,10972.8
          -99.437973,33.535767,10972.8
          -99.507408,33.554806,10972.8
          -99.574364,33.57312,10972.8
          -99.644821,33.592392,10972.8
          -99.715897,33.61171,10980.42
          -99.785957,33.630779,10980.42
          -99.852776,33.64888,10980.42
          -99.921829,33.667511,10980.42
          -99.99115,33.686222,10980.42
          -100.062637,33.705505,10972.8
          -100.130768,33.723743,10965.18
          -100.200073,33.742264,10965.18
          -100.270844,33.761219,10957.56
          -100.336624,33.778839,10957.56
          -100.405174,33.799301,10957.56
          -100.475578,33.820248,10965.18
          -100.5448,33.84082,10972.8
          -100.612564,33.86084,10980.42
          -100.678932,33.880463,10980.42
          -100.752754,33.899918,10988.04
          -100.827484,33.914051,10988.04
          -100.900795,33.927933,10988.04
          -100.97403,33.941654,10980.42
          -101.048264,33.955582,10972.8
          -101.117325,33.968353,10972.8
          -101.190552,33.981876,10972.8
          -101.263336,33.995235,10972.8
          -101.336319,34.008636,10972.8
          -101.404541,34.021225,10972.8
          -101.477676,34.034527,10972.8
          -101.547943,34.047329,10980.42
          -101.617699,34.05999,10972.8
          -101.687325,34.072586,10965.18
          -101.755371,34.084854,10965.18
          -101.827866,34.097839,10965.18
          -101.896072,34.110081,10965.18
          -101.964615,34.122299,10965.18
          -102.037766,34.135254,10965.18
          -102.111397,34.1483,10972.8
          -102.182632,34.160915,10980.42
          -102.254852,34.17358,10980.42
          -102.327805,34.186333,10980.42
          -102.397324,34.198437,10980.42
          -102.470856,34.211239,10980.42
          -102.540604,34.223297,10972.8
          -102.616135,34.236332,10972.8
          -102.684616,34.248138,10972.8
          -102.755699,34.260307,10980.42
          -102.829285,34.272827,10972.8
          -102.899155,34.284744,10972.8
          -102.969528,34.29657,10965.18
          -103.042603,34.308907,10972.8
          -103.114182,34.320965,10972.8
          -103.184166,34.332649,10972.8
          -103.254433,34.344425,10972.8
          -103.326187,34.356388,10972.8
          -103.394737,34.367657,10972.8
          -103.464249,34.37915,10965.18
          -103.53437,34.39064,10957.56
          -103.603767,34.402084,10957.56
          -103.676834,34.413975,10972.8
          -103.75042,34.425938,10980.42
          -103.824051,34.437836,10988.04
          -103.893723,34.449051,10988.04
          -103.963234,34.460266,10972.8
          -104.033073,34.47139,10972.8
          -104.104431,34.482788,10965.18
          -104.175224,34.494003,10957.56
          -104.245949,34.505219,10957.56
          -104.316498,34.516296,10965.18
          -104.385529,34.5271,10972.8
          -104.452682,34.537628,10980.42
          -104.524612,34.548698,10980.42
          -104.595222,34.559635,10980.42
          -104.662338,34.57011,10980.42
          -104.733398,34.580978,10980.42
          -104.805679,34.592083,10972.8
          -104.873581,34.602493,10972.8
          -104.946114,34.613571,10972.8
          -105.018196,34.624435,10980.42
          -105.085999,34.634632,10988.04
          -105.158676,34.645527,10988.04
          -105.227165,34.655869,10988.04
          -105.295547,34.665962,10980.42
          -105.368042,34.676762,10972.8
          -105.438705,34.68718,10965.18
          -105.511551,34.697849,10957.56
          -105.579453,34.70787,10957.56
          -105.651649,34.718353,10965.18
          -105.722923,34.728714,10972.8
          -105.795929,34.739273,10980.42
          -105.865692,34.74929,10988.04
          -105.939674,34.759903,10988.04
          -106.013245,34.770447,10980.42
          -106.08799,34.781086,10972.8
          -106.160835,34.791321,10965.18
          -106.234825,34.801758,10965.18
          -106.308632,34.812088,10957.56
          -106.383362,34.822517,10957.56
          -106.457001,34.83276,10972.8
          -106.529381,34.842819,10988.04
          -106.59771,34.852249,10972.8
          -106.668716,34.861855,10972.8
          -106.739464,34.871567,10972.8
          -106.80719,34.880753,10972.8
          -106.878891,34.890438,10972.8
          -106.949379,34.899994,10972.8
          -107.015465,34.908829,10972.8
          -107.083908,34.917892,10972.8
          -107.15358,34.927185,10965.18
          -107.222137,34.936295,10957.56
          -107.29071,34.945274,10965.18
          -107.360191,34.954376,10972.8
          -107.431808,34.963711,10972.8
          -107.503014,34.973007,10972.8
          -107.573639,34.982117,10972.8
          -107.644104,34.991177,10972.8
          -107.714165,35.000061,10972.8
          -107.785294,35.009216,10980.42
          -107.855362,35.018131,10980.42
          -107.926315,35.02702,10972.8
          -107.995377,35.035679,10965.18
          -108.063873,35.044247,10957.56
          -108.132652,35.052841,10957.56
          -108.202682,35.061516,10972.8
          -108.272728,35.070099,10980.42
          -108.342178,35.078613,10988.04
          -108.413658,35.087399,10988.04
          -108.483597,35.095871,10980.42
          -108.555458,35.104568,10965.18
          -108.624352,35.112854,10965.18
          -108.691048,35.120819,10965.18
          -108.76339,35.129482,10972.8
          -108.834167,35.137863,10972.8
          -108.904953,35.146149,10972.8
          -108.976585,35.154556,10972.8
          -109.048065,35.162907,10972.8
          -109.11821,35.171055,10965.18
          -109.189362,35.17923,10957.56
          -109.259377,35.187206,10957.56
          -109.330498,35.195389,10965.18
          -109.397598,35.202988,10965.18
          -109.465652,35.210716,10972.8
          -109.533241,35.218277,10972.8
          -109.605621,35.226498,10972.8
          -109.671593,35.233704,10980.42
          -109.741913,35.241486,10980.42
          -109.813316,35.249355,10988.04
          -109.883385,35.256943,10980.42
          -109.954834,35.264694,10972.8
          -110.024872,35.272385,10972.8
          -110.094345,35.279846,10965.18
          -110.164886,35.287354,10965.18
          -110.232491,35.294651,10972.8
          -110.303078,35.302139,10972.8
          -110.372803,35.309452,10972.8
          -110.444756,35.317017,10972.8
          -110.517258,35.324524,10972.8
          -110.589409,35.332077,10972.8
          -110.66172,35.339481,10972.8
          -110.732315,35.346649,10965.18
          -110.804047,35.353912,10965.18
          -110.873383,35.360893,10965.18
          -110.944794,35.368015,10965.18
          -111.017548,35.375233,10972.8
          -111.085976,35.382076,10980.42
          -111.155777,35.389023,10988.04
          -111.226105,35.395889,10980.42
          -111.29866,35.402985,10972.8
          -111.372383,35.410007,10965.18
          -111.444168,35.416855,10965.18
          -111.516151,35.423859,10858.5
          -111.58416,35.430256,10713.72
          -111.66172,35.437454,10507.98
          -111.741653,35.445053,9989.82
          -111.818962,35.452324,9456.42
          -111.894493,35.460571,9166.86
          -111.971077,35.4702,9144
          -112.048706,35.479935,9144
          -112.127319,35.489731,9144
          -112.203194,35.499153,9144
          -112.28125,35.508865,9144
          -112.358345,35.518333,9144
          -112.435951,35.527737,9144
          -112.513672,35.53714,9144
          -112.589378,35.54631,9144
          -112.664856,35.555435,9144
          -112.743469,35.56485,9144
          -112.819771,35.573963,9144
          -112.894531,35.582794,9144
          -112.972984,35.592041,9144
          -113.053055,35.601475,9144
          -113.129959,35.610508,9090.66
          -113.206398,35.619305,8938.26
          -113.283859,35.628204,8709.66
          -113.364059,35.637413,8176.26
          -113.441505,35.646194,7650.48
          -113.517113,35.655895,7231.38
          -113.588905,35.667618,6964.68
          -113.660637,35.679356,6705.6
          -113.732803,35.691181,6438.9
          -113.80291,35.702591,6164.58
          -113.867737,35.713108,5928.36
          -113.930283,35.72319,5692.14
          -113.987595,35.73238,5501.64
          -114.042587,35.741131,5303.52
          -114.094948,35.749512,5120.64
          -114.143997,35.757523,4945.38
          -114.150932,35.759243,4914.9
          -114.154129,35.760223,4899.66
          -114.157501,35.761368,4884.42
          -114.161163,35.762787,4869.18
          -114.1642,35.764023,4853.94
          -114.167412,35.765385,4846.32
          -114.171265,35.767109,4831.08
          -114.174072,35.768364,4823.46
          -114.176956,35.769653,4815.84
          -114.180336,35.771164,4800.6
          -114.183487,35.772537,4785.36
          -114.186401,35.773865,4777.74
          -114.190231,35.775558,4762.5
          -114.193382,35.776932,4747.26
          -114.237534,35.796391,4572
          -114.285164,35.817352,4373.88
          -114.332138,35.838409,4183.38
          -114.372993,35.863426,4008.12
          -114.415421,35.889774,3810
          -114.455681,35.91481,3634.74
          -114.47319,35.925705,3550.92
          -114.4925,35.937771,3489.96
          -114.511703,35.949738,3398.52
          -114.528412,35.960083,3291.84
          -114.547867,35.972076,3223.26
          -114.564789,35.982506,3154.68
          -114.580421,35.992172,3086.1
          -114.596329,36.001968,3002.28
          -114.613724,36.01268,2895.6
          -114.627022,36.020912,2880.36
          -114.642502,36.030396,2834.64
          -114.655479,36.038044,2743.2
          -114.669403,36.044952,2689.86
          -114.684059,36.05201,2636.52
          -114.698013,36.058823,2567.94
          -114.712143,36.065826,2506.98
          -114.724319,36.070908,2446.02
          -114.726677,36.071503,2438.4
          -114.72879,36.071915,2430.78
          -114.731827,36.072327,2423.16
          -114.734375,36.072536,2415.54
          -114.73671,36.072632,2407.92
          -114.73967,36.072739,2400.3
          -114.742027,36.072819,2392.68
          -114.744484,36.072865,2377.44
          -114.747223,36.072876,2369.82
          -114.749863,36.07291,2354.58
          -114.752312,36.073002,2346.96
          -114.755463,36.073059,2324.1
          -114.757515,36.073097,2316.48
          -114.760201,36.073143,2301.24
          -114.762657,36.073143,2293.62
          -114.765228,36.073189,2278.38
          -114.767876,36.073196,2263.14
          -114.783844,36.073334,2209.8
          -114.798721,36.07338,2171.7
          -114.814056,36.073471,2141.22
          -114.828514,36.073563,2103.12
          -114.841606,36.073467,2011.68
          -114.856735,36.073517,1920.24
          -114.871277,36.073563,1844.04
          -114.884796,36.073563,1783.08
          -114.89888,36.073563,1706.88
          -114.913788,36.073563,1630.68
          -114.927391,36.073608,1569.72
          -114.941124,36.073563,1501.14
          -114.950012,36.073608,1463.04
          -114.956146,36.073608,1432.56
          -114.9645,36.073654,1402.08
          -114.970985,36.0737,1371.6
          -114.979477,36.0737,1325.88
          -114.98542,36.0737,1295.4
          -114.993896,36.0737,1257.3
          -115.000153,36.0737,1226.82
          -115.007629,36.073654,1188.72
          -115.014153,36.0737,1165.86
          -115.02195,36.073654,1127.76
          -115.027618,36.0737,1097.28
          -115.034981,36.0737,1066.8
          -115.041756,36.073654,1028.7
          -115.046768,36.0737,1005.84
          -115.053749,36.0737,975.36
          -115.058609,36.0737,952.5
          -115.065018,36.073654,922.02
          -115.06694,36.073654,914.4
          -115.07309,36.0737,891.54
          -115.079895,36.073746,861.06
          -115.084824,36.073792,838.2
          -115.091141,36.073795,807.72
          -115.097412,36.073746,777.24
          -115.103989,36.073746,746.76
          -115.109138,36.07375,723.9
          -115.115448,36.0737,701.04
          -115.121956,36.0737,670.56
          -115.12912,36.073654,632.46
          -115.135605,36.073654,640.08
          -115.140778,36.073654,640.08
          -115.144157,36.073666,0
          -115.146606,36.073677,0
          -115.147591,36.073734,0
          -115.147835,36.073772,0
          -115.148201,36.073853,0
          -115.148521,36.073933,0
          -115.148781,36.073997,0
          -115.149033,36.074074,0
          -115.149307,36.074169,0
          -115.149536,36.074272,0
          -115.14978,36.074364,0
          -115.150017,36.074482,0
          -115.150307,36.074615,0
          -115.150513,36.074707,0
          -115.150742,36.074841,0
          -115.150978,36.075005,0
          -115.151199,36.075199,0
          -115.151337,36.075409,0
          -115.151535,36.075634,0
          -115.151764,36.076019,0
          -115.151886,36.076225,0
          -115.152023,36.076469,0
          -115.152168,36.076721,0
          -115.15229,36.076939,0
          -115.152573,36.077404,0
          -115.152626,36.077614,0
          -115.152573,36.07782,0
          -115.152412,36.078026,0
          -115.152199,36.078266,0
          -115.152008,36.078518,0
          -115.151741,36.078747,0
          -115.151482,36.078781,0
          -115.151184,36.078777,0
          -115.150978,36.07877,0
          -115.150757,36.078751,0
          -115.150528,36.078739,0
          -115.150291,36.078724,0
          -115.150024,36.078705,0
          -115.149719,36.078678,0
          -115.149368,36.078655,0
          -115.148643,36.078613,0
          -115.147835,36.078556,0
          -115.146919,36.078495,0
          -115.146187,36.078449,0
          -115.145462,36.078403,0
          -115.144707,36.078346,0
          -115.144051,36.078312,0
          -115.143158,36.078274,0
          -115.142914,36.078266,0
          -115.142555,36.078266,0
          -115.142311,36.078262,0
          -115.142029,36.078266,0
          -115.1418,36.078262,0
          -115.141541,36.078266,0
          -115.141235,36.078266,0
          -115.140465,36.078266,0
          -115.140228,36.078335,0
          -115.139977,36.078484,0
          -115.139763,36.078655,0
          -115.139496,36.07888,0
          -115.139275,36.079056,0
          -115.139069,36.079227,0
          -115.138794,36.079456,0
          -115.138573,36.079636,0
          -115.138329,36.079845,0
          -115.138107,36.080017,0
          -115.137993,36.080235,0
          -115.138123,36.080441,0
          -115.138336,36.080624,0
          -115.138588,36.080826,0
        </coordinates>
      </LineString>
    </Placemark>
  </Document>
</kml>