<?xml version='1.0' encoding='utf-8'?>
<kml xmlns="http://www.opengis.net/kml/2.2">
  <Document>
    <Placemark>
      <name>DL92-2024-12-07</name>
      <TimeStamp>
        <when>2024-12-07</when>
      </TimeStamp>
      <LineString>
        <altitudeMode>absolute</altitudeMode>
        <coordinates>
          153.108383,-27.406254,0
          153.108521,-27.40646,0
          153.108688,-27.406664,0
          153.108856,-27.406885,0
          153.108871,-27.407101,0
          153.109085,-27.407047,0
          153.109314,-27.406918,0
          153.109528,-27.406803,0
          153.109741,-27.406675,0
          153.10997,-27.406563,0
          153.110275,-27.40638,0
          153.110519,-27.40621,0
          153.110748,-27.406013,0
          153.110962,-27.405785,0
          153.111115,-27.405571,0
          153.111313,-27.405247,0
          153.11145,-27.405006,0
          153.111664,-27.404663,0
          153.111832,-27.404366,0
          153.111954,-27.404148,0
          153.112152,-27.403778,0
          153.112381,-27.40337,0
          153.112671,-27.402912,0
          153.112839,-27.402672,0
          153.113007,-27.40242,0
          153.113159,-27.402195,0
          153.113388,-27.401951,0
          153.113647,-27.401869,0
          153.113861,-27.40188,0
          153.114136,-27.401974,0
          153.114792,-27.402323,0
          153.115204,-27.40251,0
          153.115448,-27.402626,0
          153.115662,-27.402718,0
          153.115875,-27.402811,0
          153.116165,-27.402935,0
          153.116394,-27.403044,0
          153.11676,-27.403175,0
          153.117065,-27.40321,0
          153.11734,-27.403208,0
          153.117599,-27.403187,0
          153.117874,-27.40313,0
          153.118118,-27.403004,0
          153.118271,-27.4028,0
          153.118362,-27.402592,0
          153.118469,-27.40237,0
          153.118729,-27.401951,0
          153.118896,-27.401619,0
          153.119049,-27.401356,0
          153.119293,-27.400927,0
          153.119614,-27.400391,0
          153.119751,-27.400135,0
          153.119995,-27.399719,0
          153.120392,-27.399033,0
          153.121475,-27.397156,0
          153.122635,-27.395107,38.1
          153.125626,-27.389877,38.1
          153.128174,-27.385378,22.86
          153.131668,-27.379232,114.3
          153.134903,-27.373535,213.36
          153.137741,-27.368711,274.32
          153.139511,-27.366211,297.18
          153.141129,-27.364288,312.42
          153.143143,-27.362274,335.28
          153.144821,-27.360659,358.14
          153.146561,-27.359024,381
          153.148636,-27.357147,411.48
          153.150681,-27.355305,441.96
          153.151947,-27.354172,464.82
          153.153748,-27.352606,487.68
          153.1548,-27.351721,502.92
          153.156647,-27.350138,525.78
          153.158173,-27.348862,548.64
          153.159882,-27.347443,571.5
          153.161743,-27.345886,594.36
          153.163101,-27.344788,609.6
          153.168228,-27.340622,670.56
          153.174454,-27.335661,739.14
          153.179993,-27.331284,792.48
          153.184799,-27.327467,838.2
          153.191833,-27.32202,899.16
          153.196899,-27.31811,929.64
          153.203873,-27.312757,975.36
          153.209991,-27.307983,1013.46
          153.215637,-27.303543,1043.94
          153.222885,-27.297813,1089.66
          153.231018,-27.291994,1135.38
          153.233185,-27.290876,1143
          153.235641,-27.28981,1158.24
          153.23793,-27.288986,1165.86
          153.240311,-27.2883,1173.48
          153.242905,-27.287712,1188.72
          153.245285,-27.287338,1196.34
          153.248596,-27.286926,1203.96
          153.251144,-27.286652,1211.58
          153.254044,-27.286377,1219.2
          153.256165,-27.286194,1226.82
          153.259491,-27.285873,1234.44
          153.262024,-27.285664,1242.06
          153.265457,-27.285337,1257.3
          153.268097,-27.285105,1264.92
          153.271301,-27.284866,1280.16
          153.274704,-27.284592,1287.78
          153.277359,-27.284409,1295.4
          153.280258,-27.284225,1310.64
          153.283691,-27.283997,1325.88
          153.293015,-27.283493,1356.36
          153.304413,-27.28299,1409.7
          153.317642,-27.282497,1463.04
          153.331314,-27.282074,1516.38
          153.344742,-27.28166,1562.1
          153.365921,-27.280962,1623.06
          153.391113,-27.280123,1699.26
          153.413818,-27.277588,1767.84
          153.41806,-27.27681,1775.46
          153.421173,-27.276167,1783.08
          153.425598,-27.275236,1798.32
          153.429306,-27.274445,1805.94
          153.432724,-27.273697,1813.56
          153.436874,-27.272827,1821.18
          153.440704,-27.272049,1828.8
          153.446045,-27.270905,1844.04
          153.471085,-27.265785,1950.72
          153.493576,-27.261223,2080.26
          153.518234,-27.256119,2225.04
          153.542175,-27.251266,2339.34
          153.566376,-27.246506,2453.64
          153.590057,-27.241837,2583.18
          153.614059,-27.237062,2712.72
          153.640839,-27.231615,2857.5
          153.666443,-27.226318,2994.66
          153.693604,-27.220722,3131.82
          153.71843,-27.215603,3261.36
          153.742935,-27.210617,3368.04
          153.773102,-27.204483,3497.58
          153.798615,-27.199215,3611.88
          153.826935,-27.193405,3733.8
          153.878052,-27.179897,3893.82
          153.880997,-27.178757,3901.44
          153.885651,-27.17688,3924.3
          153.889587,-27.175232,3947.16
          153.895401,-27.172806,3970.02
          153.899857,-27.170929,3985.26
          153.905045,-27.168818,4000.5
          153.963226,-27.145569,4229.1
          154.024902,-27.121445,4457.7
          154.087692,-27.096615,4732.02
          154.146744,-27.073198,4914.9
          154.211014,-27.047548,5166.36
          154.272446,-27.023155,5349.24
          154.33905,-26.996613,5532.12
          154.403351,-26.970932,5707.38
          154.472473,-26.943317,5943.6
          154.539551,-26.91655,6103.62
          154.60437,-26.890549,6240.78
          154.672501,-26.863201,6423.66
          154.739731,-26.836155,6606.54
          154.809128,-26.808197,6766.56
          154.876587,-26.780991,6896.1
          154.947021,-26.752487,7063.74
          155.01326,-26.725662,7223.76
          155.085602,-26.696312,7376.16
          155.155792,-26.667776,7597.14
          155.225159,-26.639511,7711.44
          155.295532,-26.610855,7810.5
          155.364487,-26.582678,7924.8
          155.435715,-26.553543,8046.72
          155.507095,-26.524302,8199.12
          155.582047,-26.49353,8336.28
          155.652222,-26.4646,8458.2
          155.720627,-26.431091,8580.12
          155.817139,-26.366631,8686.8
          155.886414,-26.312805,8808.72
          155.942474,-26.269913,8930.64
          156.029892,-26.202625,9037.32
          156.099976,-26.148346,9128.76
          156.165009,-26.097977,9204.96
          156.233459,-26.044907,9311.64
          156.311142,-25.984554,9418.32
          156.3909,-25.922516,9509.76
          156.481277,-25.852066,9639.3
          156.560837,-25.788223,9753.6
          156.625549,-25.739199,9966.96
          156.680603,-25.69595,10241.28
          156.749252,-25.642277,10302.24
          156.758469,-25.63504,10309.86
          156.870224,-25.547241,10355.58
          156.93988,-25.491451,10424.16
          157.02858,-25.422342,10485.12
          157.087219,-25.375973,10515.6
          157.145737,-25.329601,10637.52
          157.233093,-25.260401,10668
          157.320328,-25.191135,10668
          159.85022,-23.125362,10668
          160.509491,-22.668053,10668
          160.571976,-22.627167,10668
          160.640335,-22.582352,10668
          160.704163,-22.540421,10668
          160.761993,-22.502426,10668
          160.876007,-22.427378,10668
          160.942688,-22.383387,10668
          161.00853,-22.33992,10668
          161.080215,-22.292517,10668
          161.141266,-22.252121,10668
          161.207886,-22.208025,10668
          161.290085,-22.153427,10668
          161.357849,-22.108429,10668
          161.419769,-22.067184,10668
          161.483795,-22.024521,10668
          161.548813,-21.981174,10668
          161.6129,-21.938347,10668
          161.678543,-21.89447,10668
          161.745758,-21.84948,10668
          161.811234,-21.805618,10668
          161.878204,-21.760666,10668
          161.94371,-21.716619,10668
          162.004807,-21.67556,10668
          162.071304,-21.630753,10668
          162.138107,-21.58576,10668
          162.200806,-21.543411,10668
          162.265518,-21.499685,10668
          162.326614,-21.4583,10668
          162.390564,-21.415009,10668
          162.456833,-21.370056,10668
          162.519791,-21.327303,10668
          162.587173,-21.281496,10668
          162.653809,-21.236153,10668
          162.718765,-21.191929,10668
          162.784027,-21.1474,10668
          162.846939,-21.10441,10668
          162.912796,-21.059395,10668
          162.974579,-21.017349,10668
          163.041229,-20.97908,10668
          163.110825,-20.945621,10668
          163.184097,-20.909409,10668
          163.254196,-20.874582,10668
          163.325592,-20.839371,10668
          163.395248,-20.804947,10668
          163.465378,-20.770294,10668
          163.535339,-20.73567,10668
          163.60202,-20.702499,10668
          163.673538,-20.666977,10668
          163.746719,-20.630556,10668
          163.818115,-20.595062,10668
          163.890457,-20.558945,10668
          163.959564,-20.524429,10668
          164.030075,-20.489176,10668
          164.102051,-20.45311,10668
          164.1707,-20.418695,10668
          164.243561,-20.382153,10668
          164.315735,-20.345856,10668
          164.386658,-20.310196,10668
          164.461884,-20.272243,10668
          164.53389,-20.235886,10668
          164.606827,-20.199097,10668
          164.678146,-20.163071,10668
          164.748322,-20.127502,10668
          164.825287,-20.088501,10668
          164.898148,-20.051445,10668
          164.97374,-20.01297,10668
          165.043716,-19.971655,10668
          165.108475,-19.928741,10668
          165.17601,-19.884933,10668
          165.242264,-19.84182,10668
          165.307602,-19.799103,10668
          165.375229,-19.754883,10668
          165.442871,-19.71059,10668
          165.510834,-19.666039,10668
          165.580444,-19.620371,10668
          165.650925,-19.57402,10668
          165.717087,-19.530533,10668
          165.783646,-19.486679,10668
          165.849213,-19.44338,10668
          165.916458,-19.399063,10668
          165.98674,-19.352646,10668
          166.054077,-19.308105,10668
          166.125473,-19.260801,10668
          166.19577,-19.214172,10668
          166.262192,-19.17009,10668
          166.329819,-19.125183,10668
          166.396133,-19.081017,10668
          166.462494,-19.03688,10668
          166.530258,-18.991684,10668
          166.597275,-18.94693,10668
          166.664444,-18.902071,10668
          166.73204,-18.856888,10668
          166.799194,-18.81189,10668
          166.865448,-18.767487,10668
          167.723419,-18.188187,10972.8
          167.729446,-18.184095,10972.8
          167.95903,-18.027786,10972.8
          167.973602,-18.018137,10972.8
          168.11647,-17.942768,10972.8
          168.192642,-17.905062,10972.8
          168.267044,-17.868099,10972.8
          168.340042,-17.831955,10972.8
          168.419693,-17.792496,10972.8
          168.492706,-17.756327,10972.8
          168.566666,-17.71969,10972.8
          168.644852,-17.680773,10972.8
          168.719452,-17.643671,10972.8
          168.794388,-17.606382,10972.8
          168.885468,-17.5609,10972.8
          168.972519,-17.517471,10972.8
          169.194565,-17.406326,10972.8
          169.267822,-17.369524,10972.8
          169.441162,-17.282379,10972.8
          169.51268,-17.246384,10972.8
          169.601349,-17.201656,10972.8
          169.669708,-17.167116,10972.8
          169.803024,-17.099709,10972.8
          169.871567,-17.064972,10980.42
          169.950897,-17.024759,10972.8
          171.426544,-16.164494,11272.7232
          175.008087,-13.992462,11278.8192
          176.995758,-12.428112,11277.6
          178.46312,-11.137905,11275.1616
          179.096207,-9.672432,11278.8192
          -179.526733,-8.456211,11281.2576
          -179.173279,-8.405399,11280.0384
          -177.756378,-8.188763,11277.6
          -176.022614,-6.82869,11280.0384
          -174.418091,-5.538483,11278.8192
          -171.985992,-3.596821,11278.8192
          -169.726974,-1.810188,11277.6
          -168.516815,-1.087997,11277.6
          -167.843567,-0.689671,11277.6
          -167.233368,-0.337305,11277.6
          -166.565399,0.051891,11277.6
          -165.933472,0.430364,11582.4
          -165.301849,0.812991,11582.4
          -164.999741,0.99792,11582.4
          -164.684875,1.231917,11582.4
          -164.106598,1.68743,11734.8
          -163.551392,2.148145,11887.2
          -162.995651,2.613064,11887.2
          -162.437851,3.064893,11887.2
          -161.870377,3.504284,11887.2
          -161.31395,3.950086,11887.2
          -160.752014,4.398242,11887.2
          -159.975983,5.01927,11887.2
          -159.630325,5.30008,11887.2
          -159.064896,5.752359,11887.2
          -158.524918,6.191455,11887.2
          -157.995346,6.622594,11887.2
          -157.426193,7.075259,11887.2
          -156.883118,7.502703,11887.2
          -155.834747,8.387151,11887.2
          -155.289581,8.775602,11887.2
          -154.26059,9.798133,11887.2
          -153.750061,10.262914,11887.2
          -153.248749,10.767759,11887.2
          -152.747635,11.277407,11887.2
          -152.237,11.793916,11887.2
          -151.698914,12.334588,11887.2
          -151.186188,12.847821,11887.2
          -150.657211,13.364067,11887.2
          -150.13353,13.869903,11887.2
          -149.995987,14.003876,11887.2
          -149.649353,14.404584,11887.2
          -149.20459,14.959327,11887.2
          -148.768021,15.521935,11887.2
          -148.334122,16.052431,11887.2
          -147.888077,16.596092,12192
          -147.429718,17.155052,12192
          -146.973572,17.696581,12192
          -146.520126,18.232067,12192
          -146.054413,18.779903,12192
          -145.586609,19.317604,12192
          -145.117432,19.865005,12192
          -144.995285,20.00634,12192
          -144.604614,20.367697,12192
          -144.048981,20.815676,12192
          -143.465485,21.280157,12192
          -142.909561,21.728741,12192
          -142.513321,22.043219,12192
          -139.98848,23.998775,12193.2192
          -135.91362,25.657749,12496.8
          -135.00351,26.001526,12496.8
          -134.490021,26.213036,12496.8
          -133.101593,26.788445,12498.0192
          -129.954208,28.020718,12496.8
          -125.995316,29.622389,12496.8
          -124.998398,30.00395,12496.8
          -124.581802,30.176971,12496.8
          -123.017899,30.874374,12496.8
          -122.764999,30.98259,12496.8
          -122.682129,31.017897,12496.8
          -122.618408,31.044983,12496.8
          -122.369293,31.150522,12496.8
          -122.253487,31.199295,12496.8
          -122.200325,31.226683,12496.8
          -122.188759,31.235001,12496.8
          -122.179337,31.242649,12496.8
          -122.114685,31.298372,12496.8
          -122.055954,31.345917,12496.8
          -121.994003,31.396366,12496.8
          -121.933701,31.445938,12496.8
          -121.871933,31.496704,12496.8
          -121.809647,31.547707,12496.8
          -121.746826,31.599106,12496.8
          -121.677788,31.655457,12496.8
          -121.613434,31.707893,12496.8
          -121.550156,31.759426,12496.8
          -121.482368,31.814438,12496.8
          -121.418373,31.866302,12496.8
          -121.358681,31.914631,12496.8
          -121.297249,31.964302,12496.8
          -121.233345,32.015789,12496.8
          -121.17173,32.065475,12496.8
          -121.109657,32.115372,12496.8
          -121.049995,32.163174,12496.8
          -120.985313,32.214985,12496.8
          -120.92382,32.264191,12496.8
          -120.861526,32.31395,12496.8
          -120.798828,32.363953,12496.8
          -120.738403,32.411995,12496.8
          -120.675476,32.46199,12496.8
          -120.616699,32.508728,12092.94
          -120.550682,32.560963,11628.12
          -120.486443,32.61166,11186.16
          -120.425797,32.659607,10782.3
          -120.361923,32.710007,10271.76
          -120.298096,32.759949,9883.14
          -120.279251,32.774689,9768.84
          -120.176201,32.855713,9166.86
          -120.115501,32.902954,8808.72
          -120.054893,32.950188,8450.58
          -119.99575,32.996384,8092.44
          -119.937965,33.041428,7749.54
          -119.875526,33.090031,7391.4
          -119.819092,33.133713,7071.36
          -119.763939,33.176376,6758.94
          -119.710678,33.21772,6454.14
          -119.657043,33.259048,6141.72
          -119.605911,33.298397,5844.54
          -119.549637,33.341831,5509.26
          -119.50042,33.379864,5173.98
          -119.449753,33.41864,4876.8
          -119.401039,33.455883,4587.24
          -119.349304,33.495731,4274.82
          -119.302078,33.531784,3977.64
          -119.251099,33.570648,3665.22
          -119.205208,33.605453,3383.28
          -119.18322,33.622055,3253.74
          -119.161835,33.638321,3192.78
          -119.140678,33.654419,3139.44
          -119.120926,33.669418,3101.34
          -119.10553,33.681152,3070.86
          -119.086472,33.695618,3032.76
          -119.067932,33.709686,3002.28
          -119.050598,33.722858,2933.7
          -119.036247,33.733795,2827.02
          -119.018814,33.747025,2712.72
          -119.000992,33.760662,2606.04
          -118.983337,33.774124,2506.98
          -118.968773,33.785149,2423.16
          -118.950974,33.798462,2324.1
          -118.933617,33.811523,2225.04
          -118.915787,33.824997,2125.98
          -118.897934,33.838448,2026.92
          -118.880478,33.851715,1927.86
          -118.86232,33.865448,1836.42
          -118.845161,33.87767,1783.08
          -118.8414,33.879787,1767.84
          -118.837395,33.881744,1752.6
          -118.833275,33.883511,1729.74
          -118.829384,33.885048,1714.5
          -118.824539,33.886917,1699.26
          -118.819939,33.888611,1684.02
          -118.815681,33.890167,1661.16
          -118.812042,33.891472,1653.54
          -118.807068,33.893288,1630.68
          -118.786369,33.90097,1546.86
          -118.769012,33.907486,1478.28
          -118.756546,33.912003,1432.56
          -118.752365,33.913212,1417.32
          -118.747498,33.91433,1394.46
          -118.74321,33.915073,1379.22
          -118.738747,33.91568,1363.98
          -118.733994,33.916145,1341.12
          -118.730103,33.91647,1333.5
          -118.724785,33.916843,1310.64
          -118.720322,33.917217,1295.4
          -118.716133,33.917587,1280.16
          -118.71151,33.918053,1264.92
          -118.706879,33.918518,1249.68
          -118.703072,33.918961,1234.44
          -118.689728,33.920563,1181.1
          -118.680595,33.92157,1150.62
          -118.66774,33.922894,1104.9
          -118.6548,33.924107,1051.56
          -118.64296,33.92527,998.22
          -118.631119,33.926479,944.88
          -118.62059,33.927597,899.16
          -118.607613,33.928986,838.2
          -118.600327,33.929764,807.72
          -118.590027,33.930855,754.38
          -118.57914,33.931961,701.04
          -118.569214,33.933014,662.94
          -118.560364,33.933929,632.46
          -118.551109,33.934845,586.74
          -118.541962,33.935791,541.02
          -118.533737,33.93663,495.3
          -118.525612,33.9375,457.2
          -118.517822,33.938305,419.1
          -118.512825,33.938828,396.24
          -118.505432,33.93956,365.76
          -118.49865,33.940258,335.28
          -118.491081,33.941071,297.18
          -118.484116,33.94175,259.08
          -118.476959,33.942493,228.6
          -118.469986,33.943237,190.5
          -118.462944,33.943935,160.02
          -118.456024,33.944633,121.92
          -118.449318,33.945328,91.44
          -118.442398,33.94603,60.96
          -118.434448,33.946823,15.24
          -118.427963,33.947525,0
          -118.42157,33.948174,0
          -118.418037,33.948544,0
          -118.414894,33.948864,0
          -118.412254,33.949139,0
          -118.409813,33.949383,0
          -118.407425,33.949619,0
          -118.405708,33.949768,0
          -118.404549,33.949905,0
          -118.403831,33.949986,0
          -118.403275,33.950012,0
          -118.403061,33.94994,0
          -118.402863,33.949711,0
          -118.402893,33.949459,0
          -118.403137,33.949219,0
          -118.403351,33.949093,0
          -118.40358,33.948956,0
          -118.403824,33.948883,0
          -118.40403,33.948841,0
          -118.404282,33.948826,0
          -118.404526,33.948814,0
          -118.404747,33.948784,0
          -118.404984,33.948761,0
          -118.405235,33.948738,0
          -118.405624,33.948704,0
          -118.406105,33.948647,0
          -118.406464,33.948616,0
          -118.406998,33.948555,0
          -118.407532,33.948498,0
          -118.407967,33.948452,0
          -118.408241,33.948429,0
          -118.408516,33.948406,0
          -118.408783,33.948315,0
          -118.40889,33.948097,0
          -118.408875,33.947895,0
          -118.408974,33.947662,0
          -118.409142,33.94743,0
          -118.409203,33.947205,0
          -118.409134,33.946987,0
          -118.409103,33.94677,0
          -118.409058,33.946564,0
          -118.409035,33.946358,0
          -118.409004,33.94614,0
          -118.408974,33.945927,0
          -118.408943,33.945705,0
          -118.408905,33.945465,0
          -118.408875,33.945263,0
          -118.408997,33.945053,0
          -118.409203,33.944881,0
          -118.409409,33.944767,0
          -118.40963,33.944798,0
          -118.409843,33.944798,0
          -118.410057,33.944778,0
          -118.410286,33.944752,0
          -118.410072,33.944756,0
          -118.410301,33.944843,0
          -118.409912,33.944599,0
          -118.410156,33.944756,0
          -118.409843,33.944553,0
          -118.410156,33.944767,0
          -118.409943,33.944778,0
          -118.409714,33.944786,0
          -118.409485,33.944809,0
          -118.409271,33.944859,0
          -118.409058,33.945007,0
          -118.408897,33.945217,0
          -118.408897,33.945438,0
          -118.40892,33.94566,0
          -118.408951,33.945866,0
          -118.408997,33.946068,0
          -118.409004,33.946289,0
          -118.408783,33.946182,0
          -118.408531,33.946152,0
          -118.408287,33.946129,0
          -118.407997,33.94606,0
          -118.408279,33.945648,0
          -118.407913,33.946049,0
          -118.408531,33.945419,0
          -118.407928,33.946049,0
          -118.408226,33.945728,0
          -118.407913,33.946049,0
          -118.40844,33.945507,0
          -118.407913,33.946056,0
          -118.408554,33.945393,0
          -118.407913,33.946056,0
          -118.408569,33.945408,0
          -118.407898,33.94603,0
          -118.408424,33.945553,0
          -118.407852,33.945972,0
        </coordinates>
      </LineString>
    </Placemark>
  </Document>
</kml>