<?xml version='1.0' encoding='utf-8'?>
<kml xmlns="http://www.opengis.net/kml/2.2">
  <Document>
    <Placemark>
      <name>DL93-2024-12-05</name>
      <TimeStamp>
        <when>2024-12-05</when>
      </TimeStamp>
      <LineString>
        <altitudeMode>absolute</altitudeMode>
        <coordinates>
          -118.407913,33.946056,0
          -118.408127,33.946102,0
          -118.408333,33.946186,0
          -118.408569,33.946278,0
          -118.408806,33.946232,0
          -118.408974,33.94603,0
          -118.409012,33.946239,0
          -118.409058,33.946461,0
          -118.409088,33.946667,0
          -118.409111,33.946869,0
          -118.409142,33.94709,0
          -118.409157,33.947296,0
          -118.409073,33.947521,0
          -118.408897,33.947765,0
          -118.408867,33.947971,0
          -118.408752,33.948212,0
          -118.408539,33.94836,0
          -118.408249,33.948418,0
          -118.408012,33.948452,0
          -118.407768,33.948463,0
          -118.407509,33.948498,0
          -118.407211,33.948532,0
          -118.406967,33.948559,0
          -118.406708,33.948589,0
          -118.406441,33.948612,0
          -118.405937,33.948662,0
          -118.40538,33.948719,0
          -118.404846,33.948772,0
          -118.404251,33.948837,0
          -118.40361,33.948898,0
          -118.403061,33.948963,0
          -118.402603,33.949001,0
          -118.40213,33.949059,0
          -118.401619,33.949104,0
          -118.401115,33.949162,0
          -118.400589,33.949207,0
          -118.400192,33.949253,0
          -118.399727,33.94931,0
          -118.399521,33.949368,0
          -118.399307,33.949505,0
          -118.39917,33.949711,0
          -118.39917,33.949917,0
          -118.399185,33.950127,0
          -118.399277,33.950352,0
          -118.399521,33.950466,0
          -118.399727,33.950443,0
          -118.399963,33.950363,0
          -118.40023,33.950348,0
          -118.40152,33.950222,0
          -118.404709,33.949894,0
          -118.408798,33.949493,0
          -118.415741,33.948776,0
          -118.424156,33.947891,22.86
          -118.432617,33.94701,152.4
          -118.441078,33.945969,274.32
          -118.449715,33.944824,373.38
          -118.458542,33.943703,434.34
          -118.468208,33.94268,487.68
          -118.471352,33.942444,495.3
          -118.481049,33.941849,541.02
          -118.484344,33.941654,548.64
          -118.487434,33.941517,563.88
          -118.49115,33.94133,579.12
          -118.494873,33.941143,586.74
          -118.49762,33.941051,594.36
          -118.510094,33.940586,647.7
          -118.518158,33.940166,678.18
          -118.530464,33.939468,723.9
          -118.543564,33.938675,784.86
          -118.557243,33.93779,845.82
          -118.5709,33.936951,937.26
          -118.584709,33.935978,1028.7
          -118.598366,33.934982,1127.76
          -118.609314,33.933975,1203.96
          -118.618713,33.932785,1280.16
          -118.62265,33.932064,1318.26
          -118.627846,33.930862,1363.98
          -118.631973,33.929691,1402.08
          -118.636818,33.927979,1447.8
          -118.640739,33.926331,1485.9
          -118.644852,33.924244,1531.62
          -118.648621,33.922058,1569.72
          -118.652687,33.919357,1607.82
          -118.656265,33.916763,1645.92
          -118.658676,33.914932,1668.78
          -118.662598,33.911911,1706.88
          -118.666191,33.908981,1737.36
          -118.669571,33.906181,1767.84
          -118.672943,33.903297,1798.32
          -118.676437,33.900272,1836.42
          -118.680038,33.897152,1866.9
          -118.683342,33.894196,1897.38
          -118.698868,33.880161,2072.64
          -118.716972,33.863617,2278.38
          -118.733711,33.848736,2453.64
          -118.748413,33.835934,2598.42
          -118.766075,33.821091,2796.54
          -118.784065,33.806515,2964.18
          -118.80249,33.791943,3124.2
          -118.820274,33.777878,3223.26
          -118.840256,33.761639,3291.84
          -118.860077,33.745148,3345.18
          -118.875504,33.732124,3390.9
          -118.895645,33.715134,3459.48
          -118.916306,33.697723,3528.06
          -118.938103,33.679413,3665.22
          -118.987648,33.637894,4053.84
          -119.038177,33.595634,4366.26
          -119.089104,33.553024,4671.06
          -119.142113,33.50853,4937.76
          -119.19191,33.466682,5166.36
          -119.242256,33.424301,5478.78
          -119.293533,33.381168,5715
          -119.34481,33.337875,5943.6
          -119.400146,33.291134,6210.3
          -119.452385,33.24691,6438.9
          -119.507988,33.199799,6682.74
          -119.564491,33.151756,6926.58
          -119.620148,33.104366,7147.56
          -119.675995,33.056854,7330.44
          -119.733429,33.007816,7536.18
          -119.788002,32.961182,7703.82
          -119.84848,32.909454,7833.36
          -119.905716,32.860428,8016.24
          -119.968338,32.806549,8183.88
          -120.029167,32.754246,8328.66
          -120.089027,32.702621,8473.44
          -120.147911,32.651779,8633.46
          -120.205788,32.601788,8717.28
          -120.271179,32.545212,8808.72
          -120.336281,32.488667,8923.02
          -120.396309,32.43639,9029.7
          -120.456627,32.383896,9136.38
          -120.52153,32.327179,9258.3
          -120.583908,32.272659,9357.36
          -120.647652,32.21685,9464.04
          -120.710152,32.161964,9601.2
          -120.7743,32.10553,9700.26
          -120.834831,32.052292,9814.56
          -120.896416,31.997913,9974.58
          -120.955681,31.945496,10142.22
          -121.023987,31.885025,10317.48
          -121.085434,31.830643,10447.02
          -121.143494,31.779099,10530.84
          -121.206284,31.723255,10622.28
          -121.284172,31.653706,10835.64
          -121.34362,31.604919,10965.18
          -121.410988,31.560471,10972.8
          -121.479599,31.523712,10972.8
          -121.557854,31.490021,10972.8
          -121.632278,31.459072,10972.8
          -121.736099,31.415451,10972.8
          -121.828575,31.377045,10972.8
          -121.929504,31.335022,10972.8
          -121.955109,31.324348,10972.8
          -122.900124,30.92482,10972.8
          -122.954727,30.901428,10972.8
          -123.088448,30.844025,10972.8
          -123.138443,30.82247,10972.8
          -123.266602,30.767166,10972.8
          -124.388931,30.280855,10972.8
          -124.941193,30.030659,10972.8
          -125.594193,29.67926,10972.8
          -128.095779,28.184395,10972.8
          -130.517334,26.626455,10972.8
          -131.641617,25.7341,10974.0192
          -135.003448,23.001036,10058.4
          -135.046082,22.96773,10058.4
          -137.351929,21.163273,10058.4
          -140.019821,18.987043,10058.4
          -142.691284,16.355553,11583.6192
          -145.028076,13.973281,11582.4
          -146.783173,12.597542,11582.4
          -149.967834,10.026054,11582.4
          -151.318893,8.708267,11582.4
          -151.791336,8.24282,11582.4
          -152.248001,7.787286,11582.4
          -152.471252,7.553474,11582.4
          -152.714462,7.304202,11582.4
          -153.186462,6.828782,11582.4
          -153.6577,6.357505,11582.4
          -154.125519,5.890326,11582.4
          -154.585388,5.418341,11582.4
          -155.00267,4.996496,11582.4
          -155.480682,4.517664,11582.4
          -155.974319,4.024603,11582.4
          -156.445602,3.553984,11704.32
          -156.9095,3.102958,11887.2
          -157.375031,2.642459,11887.2
          -157.855942,2.162439,11887.2
          -158.299469,1.705894,11887.2
          -158.762833,1.236844,11887.2
          -159.231537,0.766875,11887.2
          -159.682312,0.316579,11887.2
          -159.997513,0.001927,11887.2
          -160.122971,-0.131694,11887.2
          -160.557617,-0.639219,11887.2
          -160.974136,-1.160223,11887.2
          -161.387482,-1.668024,11887.2
          -161.814682,-2.182634,11887.2
          -162.220505,-2.684456,11887.2
          -162.618149,-3.154559,12192
          -163.036774,-3.6548,12192
          -163.451385,-4.1541,12192
          -163.840485,-4.609505,12192
          -164.829086,-5.797176,12189.5616
          -167.467682,-8.995056,12190.7808
          -171.137939,-12.812666,12237.72
          -171.149658,-12.821045,12245.34
          -171.152588,-12.823373,12252.96
          -171.158951,-12.828633,12268.2
          -171.162262,-12.831528,12275.82
          -171.166901,-12.835802,12298.68
          -171.170029,-12.838688,12306.3
          -171.174362,-12.842832,12321.54
          -171.186356,-12.854462,12367.26
          -171.19072,-12.858673,12374.88
          -171.235519,-12.901906,12496.8
          -171.281494,-12.953796,12496.8
          -171.321671,-13.007859,12496.8
          -171.361572,-13.062378,12496.8
          -171.399872,-13.114929,12496.8
          -171.439987,-13.169861,12496.8
          -171.483475,-13.222185,12496.8
          -171.529297,-13.271988,12496.8
          -171.572678,-13.320099,12496.8
          -171.618286,-13.370407,12496.8
          -171.662033,-13.418427,12496.8
          -171.707596,-13.468414,12496.8
          -171.751297,-13.516342,12496.8
          -171.795395,-13.564636,12496.8
          -171.837723,-13.611053,12496.8
          -171.882568,-13.660217,12496.8
          -171.926376,-13.708099,12496.8
          -171.968903,-13.754654,12496.8
          -172.011932,-13.801761,12496.8
          -172.055038,-13.848816,12496.8
          -172.098984,-13.89679,12496.8
          -172.142807,-13.944583,12496.8
          -172.187729,-13.993561,12496.8
          -172.231888,-14.041784,12496.8
          -172.277603,-14.091476,12496.8
          -172.326294,-14.136704,12496.8
          -172.384018,-14.18367,12496.8
          -172.416733,-14.210257,12496.8
          -172.519714,-14.294004,12496.8
          -172.573669,-14.337662,12496.8
          -173.288361,-15.001007,12496.8
          -173.338043,-15.046463,12496.8
          -173.346085,-15.055984,12496.8
          -173.348557,-15.059044,12496.8
          -173.351501,-15.062721,12496.8
          -173.354645,-15.066586,12496.8
          -173.359634,-15.072876,12496.8
          -173.467697,-15.201819,12496.8
          -173.504181,-15.245113,12496.8
          -173.552856,-15.302948,12496.8
          -173.593521,-15.351196,12496.8
          -173.635391,-15.400772,12496.8
          -173.677124,-15.450222,12496.8
          -173.718704,-15.499466,12504.42
          -173.761978,-15.550542,12496.8
          -173.805344,-15.601822,12496.8
          -173.845245,-15.649047,12496.8
          -173.853531,-15.658813,12496.8
          -173.924316,-15.742245,12496.8
          -174.201721,-16.068808,12496.8
          -174.267639,-16.146149,12496.8
          -174.275391,-16.155209,12496.8
          -174.374313,-16.271263,12496.8
          -174.397614,-16.298496,12496.8
          -174.474762,-16.387877,12496.8
          -174.537094,-16.44495,12496.8
          -174.550003,-16.455185,12496.8
          -174.596542,-16.491316,12496.8
          -174.714493,-16.582838,12496.8
          -174.764435,-16.618927,12496.8
          -174.776291,-16.626457,12496.8
          -174.877869,-16.690018,12496.8
          -175.002335,-16.924026,12504.42
          -175.020584,-16.978043,12496.8
          -175.021454,-16.979919,12496.8
          -175.025894,-16.988937,12496.8
          -175.028,-16.99301,12496.8
          -175.029968,-16.996595,12496.8
          -175.032684,-17.00148,12496.8
          -175.035553,-17.006371,12496.8
          -175.149445,-17.123495,12496.8
          -175.159103,-17.13155,12496.8
          174.993149,-22.001324,12496.8
          170.500778,-22.90773,12496.8
          170.386398,-22.928978,12504.42
          170.306137,-22.943876,12496.8
          170.248154,-22.954536,12496.8
          170.24379,-22.955374,12496.8
          170.025009,-22.995255,12496.8
          169.954895,-23.000702,12496.8
          169.882797,-23.000427,12496.8
          169.801941,-23.001205,12496.8
          169.731903,-23.001694,12496.8
          169.65007,-23.00202,12496.8
          169.611435,-23.002167,12496.8
          169.509506,-23.002533,12496.8
          169.436996,-23.002716,12496.8
          169.409073,-23.002808,12496.8
          169.288437,-23.00309,12496.8
          169.195511,-23.003229,12496.8
          169.12204,-23.003311,12496.8
          169.051132,-23.003357,12496.8
          168.983856,-23.003357,12496.8
          168.914291,-23.003323,12496.8
          168.84343,-23.003265,12496.8
          168.772827,-23.003174,12496.8
          168.707275,-23.00309,12496.8
          168.635452,-23.002951,12496.8
          168.566833,-23.002762,12496.8
          168.495026,-23.002531,12496.8
          168.421829,-23.002298,12496.8
          168.354492,-23.002066,12496.8
          168.285263,-23.00174,12496.8
          168.219009,-23.001434,12496.8
          168.144577,-23.001041,12496.8
          168.076279,-23.001089,12496.8
          168.005478,-23.008211,12496.8
          167.932861,-23.024414,12496.8
          167.870651,-23.045151,12496.8
          167.800949,-23.069147,12496.8
          167.731125,-23.092804,12496.8
          167.665604,-23.115234,12496.8
          167.599136,-23.137985,12496.8
          167.529953,-23.161648,12496.8
          167.460175,-23.185482,12496.8
          167.391464,-23.208897,12496.8
          167.327271,-23.23073,12496.8
          167.259781,-23.253681,12496.8
          167.193893,-23.276047,12496.8
          167.126465,-23.298883,12496.8
          167.06105,-23.32095,12496.8
          166.995956,-23.343014,12496.8
          166.926117,-23.366547,12496.8
          166.860855,-23.388474,12496.8
          166.795349,-23.410515,12496.8
          166.729324,-23.432674,12496.8
          166.660812,-23.455578,12496.8
          166.590164,-23.479179,12496.8
          166.522171,-23.501898,12496.8
          166.457214,-23.523544,12496.8
          166.388443,-23.546448,12496.8
          166.321289,-23.568699,12496.8
          166.251831,-23.591766,12496.8
          166.183472,-23.61438,12496.8
          166.118973,-23.635712,12496.8
          166.053162,-23.657429,12496.8
          165.986526,-23.679382,12496.8
          165.92041,-23.701126,12496.8
          165.852249,-23.723486,12496.8
          165.787064,-23.744854,12496.8
          165.716507,-23.768005,12496.8
          165.648285,-23.790241,12496.8
          165.582886,-23.811584,12496.8
          165.5186,-23.83255,12496.8
          165.447891,-23.855484,12496.8
          165.380203,-23.877481,12496.8
          165.311325,-23.899796,12496.8
          165.240494,-23.922684,12496.8
          165.170837,-23.945168,12496.8
          165.10228,-23.967316,12496.8
          165.033356,-23.98632,12496.8
          164.960495,-23.997446,12496.8
          164.888718,-24.000778,12496.8
          164.817825,-24.000797,12496.8
          164.746887,-24.00145,12496.8
          164.673965,-24.001961,12496.8
          164.589081,-24.002335,12496.8
          164.515762,-24.002567,12496.8
          164.443771,-24.002752,12496.8
          164.368988,-24.002985,12496.8
          164.294998,-24.003126,12496.8
          164.223129,-24.00325,12496.8
          164.14978,-24.003359,12496.8
          164.074707,-24.003433,12496.8
          164.003174,-24.00345,12496.8
          163.926331,-24.003405,12496.8
          163.856003,-24.003359,12496.8
          163.781799,-24.003311,12496.8
          163.708237,-24.003159,12496.8
          163.635345,-24.002985,12496.8
          163.562775,-24.002792,12496.8
          163.48848,-24.002567,12496.8
          163.418777,-24.002335,12496.8
          163.34549,-24.002014,12496.8
          163.269638,-24.001682,12496.8
          163.199051,-24.001356,12496.8
          163.12822,-24.000937,12496.8
          163.057449,-24.002747,12496.8
          162.984924,-24.012863,12496.8
          162.914078,-24.030441,12496.8
          162.836197,-24.057266,12496.8
          162.770996,-24.079472,12496.8
          162.649277,-24.120941,12496.8
          162.632751,-24.126617,12496.8
          162.518417,-24.165802,12496.8
          162.250519,-24.25708,12496.8
          162.236984,-24.261703,12496.8
          161.379028,-24.549809,12496.8
          157.760773,-25.422131,12496.8
          157.684814,-25.435795,12496.8
          157.613068,-25.448627,12496.8
          157.520554,-25.465164,12496.8
          157.449448,-25.477844,12496.8
          157.356827,-25.494324,12496.8
          157.28154,-25.507645,12496.8
          157.206528,-25.520868,12496.8
          157.121643,-25.53581,12496.8
          157.044418,-25.549347,12496.8
          156.959808,-25.564116,12496.8
          156.874084,-25.579012,12496.8
          156.794861,-25.592791,12496.8
          156.71701,-25.606197,12496.8
          156.640732,-25.619371,12496.8
          156.563461,-25.632639,12496.8
          156.487701,-25.645628,12496.8
          156.425064,-25.656281,12496.8
          156.322281,-25.673792,12496.8
          156.249115,-25.686129,12496.8
          156.168671,-25.700409,12496.8
          156.089661,-25.722206,12496.8
          156.016342,-25.750992,12496.8
          155.947571,-25.78624,12496.8
          155.875397,-25.828491,12496.8
          155.810898,-25.865494,12496.8
          155.746948,-25.902283,12496.8
          155.682846,-25.939316,12496.8
          155.618591,-25.976336,12496.8
          155.551987,-26.014694,12390.12
          155.488464,-26.051239,12230.1
          155.427063,-26.086571,12077.7
          155.36824,-26.120178,11925.3
          155.305527,-26.156113,11757.66
          155.245056,-26.190674,11605.26
          155.182678,-26.226274,11376.66
          155.121307,-26.261374,11148.06
          155.06311,-26.294403,10828.02
          155.00528,-26.327271,10355.58
          154.948059,-26.359785,10005.06
          154.897354,-26.388556,9570.72
          154.847107,-26.416992,9128.76
          154.80011,-26.44372,8846.82
          154.750717,-26.471786,8549.64
          154.699646,-26.500652,8328.66
          154.648041,-26.529655,8077.2
          154.597855,-26.557938,7833.36
          154.567017,-26.577511,7673.34
          154.56395,-26.58021,7658.1
          154.561584,-26.582445,7642.86
          154.558411,-26.585587,7627.62
          154.556198,-26.588032,7612.38
          154.553818,-26.590685,7597.14
          154.551102,-26.593872,7581.9
          154.548874,-26.596619,7566.66
          154.546906,-26.599091,7551.42
          154.544678,-26.601904,7536.18
          154.542038,-26.605255,7520.94
          154.540131,-26.607769,7513.32
          154.537857,-26.610703,7490.46
          154.535858,-26.613262,7475.22
          154.533432,-26.616394,7452.36
          154.53183,-26.6185,7437.12
          154.499725,-26.660234,7109.46
          154.46788,-26.702087,6858
          154.438141,-26.742167,6492.24
          154.406982,-26.786499,6301.74
          154.376617,-26.828613,6057.9
          154.34671,-26.86902,5829.3
          154.315628,-26.91037,5585.46
          154.293182,-26.937744,5433.06
          154.290253,-26.940199,5417.82
          154.287292,-26.942387,5402.58
          154.283798,-26.944656,5387.34
          154.279404,-26.947083,5364.48
          154.275986,-26.948717,5349.24
          154.272812,-26.950022,5334
          154.270584,-26.950836,5326.38
          154.262833,-26.953047,5288.28
          154.259552,-26.953674,5273.04
          154.255035,-26.954361,5250.18
          154.250748,-26.954723,5227.32
          154.247528,-26.954819,5212.08
          154.243774,-26.954769,5196.84
          154.239853,-26.954491,5181.6
          154.236374,-26.954071,5166.36
          154.232941,-26.953512,5151.12
          154.228714,-26.952581,5128.26
          154.225342,-26.951651,5113.02
          154.221878,-26.950516,5097.78
          154.217621,-26.948868,5074.92
          154.214523,-26.947449,5059.68
          154.211777,-26.94603,5044.44
          154.208771,-26.944382,5029.2
          154.205215,-26.942202,5006.34
          154.202515,-26.940386,4991.1
          154.199402,-26.938244,4975.86
          154.196655,-26.936241,4960.62
          154.193008,-26.933487,4937.76
          154.190796,-26.931772,4922.52
          154.187408,-26.929119,4907.28
          154.18457,-26.926895,4892.04
          154.18129,-26.924278,4876.8
          154.178711,-26.922272,4869.18
          154.176376,-26.920368,4853.94
          154.172562,-26.917389,4846.32
          154.170105,-26.915451,4838.7
          154.130463,-26.883911,4648.2
          154.089935,-26.85141,4442.46
          154.077393,-26.843216,4389.12
          154.074341,-26.84166,4373.88
          154.071472,-26.840298,4366.26
          154.06781,-26.838821,4358.64
          154.064758,-26.837723,4351.02
          154.061646,-26.836761,4351.02
          154.0578,-26.835754,4343.4
          154.054733,-26.835085,4335.78
          154.051025,-26.834427,4328.16
          154.048386,-26.834106,4328.16
          154.044907,-26.833786,4320.54
          154.040726,-26.833595,4312.92
          154.037598,-26.833603,4312.92
          154.033295,-26.833878,4305.3
          154.030075,-26.834244,4297.68
          154.026413,-26.834898,4290.06
          154.022354,-26.835829,4282.44
          154.01915,-26.836761,4282.44
          154.015472,-26.838043,4274.82
          154.012955,-26.839088,4267.2
          154.009354,-26.840836,4259.58
          154.0065,-26.842392,4259.58
          154.003235,-26.844347,4251.96
          154.000702,-26.846008,4244.34
          153.997955,-26.847839,4236.72
          153.995316,-26.849655,4229.1
          153.992462,-26.851639,4229.1
          153.989502,-26.853699,4221.48
          153.986862,-26.85552,4213.86
          153.984268,-26.857315,4206.24
          153.981216,-26.859421,4191
          153.978775,-26.861023,4175.76
          153.975876,-26.862968,4168.14
          153.935623,-26.888899,3947.16
          153.894684,-26.915293,3749.04
          153.854095,-26.942001,3528.06
          153.837311,-26.953171,3436.62
          153.821442,-26.963608,3337.56
          153.804108,-26.975019,3246.12
          153.785843,-26.987045,3154.68
          153.769989,-26.997412,3086.1
          153.752777,-27.006226,3055.62
          153.749619,-27.007599,3048
          153.746796,-27.00877,3048
          153.7435,-27.010071,3040.38
          153.74025,-27.011423,3032.76
          153.737656,-27.012451,3032.76
          153.734436,-27.013779,3025.14
          153.714951,-27.021759,2979.42
          153.697281,-27.029205,2895.6
          153.676971,-27.037773,2804.16
          153.658173,-27.04578,2720.34
          153.63884,-27.053555,2628.9
          153.633698,-27.055023,2606.04
          153.629654,-27.055847,2590.8
          153.626678,-27.056301,2583.18
          153.62384,-27.05658,2567.94
          153.620071,-27.056808,2552.7
          153.616959,-27.056946,2537.46
          153.613174,-27.057037,2522.22
          153.610214,-27.057083,2514.6
          153.606613,-27.057091,2499.36
          153.603973,-27.057138,2484.12
          153.600861,-27.057138,2476.5
          153.596283,-27.057175,2453.64
          153.59317,-27.057175,2438.4
          153.590057,-27.05722,2430.78
          153.587006,-27.057266,2415.54
          153.583221,-27.057325,2400.3
          153.563034,-27.057791,2331.72
          153.541748,-27.058535,2263.14
          153.52005,-27.059372,2194.56
          153.499176,-27.060211,2125.98
          153.480377,-27.060955,2065.02
          153.461472,-27.061701,1996.44
          153.441452,-27.062445,1935.48
          153.421326,-27.063126,1866.9
          153.402924,-27.063766,1805.94
          153.384933,-27.064354,1752.6
          153.366867,-27.065002,1691.64
          153.347946,-27.065964,1630.68
          153.341827,-27.067017,1607.82
          153.339706,-27.067566,1600.2
          153.337112,-27.06839,1592.58
          153.334229,-27.069521,1584.96
          153.331161,-27.070999,1569.72
          153.328888,-27.072361,1562.1
          153.326614,-27.073896,1554.48
          153.324158,-27.075714,1539.24
          153.321808,-27.077574,1531.62
          153.319229,-27.079697,1516.38
          153.317215,-27.081392,1508.76
          153.31395,-27.084137,1501.14
          153.311829,-27.085922,1485.9
          153.308868,-27.088375,1478.28
          153.306763,-27.090097,1470.66
          153.304916,-27.091587,1455.42
          153.302536,-27.093496,1447.8
          153.300323,-27.095261,1440.18
          153.298264,-27.096848,1424.94
          153.290115,-27.103088,1394.46
          153.281403,-27.109543,1356.36
          153.274857,-27.114304,1333.5
          153.265854,-27.120758,1287.78
          153.259232,-27.125519,1257.3
          153.251617,-27.131807,1226.82
          153.249985,-27.13353,1219.2
          153.248505,-27.1353,1211.58
          153.246964,-27.137442,1203.96
          153.245972,-27.138931,1196.34
          153.244019,-27.142143,1181.1
          153.242905,-27.144012,1173.48
          153.241898,-27.145821,1165.86
          153.240784,-27.147812,1165.86
          153.23912,-27.150787,1150.62
          153.238037,-27.152756,1143
          153.237259,-27.154154,1135.38
          153.23616,-27.156052,1127.76
          153.235077,-27.158066,1120.14
          153.234085,-27.159897,1112.52
          153.232925,-27.161928,1104.9
          153.231857,-27.163879,1097.28
          153.227875,-27.170929,1059.18
          153.224792,-27.176451,1043.94
          153.221619,-27.182037,1021.08
          153.217606,-27.189161,990.6
          153.214767,-27.194138,967.74
          153.210617,-27.20137,937.26
          153.207657,-27.206497,922.02
          153.203674,-27.213409,883.92
          153.200867,-27.218256,861.06
          153.197052,-27.224958,815.34
          153.194351,-27.229706,784.86
          153.190353,-27.236755,739.14
          153.187134,-27.242416,701.04
          153.184113,-27.247723,670.56
          153.180359,-27.254333,624.84
          153.177673,-27.258942,594.36
          153.174347,-27.264761,556.26
          153.170746,-27.271091,510.54
          153.16745,-27.276901,480.06
          153.164398,-27.282303,441.96
          153.16214,-27.286268,419.1
          153.159317,-27.291183,388.62
          153.156204,-27.296677,358.14
          153.153168,-27.301956,320.04
          153.149368,-27.308613,274.32
          153.145935,-27.314575,236.22
          153.143234,-27.319366,205.74
          153.140656,-27.323959,182.88
          153.137634,-27.329237,152.4
          153.134628,-27.334404,114.3
          153.132309,-27.338516,83.82
          153.129715,-27.343048,60.96
          153.127289,-27.347206,38.1
          153.124649,-27.351721,7.62
          153.122421,-27.355774,0
          153.120102,-27.359867,0
          153.11734,-27.364655,0
          153.115555,-27.367781,0
          153.114029,-27.370411,0
          153.112656,-27.372826,0
          153.111649,-27.374645,0
          153.111465,-27.37508,0
          153.111374,-27.375427,0
          153.111298,-27.375847,0
          153.111267,-27.376057,0
          153.111252,-27.376305,0
          153.111252,-27.376545,0
          153.111237,-27.376812,0
          153.111237,-27.377033,0
          153.111252,-27.377314,0
          153.111267,-27.377569,0
          153.111282,-27.377827,0
          153.111298,-27.378035,0
          153.111328,-27.37825,0
          153.111435,-27.378513,0
          153.111649,-27.37871,0
          153.111862,-27.378803,0
          153.112167,-27.37888,0
          153.112381,-27.378834,0
          153.112671,-27.378489,0
          153.112808,-27.378284,0
          153.11293,-27.378056,0
          153.113068,-27.377836,0
          153.113174,-27.377632,0
          153.113312,-27.377403,0
          153.113464,-27.377138,0
          153.113602,-27.376888,0
          153.113922,-27.376324,0
          153.114197,-27.375824,0
          153.114517,-27.375275,0
          153.114899,-27.374599,0
          153.115189,-27.374096,0
          153.115387,-27.373764,0
          153.115616,-27.373386,0
          153.115829,-27.373238,0
          153.116089,-27.373228,0
          153.116348,-27.373322,0
          153.116577,-27.373432,0
          153.116867,-27.373581,0
          153.117188,-27.37373,0
          153.117447,-27.373844,0
          153.117661,-27.373938,0
          153.117905,-27.374054,0
          153.118118,-27.374153,0
          153.118637,-27.374392,0
          153.119247,-27.374657,0
          153.119919,-27.374973,0
          153.120575,-27.375265,0
          153.121216,-27.375549,0
          153.121811,-27.375824,0
          153.122559,-27.376173,0
          153.123245,-27.376474,0
          153.124008,-27.376831,0
          153.124741,-27.377172,0
          153.125427,-27.377476,0
          153.125839,-27.377666,0
          153.126221,-27.377838,0
          153.12645,-27.377941,0
          153.12674,-27.378078,0
          153.127045,-27.378208,0
          153.127411,-27.378376,0
          153.127823,-27.378571,0
          153.128281,-27.378777,0
          153.128693,-27.378965,0
          153.129074,-27.379141,0
          153.129227,-27.379383,0
          153.129196,-27.379646,0
          153.129059,-27.379862,0
          153.128937,-27.380095,0
          153.128815,-27.380304,0
          153.128677,-27.380537,0
          153.128555,-27.380768,0
          153.128418,-27.381008,0
          153.128159,-27.381456,0
          153.12793,-27.381844,0
          153.127579,-27.382469,0
          153.127289,-27.382969,0
          153.126953,-27.38356,0
          153.126617,-27.384167,0
          153.126282,-27.384739,0
          153.125992,-27.38525,0
          153.125748,-27.385666,0
          153.125488,-27.38611,0
          153.125153,-27.386694,0
          153.124969,-27.387028,0
          153.124817,-27.387291,0
          153.12468,-27.387531,0
          153.124466,-27.387892,0
          153.124252,-27.388288,0
          153.124054,-27.388618,0
          153.123856,-27.388973,0
          153.123535,-27.389532,0
          153.12326,-27.390011,0
          153.123001,-27.390472,0
          153.12262,-27.391127,0
          153.122269,-27.391745,0
          153.121948,-27.392303,0
          153.121536,-27.393036,0
          153.121109,-27.393782,0
          153.120651,-27.39456,0
          153.120239,-27.395306,0
          153.119904,-27.395897,0
          153.119583,-27.396458,0
          153.119125,-27.397247,0
          153.118668,-27.398041,0
          153.118195,-27.398884,0
          153.117859,-27.399467,0
          153.117538,-27.40003,0
          153.117279,-27.400484,0
          153.116989,-27.400978,0
          153.116714,-27.401451,0
          153.11647,-27.401894,0
          153.116302,-27.402191,0
          153.116135,-27.4025,0
          153.115891,-27.402695,0
          153.115601,-27.402695,0
          153.115372,-27.402578,0
          153.115097,-27.402443,0
          153.114853,-27.402334,0
          153.114639,-27.402248,0
          153.114349,-27.402113,0
          153.11409,-27.401985,0
          153.113861,-27.401892,0
          153.113647,-27.401871,0
          153.113419,-27.401928,0
          153.113174,-27.402122,0
          153.113052,-27.40234,0
          153.112869,-27.402615,0
          153.112686,-27.40287,0
          153.112534,-27.403107,0
          153.112396,-27.403336,0
          153.112289,-27.403545,0
          153.112122,-27.403755,0
          153.111877,-27.403759,0
          153.111633,-27.403633,0
          153.11142,-27.40353,0
          153.111191,-27.403429,0
        </coordinates>
      </LineString>
    </Placemark>
  </Document>
</kml>