<?xml version='1.0' encoding='utf-8'?>
<kml xmlns="http://www.opengis.net/kml/2.2">
  <Document>
    <Placemark>
      <name>DL941-2025-11-08</name>
      <TimeStamp>
        <when>2025-11-08</when>
      </TimeStamp>
      <LineString>
        <altitudeMode>absolute</altitudeMode>
        <coordinates>
          -84.429062,33.637436,0
          -84.428856,33.637436,0
          -84.428642,33.637436,0
          -84.428429,33.637402,0
          -84.4282,33.637367,0
          -84.427956,33.63739,0
          -84.427742,33.637333,0
          -84.427437,33.637459,0
          -84.427322,33.637688,0
          -84.427429,33.637913,0
          -84.427673,33.638077,0
          -84.427887,33.638229,0
          -84.42804,33.638565,0
          -84.42807,33.638924,0
          -84.42807,33.63913,0
          -84.42807,33.639542,0
          -84.42807,33.639763,0
          -84.42807,33.640079,0
          -84.428009,33.640457,0
          -84.42762,33.641224,0
          -84.427322,33.641991,0
          -84.427353,33.642281,0
          -84.42733,33.643452,0
          -84.427216,33.644524,0
          -84.426903,33.644711,0
          -84.426643,33.64473,0
          -84.426407,33.644669,0
          -84.426086,33.644699,0
          -84.425819,33.644711,0
          -84.425613,33.644699,0
          -84.425407,33.64468,0
          -84.425034,33.644711,0
          -84.424789,33.644711,0
          -84.424477,33.644711,0
          -84.42424,33.644699,0
          -84.423882,33.644699,0
          -84.423584,33.644703,0
          -84.423279,33.644691,0
          -84.423065,33.644688,0
          -84.422684,33.644714,0
          -84.422379,33.644806,0
          -84.422073,33.644955,0
          -84.421707,33.645119,0
          -84.421501,33.64526,0
          -84.420891,33.645432,0
          -84.420624,33.645451,0
          -84.420341,33.645439,0
          -84.420036,33.645432,0
          -84.419701,33.645432,0
          -84.419388,33.64542,0
          -84.419144,33.645409,0
          -84.418793,33.64542,0
          -84.418411,33.645439,0
          -84.41803,33.645439,0
          -84.417686,33.64542,0
          -84.416931,33.64542,0
          -84.41655,33.64542,0
          -84.416168,33.645424,0
          -84.415901,33.645424,0
          -84.415611,33.645424,0
          -84.415344,33.64542,0
          -84.414711,33.64542,0
          -84.414467,33.645432,0
          -84.414238,33.645432,0
          -84.413979,33.645439,0
          -84.413727,33.645439,0
          -84.413399,33.645432,0
          -84.413132,33.645432,0
          -84.412872,33.645439,0
          -84.41256,33.645432,0
          -84.412308,33.645439,0
          -84.41198,33.645439,0
          -84.411758,33.645424,0
          -84.411552,33.64542,0
          -84.411263,33.645424,0
          -84.410965,33.64542,0
          -84.410255,33.645435,0
          -84.409561,33.645443,0
          -84.409233,33.645435,0
          -84.408913,33.645435,0
          -84.408577,33.645454,0
          -84.408333,33.645489,0
          -84.408043,33.645561,0
          -84.407791,33.645618,0
          -84.407524,33.645653,0
          -84.407272,33.645676,0
          -84.407028,33.645699,0
          -84.406815,33.645699,0
          -84.406601,33.645699,0
          -84.406372,33.645699,0
          -84.406158,33.645699,0
          -84.40593,33.645733,0
          -84.405716,33.645916,0
          -84.40564,33.646141,0
          -84.405647,33.646374,0
          -84.405655,33.646595,0
          -84.405869,33.646816,0
          -84.406082,33.646832,0
          -84.406372,33.64682,0
          -84.406586,33.646809,0
          -84.406906,33.64682,0
          -84.407417,33.646805,0
          -84.407959,33.646797,0
          -84.408493,33.646797,0
          -84.408981,33.646797,0
          -84.409958,33.646793,0
          -84.410606,33.646797,0
          -84.410851,33.646805,0
          -84.413109,33.646793,327.66
          -84.417961,33.64682,0
          -84.420387,33.646801,0
          -84.422096,33.646809,0
          -84.423897,33.646778,0
          -84.425743,33.646809,0
          -84.433403,33.64677,0
          -84.436935,33.64682,457.2
          -84.438797,33.646885,487.68
          -84.44075,33.646957,518.16
          -84.442749,33.647026,563.88
          -84.444672,33.647141,586.74
          -84.446579,33.647232,617.22
          -84.448486,33.647369,647.7
          -84.450279,33.647461,670.56
          -84.452133,33.647587,701.04
          -84.453903,33.647724,723.9
          -84.455627,33.647865,739.14
          -84.457283,33.647964,746.76
          -84.459114,33.648144,762
          -84.460945,33.648285,769.62
          -84.463005,33.648422,777.24
          -84.468956,33.648842,800.1
          -84.470963,33.648983,800.1
          -84.473091,33.649246,807.72
          -84.475113,33.649567,815.34
          -84.4776,33.64996,830.58
          -84.479538,33.650333,838.2
          -84.481544,33.650658,838.2
          -84.483688,33.651077,838.2
          -84.485985,33.651443,838.2
          -84.488564,33.651901,845.82
          -84.490417,33.652241,845.82
          -84.492546,33.652634,853.44
          -84.494781,33.653046,861.06
          -84.497284,33.653545,868.68
          -84.499886,33.654053,868.68
          -84.502197,33.654522,868.68
          -84.504539,33.654968,868.68
          -84.507065,33.655499,868.68
          -84.514572,33.657028,906.78
          -84.525314,33.65913,960.12
          -84.535927,33.661148,1021.08
          -84.544281,33.662704,1089.66
          -84.555824,33.664902,1188.72
          -84.566513,33.666996,1272.54
          -84.575218,33.668655,1348.74
          -84.586487,33.670761,1463.04
          -84.597305,33.672722,1577.34
          -84.614525,33.675701,1737.36
          -84.633865,33.678867,1927.86
          -84.651505,33.681793,2080.26
          -84.66877,33.684631,2232.66
          -84.685707,33.68734,2385.06
          -84.70562,33.690647,2514.6
          -84.726616,33.694427,2644.14
          -84.744705,33.697723,2788.92
          -84.764496,33.701538,2948.94
          -84.782333,33.705963,3116.58
          -84.79982,33.710587,3208.02
          -84.820335,33.716309,3276.6
          -84.839005,33.721371,3322.32
          -84.861542,33.727562,3360.42
          -84.882141,33.733101,3398.52
          -84.903091,33.738689,3444.24
          -84.92897,33.74588,3497.58
          -84.951668,33.75219,3558.54
          -84.974541,33.758331,3634.74
          -85.002289,33.765701,3703.32
          -85.061584,33.781467,3878.58
          -85.124298,33.798183,4191
          -85.183121,33.813778,4457.7
          -85.210014,33.81839,4549.14
          -85.213264,33.81871,4564.38
          -85.217682,33.819038,4587.24
          -85.223007,33.819363,4610.1
          -85.226151,33.819504,4625.34
          -85.231712,33.819809,4648.2
          -85.23558,33.819992,4663.44
          -85.239883,33.820202,4678.68
          -85.244934,33.820404,4693.92
          -85.248802,33.820587,4709.16
          -85.253563,33.820805,4724.4
          -85.318794,33.823925,4991.1
          -85.368813,33.823425,5128.26
          -85.372528,33.82304,5143.5
          -85.377617,33.822483,5158.74
          -85.381966,33.821922,5173.98
          -85.386299,33.821365,5196.84
          -85.391685,33.820679,5212.08
          -85.395699,33.820107,5227.32
          -85.399818,33.81955,5242.56
          -85.4039,33.818985,5257.8
          -85.470772,33.809235,5753.1
          -85.534058,33.800602,6080.76
          -85.598465,33.793076,6278.88
          -85.661659,33.785706,6461.76
          -85.726204,33.778118,6644.64
          -85.792007,33.769459,6896.1
          -85.857071,33.760662,7086.6
          -85.920868,33.752003,7261.86
          -85.987816,33.744694,7421.88
          -85.99308,33.74474,7437.12
          -85.99646,33.744785,7444.74
          -86.000977,33.74501,7459.98
          -86.006416,33.745422,7475.22
          -86.009605,33.745743,7482.84
          -86.014091,33.746246,7490.46
          -86.019226,33.746975,7505.7
          -86.023506,33.74762,7520.94
          -86.027771,33.748306,7528.56
          -86.032501,33.749069,7543.8
          -86.0373,33.749817,7551.42
          -86.041504,33.750504,7566.66
          -86.045837,33.751163,7574.28
          -86.050026,33.751877,7581.9
          -86.05529,33.752701,7589.52
          -86.122223,33.763222,7749.54
          -86.188301,33.773758,7924.8
          -86.25602,33.784515,8077.2
          -86.323357,33.795109,8229.6
          -86.391548,33.805893,8351.52
          -86.458084,33.816467,8458.2
          -86.526428,33.827229,8580.12
          -86.596237,33.838169,8740.14
          -86.664078,33.84874,8900.16
          -86.730835,33.859131,9060.18
          -86.797485,33.869476,9220.2
          -86.863571,33.879684,9380.22
          -86.930069,33.889843,9532.62
          -86.995354,33.899872,9692.64
          -87.061676,33.91,9753.6
          -87.128105,33.920147,9753.6
          -87.196808,33.930542,9753.6
          -87.263199,33.940586,9753.6
          -87.328812,33.950455,9753.6
          -87.396866,33.960648,9753.6
          -87.461769,33.970367,9745.98
          -87.529083,33.980301,9753.6
          -87.597198,33.990444,9753.6
          -87.664398,34.000351,9768.84
          -87.732727,34.010513,9761.22
          -87.798584,34.020081,9761.22
          -87.864731,34.029694,9753.6
          -87.932396,34.039509,9822.18
          -87.998917,34.04924,9928.86
          -88.064499,34.058716,10027.92
          -88.126831,34.067627,10165.08
          -88.190559,34.076706,10287
          -88.254837,34.085873,10355.58
          -88.318024,34.094788,10363.2
          -88.382484,34.103897,10363.2
          -88.44606,34.112873,10363.2
          -88.51004,34.121811,10363.2
          -88.573723,34.130703,10363.2
          -88.63736,34.139694,10363.2
          -88.700699,34.148346,10363.2
          -88.763702,34.156952,10363.2
          -88.826584,34.165665,10363.2
          -88.890602,34.174484,10363.2
          -88.955444,34.183308,10363.2
          -89.02076,34.192154,10363.2
          -89.08432,34.20076,10370.82
          -89.149017,34.209469,10370.82
          -89.213165,34.218082,10363.2
          -89.279053,34.226852,10363.2
          -89.341217,34.235123,10370.82
          -89.407654,34.243919,10370.82
          -89.472885,34.252533,10370.82
          -89.534569,34.260677,10370.82
          -89.601295,34.269424,10370.82
          -89.666374,34.277893,10363.2
          -89.731621,34.286407,10363.2
          -89.795128,34.294601,10363.2
          -89.860382,34.302948,10363.2
          -89.926643,34.311466,10363.2
          -89.992508,34.319893,10363.2
          -90.054649,34.327744,10355.58
          -90.119949,34.336029,10355.58
          -90.182076,34.343819,10355.58
          -90.248337,34.352154,10363.2
          -90.31282,34.360252,10370.82
          -90.376854,34.368168,10370.82
          -90.444664,34.376633,10370.82
          -90.510178,34.384647,10370.82
          -90.573975,34.392513,10363.2
          -90.636459,34.40015,10363.2
          -90.702171,34.408127,10355.58
          -90.769211,34.416229,10355.58
          -90.83416,34.424076,10363.2
          -90.900826,34.432022,10363.2
          -90.963478,34.439484,10363.2
          -91.026268,34.446991,10363.2
          -91.090851,34.454662,10363.2
          -91.159004,34.462692,10370.82
          -91.221054,34.469925,10370.82
          -91.287231,34.477612,10370.82
          -91.353058,34.485306,10370.82
          -91.419083,34.492905,10370.82
          -91.483101,34.50032,10363.2
          -91.545876,34.507507,10363.2
          -91.610619,34.514877,10363.2
          -91.673416,34.521976,10363.2
          -91.739372,34.529388,10363.2
          -91.805511,34.536896,10363.2
          -91.870537,34.544174,10355.58
          -91.932449,34.551071,10355.58
          -91.998367,34.558334,10355.58
          -92.065041,34.565689,10363.2
          -92.1278,34.572533,10363.2
          -92.196411,34.580025,10370.82
          -92.262962,34.58725,10370.82
          -92.330391,34.594528,10370.82
          -92.393936,34.601349,10370.82
          -92.462311,34.608658,10363.2
          -92.529266,34.615723,10363.2
          -92.59758,34.622902,10363.2
          -92.663101,34.629791,10363.2
          -92.730499,34.636822,10363.2
          -92.798264,34.643875,10363.2
          -92.864967,34.650742,10363.2
          -92.931458,34.657581,10363.2
          -92.997894,34.664379,10363.2
          -93.062782,34.67099,10363.2
          -93.1269,34.677475,10363.2
          -93.195129,34.684303,10363.2
          -93.2621,34.691025,10363.2
          -93.325134,34.697292,10363.2
          -93.391861,34.703854,10363.2
          -93.459946,34.710606,10363.2
          -93.525879,34.717117,10363.2
          -93.59034,34.723297,10363.2
          -93.657547,34.729752,10363.2
          -93.724533,34.736256,10363.2
          -93.791542,34.74268,10363.2
          -93.859062,34.749058,10363.2
          -93.926437,34.755432,10370.82
          -93.989609,34.761292,10363.2
          -94.058716,34.767746,10363.2
          -94.123123,34.773743,10363.2
          -94.190727,34.779968,10363.2
          -94.259323,34.786251,10370.82
          -94.323288,34.792145,10363.2
          -94.389557,34.798077,10363.2
          -94.452095,34.803711,10363.2
          -94.518242,34.809624,10363.2
          -94.586678,34.815674,10363.2
          -94.651031,34.82135,10355.58
          -94.716454,34.827126,10355.58
          -94.783539,34.832977,10355.58
          -94.849777,34.838764,10363.2
          -94.913406,34.844257,10363.2
          -94.982018,34.850143,10370.82
          -95.04525,34.855499,10370.82
          -95.108978,34.860901,10370.82
          -95.177475,34.866604,10370.82
          -95.239731,34.871815,10363.2
          -95.307709,34.877403,10355.58
          -95.375519,34.883034,10355.58
          -95.4431,34.888527,10363.2
          -95.505409,34.893509,10363.2
          -95.574051,34.899078,10363.2
          -95.637276,34.904114,10363.2
          -95.703621,34.909431,10363.2
          -95.769943,34.914642,10370.82
          -95.837799,34.919952,10370.82
          -95.900406,34.924839,10363.2
          -95.968712,34.930161,10363.2
          -96.03508,34.935196,10363.2
          -96.10128,34.940231,10363.2
          -96.168991,34.945496,10363.2
          -96.233597,34.950256,10355.58
          -96.301575,34.95533,10363.2
          -96.367325,34.960171,10355.58
          -96.430664,34.964779,10363.2
          -96.498474,34.969715,10363.2
          -96.562729,34.974323,10363.2
          -96.627556,34.979004,10363.2
          -96.694656,34.98381,10363.2
          -96.760849,34.988525,10363.2
          -96.828293,34.993179,10363.2
          -96.895355,34.997879,10363.2
          -96.962196,35.002487,10363.2
          -97.026505,35.006863,10363.2
          -97.091003,35.01123,10363.2
          -97.159882,35.015896,10363.2
          -97.223564,35.020111,10363.2
          -97.290833,35.024551,10363.2
          -97.358147,35.028992,10363.2
          -97.422981,35.033211,10363.2
          -97.490448,35.038986,10363.2
          -97.557449,35.044895,10363.2
          -97.621193,35.050343,10363.2
          -97.688637,35.056091,10363.2
          -97.751076,35.06131,10363.2
          -97.819183,35.066986,10355.58
          -97.886696,35.072502,10355.58
          -97.954391,35.078041,10355.58
          -98.022316,35.083557,10363.2
          -98.090118,35.089077,10370.82
          -98.153931,35.094177,10370.82
          -98.221527,35.099625,10363.2
          -98.29081,35.105072,10355.58
          -98.355957,35.11021,10355.58
          -98.424164,35.115562,10355.58
          -98.495636,35.121151,10363.2
          -98.566132,35.126595,10363.2
          -98.631165,35.131531,10370.82
          -98.699158,35.136658,10370.82
          -98.76915,35.14196,10370.82
          -98.837875,35.147125,10363.2
          -98.906662,35.152222,10363.2
          -98.978233,35.157505,10363.2
          -99.044266,35.1623,10363.2
          -99.112541,35.167236,10363.2
          -99.180649,35.17218,10363.2
          -99.247803,35.176968,10355.58
          -99.318695,35.1819,10363.2
          -99.386787,35.186695,10363.2
          -99.458771,35.191677,10370.82
          -99.525665,35.196285,10370.82
          -99.598572,35.201294,10363.2
          -99.666626,35.205917,10363.2
          -99.738426,35.210724,10363.2
          -99.804794,35.215164,10363.2
          -99.875854,35.219887,10363.2
          -99.943146,35.224216,10363.2
          -100.014381,35.22887,10363.2
          -100.082359,35.233292,10363.2
          -100.153595,35.237823,10363.2
          -100.225296,35.242401,10370.82
          -100.292526,35.246521,10370.82
          -100.362915,35.250889,10363.2
          -100.433388,35.255268,10363.2
          -100.502579,35.259411,10363.2
          -100.569962,35.263508,10370.82
          -100.641891,35.267838,10363.2
          -100.709564,35.271839,10363.2
          -100.781326,35.276028,10355.58
          -100.85112,35.280075,10355.58
          -100.922585,35.284149,10355.58
          -100.989365,35.287945,10363.2
          -101.060371,35.29195,10363.2
          -101.127571,35.295719,10363.2
          -101.198616,35.299622,10363.2
          -101.265221,35.303192,10363.2
          -101.332169,35.306854,10363.2
          -101.403221,35.310711,10363.2
          -101.46904,35.314133,10363.2
          -101.538681,35.317741,10363.2
          -101.607758,35.321323,10370.82
          -101.678581,35.324955,10370.82
          -101.744972,35.328262,10363.2
          -101.814278,35.331657,10363.2
          -101.884117,35.335144,10363.2
          -101.952782,35.338531,10355.58
          -102.023193,35.3419,10355.58
          -102.092499,35.345158,10363.2
          -102.16169,35.348419,10363.2
          -102.231056,35.351723,10363.2
          -102.302399,35.354965,10363.2
          -102.369667,35.358006,10363.2
          -102.437462,35.361034,10363.2
          -102.50988,35.364212,10370.82
          -102.580925,35.367317,10378.44
          -102.650299,35.370392,10370.82
          -102.719887,35.373322,10363.2
          -102.789841,35.376209,10355.58
          -102.86264,35.379227,10355.58
          -102.933769,35.382122,10363.2
          -103.003632,35.384903,10363.2
          -103.071159,35.387569,10363.2
          -103.142807,35.390408,10363.2
          -103.21489,35.393188,10363.2
          -103.284691,35.39576,10363.2
          -103.356918,35.398506,10355.58
          -103.424492,35.40097,10363.2
          -103.492928,35.403351,10355.58
          -103.564224,35.405914,10363.2
          -103.630768,35.408249,10363.2
          -103.699776,35.41066,10363.2
          -103.771538,35.413078,10370.82
          -103.842598,35.415405,10370.82
          -103.915352,35.417828,10370.82
          -103.985764,35.420059,10370.82
          -104.058723,35.422302,10363.2
          -104.129852,35.424454,10370.82
          -104.201118,35.42667,10370.82
          -104.269241,35.428665,10363.2
          -104.340073,35.430771,10355.58
          -104.408401,35.432739,10355.58
          -104.477997,35.434677,10355.58
          -104.546188,35.436493,10355.58
          -104.619644,35.438496,10355.58
          -104.688133,35.440311,10363.2
          -104.76194,35.442173,10363.2
          -104.836334,35.443989,10370.82
          -104.905869,35.445694,10363.2
          -104.979919,35.447479,10363.2
          -105.054192,35.449158,10355.58
          -105.129112,35.450878,10363.2
          -105.203735,35.452507,10370.82
          -105.274384,35.453953,10378.44
          -105.348877,35.45549,10378.44
          -105.425034,35.457001,10370.82
          -105.498024,35.458466,10363.2
          -105.573181,35.459816,10355.58
          -105.649261,35.461212,10355.58
          -105.718864,35.462425,10363.2
          -105.794891,35.463776,10363.2
          -105.866089,35.464966,10370.82
          -105.940018,35.46611,10363.2
          -106.011139,35.467163,10363.2
          -106.084099,35.468262,10363.2
          -106.157799,35.469223,10370.82
          -106.232536,35.470337,10370.82
          -106.306,35.471237,10370.82
          -106.374664,35.472061,10363.2
          -106.447334,35.472931,10355.58
          -106.51474,35.473663,10347.96
          -106.587196,35.474434,10347.96
          -106.659966,35.475128,10347.96
          -106.732407,35.475769,10355.58
          -106.802475,35.476391,10363.2
          -106.876312,35.477005,10363.2
          -106.947868,35.477459,10370.82
          -107.022026,35.477974,10370.82
          -107.09642,35.478439,10370.82
          -107.168884,35.478836,10370.82
          -107.238808,35.479248,10363.2
          -107.309189,35.479568,10355.58
          -107.384377,35.479843,10355.58
          -107.458328,35.48016,10363.2
          -107.533768,35.480347,10363.2
          -107.608688,35.480438,10370.82
          -107.68364,35.480576,10370.82
          -107.755569,35.480621,10370.82
          -107.829178,35.480579,10370.82
          -107.903656,35.480576,10363.2
          -107.979294,35.48053,10355.58
          -108.05217,35.480392,10355.58
          -108.123466,35.480255,10355.58
          -108.198334,35.480026,10363.2
          -108.272896,35.47979,10363.2
          -108.345535,35.479462,10370.82
          -108.420509,35.479092,10370.82
          -108.494606,35.478718,10370.82
          -108.569351,35.478333,10363.2
          -108.64563,35.477875,10363.2
          -108.720413,35.477325,10363.2
          -108.795563,35.476715,10363.2
          -108.866386,35.476089,10355.58
          -108.942825,35.47625,10363.2
          -109.018211,35.476856,10355.58
          -109.093948,35.477188,10363.2
          -109.168968,35.477371,10370.82
          -109.242668,35.477554,10370.82
          -109.319519,35.477833,10370.82
          -109.392914,35.477924,10363.2
          -109.468857,35.478058,10363.2
          -109.544678,35.478065,10363.2
          -109.618088,35.478104,10363.2
          -109.694824,35.478012,10355.58
          -109.771011,35.477879,10355.58
          -109.84639,35.477741,10355.58
          -109.922852,35.477554,10363.2
          -109.999092,35.477276,10370.82
          -110.07608,35.476959,10363.2
          -110.152985,35.476593,10370.82
          -110.224915,35.476273,10363.2
          -110.300049,35.47583,10363.2
          -110.375916,35.475357,10355.58
          -110.453171,35.474808,10363.2
          -110.532303,35.474167,10363.2
          -110.606171,35.473572,10370.82
          -110.68399,35.472839,10370.82
          -110.760773,35.472153,10370.82
          -110.838669,35.471317,10370.82
          -110.916939,35.470413,10370.82
          -110.994705,35.469589,10363.2
          -111.071602,35.468616,10363.2
          -111.148972,35.467686,10355.58
          -111.227303,35.466614,10363.2
          -111.305351,35.465469,10363.2
          -111.377563,35.464417,10363.2
          -111.455322,35.463135,10363.2
          -111.5336,35.461945,10363.2
          -111.610107,35.460655,10271.76
          -111.687126,35.459351,10126.98
          -111.766899,35.457909,9799.32
          -111.843857,35.457535,9326.88
          -111.921059,35.463867,9144
          -112.001328,35.473938,9144
          -112.079308,35.483604,9144
          -112.157196,35.493256,9144
          -112.234985,35.502831,9144
          -112.312943,35.512527,9144
          -112.394287,35.522522,9144
          -112.473297,35.532158,9144
          -112.552299,35.541702,9144
          -112.631317,35.551254,9144
          -112.710373,35.560696,9151.62
          -112.789848,35.570194,9151.62
          -112.867645,35.579453,9144
          -112.948509,35.589046,9083.04
          -113.028831,35.598404,8930.64
          -113.111404,35.608017,8763
          -113.192886,35.617493,8610.6
          -113.274651,35.626987,8450.58
          -113.356186,35.636307,8107.68
          -113.438339,35.645561,7650.48
          -113.515648,35.655384,7231.38
          -113.587471,35.667206,6957.06
          -113.661804,35.679264,6667.5
          -113.733734,35.690964,6400.8
          -113.807999,35.70314,6118.86
          -113.877983,35.714493,5836.92
          -113.948196,35.725754,5577.84
          -114.015427,35.736603,5311.14
          -114.0839,35.747509,5059.68
          -114.146515,35.758347,4922.52
          -114.154381,35.760731,4899.66
          -114.157303,35.761803,4892.04
          -114.161621,35.763477,4876.8
          -114.165054,35.764938,4869.18
          -114.168869,35.766548,4861.56
          -114.172958,35.76828,4846.32
          -114.176392,35.769791,4838.7
          -114.179825,35.771255,4831.08
          -114.183716,35.772926,4823.46
          -114.18763,35.774651,4815.84
          -114.190727,35.776001,4800.6
          -114.198242,35.779221,4777.74
          -114.246765,35.800346,4503.42
          -114.295868,35.821838,4183.38
          -114.3405,35.842896,3962.4
          -114.38324,35.869537,3771.9
          -114.42395,35.894848,3581.4
          -114.440521,35.905197,3505.2
          -114.457085,35.915424,3429
          -114.473076,35.925385,3352.8
          -114.489899,35.935822,3268.98
          -114.509041,35.947731,3185.16
          -114.527954,35.959534,3093.72
          -114.54422,35.969563,3009.9
          -114.560051,35.979294,2933.7
          -114.579102,35.99107,2849.88
          -114.595406,36.001125,2773.68
          -114.612648,36.011646,2689.86
          -114.628944,36.021652,2613.66
          -114.644508,36.031265,2567.94
          -114.661041,36.040649,2522.22
          -114.678101,36.049076,2476.5
          -114.696411,36.058044,2438.4
          -114.712204,36.065735,2423.16
          -114.719467,36.068985,2423.16
          -114.722046,36.069885,2423.16
          -114.725494,36.070816,2423.16
          -114.727943,36.071373,2423.16
          -114.731102,36.071934,2423.16
          -114.733261,36.072189,2423.16
          -114.736633,36.07251,2423.16
          -114.739548,36.072693,2415.54
          -114.742325,36.072819,2407.92
          -114.74527,36.072922,2392.68
          -114.748283,36.073002,2369.82
          -114.751282,36.073105,2354.58
          -114.754372,36.073196,2331.72
          -114.757347,36.073242,2316.48
          -114.760323,36.073288,2308.86
          -114.763702,36.073334,2293.62
          -114.766502,36.073334,2286
          -114.769379,36.07333,2270.76
          -114.771942,36.073334,2263.14
          -114.79258,36.07333,2171.7
          -114.810448,36.07338,2080.26
          -114.829391,36.073421,2004.06
          -114.846222,36.073467,1958.34
          -114.861595,36.073517,1905
          -114.87751,36.073563,1821.18
          -114.894257,36.073563,1714.5
          -114.908401,36.073563,1638.3
          -114.922195,36.073608,1562.1
          -114.937531,36.073654,1485.9
          -114.943756,36.073608,1455.42
          -114.953285,36.073608,1417.32
          -114.960022,36.073608,1386.84
          -114.969406,36.073654,1348.74
          -114.976479,36.0737,1310.64
          -114.98291,36.0737,1280.16
          -114.992409,36.0737,1226.82
          -115.001106,36.0737,1188.72
          -115.009804,36.0737,1150.62
          -115.01593,36.0737,1127.76
          -115.023582,36.0737,1089.66
          -115.031372,36.073654,1059.18
          -115.03933,36.0737,1021.08
          -115.044792,36.0737,998.22
          -115.05249,36.0737,960.12
          -115.060104,36.0737,922.02
          -115.065544,36.0737,899.16
          -115.072731,36.0737,868.68
          -115.08033,36.0737,838.2
          -115.087631,36.073654,800.1
          -115.094582,36.073654,769.62
          -115.09993,36.073654,746.76
          -115.106972,36.073654,708.66
          -115.114281,36.073654,678.18
          -115.121323,36.073654,640.08
          -115.128479,36.073654,601.98
          -115.135201,36.073654,601.98
          -115.140282,36.073654,0
          -115.143837,36.073654,0
          -115.146317,36.073654,0
          -115.146919,36.073689,0
          -115.147385,36.073727,0
          -115.147888,36.073803,0
          -115.148201,36.073853,0
          -115.148575,36.07394,0
          -115.148819,36.074005,0
          -115.149208,36.074135,0
          -115.149521,36.074261,0
          -115.14975,36.074352,0
          -115.149963,36.074455,0
          -115.15023,36.074574,0
          -115.150497,36.074715,0
          -115.150711,36.074844,0
          -115.150948,36.075027,0
          -115.151169,36.075245,0
          -115.151375,36.075459,0
          -115.151512,36.075691,0
          -115.151512,36.075909,0
          -115.151337,36.076126,0
          -115.151108,36.076225,0
          -115.150879,36.076286,0
          -115.150665,36.076321,0
          -115.150391,36.076355,0
          -115.15007,36.076366,0
          -115.149704,36.076389,0
          -115.149338,36.076401,0
          -115.148994,36.076401,0
          -115.148521,36.076412,0
          -115.148186,36.076412,0
          -115.147888,36.076412,0
          -115.147392,36.076412,0
          -115.147064,36.076412,0
          -115.145615,36.076424,0
          -115.144066,36.076424,0
          -115.142502,36.076424,0
          -115.140762,36.076424,0
          -115.139404,36.076424,0
          -115.138382,36.076447,0
          -115.138161,36.076504,0
          -115.137947,36.076664,0
          -115.137871,36.076878,0
          -115.137901,36.07711,0
          -115.137917,36.077354,0
          -115.137924,36.077614,0
          -115.137932,36.077831,0
          -115.138008,36.07806,0
          -115.13826,36.07822,0
          -115.138481,36.078255,0
          -115.138718,36.078255,0
          -115.138977,36.078255,0
          -115.139214,36.078262,0
          -115.13945,36.078289,0
          -115.139671,36.078346,0
          -115.139877,36.078426,0
          -115.140106,36.078552,0
          -115.14035,36.078747,0
          -115.14061,36.078941,0
          -115.140839,36.079113,0
          -115.14106,36.079288,0
          -115.141289,36.079487,0
          -115.14151,36.079708,0
          -115.141586,36.079964,0
          -115.141602,36.080185,0
          -115.141571,36.080418,0
          -115.141479,36.080635,0
          -115.141296,36.080841,0
          -115.14109,36.080883,0
          -115.140884,36.080765,0
          -115.140678,36.080635,0
        </coordinates>
      </LineString>
    </Placemark>
  </Document>
</kml>