<?xml version='1.0' encoding='utf-8'?>
<kml xmlns="http://www.opengis.net/kml/2.2">
  <Document>
    <Placemark>
      <name>DL947-2024-11-20</name>
      <TimeStamp>
        <when>2024-11-20</when>
      </TimeStamp>
      <LineString>
        <altitudeMode>absolute</altitudeMode>
        <coordinates>
          -84.435455,33.641022,0
          -84.435211,33.64101,0
          -84.435005,33.641018,0
          -84.434792,33.640961,0
          -84.434685,33.640743,0
          -84.434471,33.640789,0
          -84.434265,33.641006,0
          -84.433914,33.641659,0
          -84.433922,33.642242,0
          -84.433922,33.642826,0
          -84.433922,33.643227,0
          -84.433922,33.643467,0
          -84.433922,33.643688,0
          -84.433922,33.643894,0
          -84.433922,33.644119,0
          -84.433891,33.64436,0
          -84.43367,33.644577,0
          -84.433365,33.644619,0
          -84.433098,33.644611,0
          -84.432747,33.644611,0
          -84.432426,33.6446,0
          -84.432159,33.644608,0
          -84.431892,33.644608,0
          -84.431572,33.6446,0
          -84.431274,33.644611,0
          -84.430977,33.644608,0
          -84.430275,33.644608,0
          -84.429375,33.644608,0
          -84.427536,33.644634,0
          -84.427216,33.64468,0
          -84.425926,33.644691,0
          -84.424423,33.644699,0
          -84.424049,33.644703,0
          -84.423782,33.644703,0
          -84.423538,33.644699,0
          -84.423294,33.644699,0
          -84.422997,33.644703,0
          -84.422646,33.644714,0
          -84.422394,33.644806,0
          -84.422157,33.644932,0
          -84.421852,33.645073,0
          -84.421524,33.645229,0
          -84.421227,33.645344,0
          -84.420937,33.645412,0
          -84.420067,33.645435,0
          -84.419662,33.645435,0
          -84.419434,33.645435,0
          -84.41922,33.645432,0
          -84.4189,33.645435,0
          -84.418617,33.645432,0
          -84.418129,33.645435,0
          -84.417839,33.645435,0
          -84.417603,33.645435,0
          -84.416771,33.645435,0
          -84.415863,33.645435,0
          -84.414955,33.645432,0
          -84.414139,33.645432,0
          -84.413239,33.645435,0
          -84.412369,33.645443,0
          -84.411522,33.645435,0
          -84.411041,33.645435,0
          -84.410591,33.645443,0
          -84.410339,33.645435,0
          -84.410133,33.645435,0
          -84.409904,33.645432,0
          -84.409691,33.645432,0
          -84.409477,33.645443,0
          -84.409233,33.645443,0
          -84.408997,33.645435,0
          -84.408775,33.645435,0
          -84.408531,33.645443,0
          -84.408257,33.645466,0
          -84.407944,33.645584,0
          -84.407684,33.645687,0
          -84.407471,33.64571,0
          -84.407227,33.64571,0
          -84.407005,33.64571,0
          -84.406799,33.64571,0
          -84.406586,33.64571,0
          -84.406372,33.64571,0
          -84.406143,33.64571,0
          -84.40593,33.645699,0
          -84.405701,33.645721,0
          -84.405663,33.64595,0
          -84.405678,33.646179,0
          -84.405678,33.646397,0
          -84.405678,33.646614,0
          -84.405746,33.646832,0
          -84.405983,33.646851,0
          -84.406219,33.64682,0
          -84.406517,33.646816,0
          -84.406754,33.64682,0
          -84.407143,33.64682,0
          -84.407791,33.64682,0
          -84.408142,33.646816,0
          -84.409203,33.646816,0
          -84.40963,33.646816,0
          -84.410133,33.646816,0
          -84.410835,33.646816,0
          -84.411491,33.64682,0
          -84.413223,33.646793,0
          -84.415245,33.64682,327.66
          -84.422379,33.646793,320.04
          -84.430603,33.64682,403.86
          -84.438339,33.646729,541.02
          -84.445953,33.646652,685.8
          -84.453735,33.646469,822.96
          -84.461716,33.64682,906.78
          -84.464607,33.647167,922.02
          -84.4673,33.647587,937.26
          -84.469757,33.648003,944.88
          -84.472473,33.648468,952.5
          -84.475616,33.649017,967.74
          -84.4776,33.649399,967.74
          -84.481277,33.650116,982.98
          -84.484245,33.650665,998.22
          -84.48732,33.651264,1013.46
          -84.496857,33.653091,1104.9
          -84.505211,33.654831,1173.48
          -84.51474,33.656845,1219.2
          -84.525375,33.659039,1257.3
          -84.536095,33.66124,1272.54
          -84.547531,33.663574,1325.88
          -84.559357,33.665909,1394.46
          -84.572304,33.668427,1485.9
          -84.583397,33.670582,1577.34
          -84.602631,33.674149,1775.46
          -84.621735,33.677425,1927.86
          -84.64222,33.680637,2103.12
          -84.658401,33.683121,2225.04
          -84.680824,33.686737,2446.02
          -84.699326,33.689899,2636.52
          -84.717117,33.692974,2804.16
          -84.737213,33.696396,2956.56
          -84.75769,33.698326,3108.96
          -84.760094,33.698189,3124.2
          -84.764786,33.697723,3154.68
          -84.767876,33.697258,3169.92
          -84.771011,33.696625,3192.78
          -84.774567,33.695625,3215.64
          -84.777458,33.694748,3230.88
          -84.780235,33.693859,3253.74
          -84.78418,33.692509,3276.6
          -84.787659,33.69136,3299.46
          -84.791962,33.689899,3322.32
          -84.794891,33.688889,3337.56
          -84.797684,33.687946,3352.8
          -84.801109,33.686783,3368.04
          -84.804588,33.685638,3383.28
          -84.807617,33.684586,3398.52
          -84.810791,33.683525,3413.76
          -84.8144,33.682297,3429
          -84.833397,33.67598,3512.82
          -84.856773,33.668472,3611.88
          -84.877853,33.661785,3718.56
          -84.928497,33.645676,3962.4
          -84.980789,33.628872,4267.2
          -85.035248,33.611435,4602.48
          -85.091858,33.592896,4922.52
          -85.146507,33.575226,5219.7
          -85.204636,33.556274,5516.88
          -85.262596,33.542862,5829.3
          -85.321198,33.532013,6096
          -85.381317,33.520729,6362.7
          -85.441498,33.509537,6598.92
          -85.504799,33.497734,6865.62
          -85.566513,33.486282,7101.84
          -85.627159,33.474876,7299.96
          -85.694405,33.46225,7543.8
          -85.757523,33.450394,7780.02
          -85.821953,33.438171,8008.62
          -85.887245,33.425762,8199.12
          -85.954285,33.41304,8389.62
          -86.023788,33.399742,8587.74
          -86.08741,33.387592,8862.06
          -86.152489,33.37516,9128.76
          -86.215599,33.362965,9144
          -86.277283,33.351013,9144
          -86.343124,33.338291,9144
          -86.402199,33.326794,9144
          -86.464104,33.314804,9144
          -86.523979,33.303085,9144
          -86.588463,33.290436,9136.38
          -86.650818,33.278275,9128.76
          -86.710197,33.266556,9128.76
          -86.770676,33.254608,9136.38
          -86.836212,33.241608,9144
          -86.89576,33.229797,9151.62
          -86.957008,33.217628,9151.62
          -87.020012,33.205078,9151.62
          -87.082138,33.192673,9151.62
          -87.145126,33.180016,9144
          -87.211044,33.166653,9144
          -87.275063,33.153717,9151.62
          -87.337685,33.141129,9151.62
          -87.401291,33.12822,9151.62
          -87.463913,33.118469,9159.24
          -87.5289,33.115036,9159.24
          -87.592926,33.11256,9151.62
          -87.660194,33.110046,9136.38
          -87.727234,33.107487,9128.76
          -87.792351,33.104919,9136.38
          -87.860023,33.102272,9151.62
          -87.927429,33.099609,9159.24
          -87.995712,33.096909,9159.24
          -88.061241,33.094254,9159.24
          -88.126213,33.09161,9159.24
          -88.19297,33.088818,9159.24
          -88.258339,33.08606,9159.24
          -88.325577,33.083176,9144
          -88.389351,33.080338,9144
          -88.455521,33.077412,9128.76
          -88.521782,33.074528,9128.76
          -88.585953,33.07164,9128.76
          -88.654289,33.068615,9136.38
          -88.717239,33.065826,9159.24
          -88.782646,33.062798,9159.24
          -88.848251,33.059738,9151.62
          -88.91246,33.056671,9144
          -88.975021,33.053577,9144
          -89.042732,33.050179,9144
          -89.109886,33.047058,9151.62
          -89.178055,33.043533,9151.62
          -89.24469,33.040264,9159.24
          -89.307915,33.037125,9159.24
          -89.380173,33.033421,9151.62
          -89.449898,33.029884,9144
          -89.513748,33.026459,9144
          -89.576637,33.023087,9144
          -89.643051,33.019547,9144
          -89.715309,33.01564,8983.98
          -89.784012,33.011993,8785.86
          -89.850586,33.008331,8587.74
          -89.915955,33.004669,8534.4
          -89.981781,33.000973,8534.4
          -90.049385,33.000366,8534.4
          -90.120743,33.00087,8534.4
          -90.190247,33.001347,8526.78
          -90.25351,33.00174,8526.78
          -90.321899,33.002151,8526.78
          -90.389847,33.002464,8534.4
          -90.455986,33.002743,8542.02
          -90.520584,33.002975,8542.02
          -90.583954,33.003208,8534.4
          -90.647369,33.003433,8534.4
          -90.712151,33.003582,8526.78
          -90.774315,33.003754,8526.78
          -90.84359,33.00386,8526.78
          -90.911041,33.003891,8534.4
          -90.978439,33.003937,8542.02
          -91.044083,33.003937,8542.02
          -91.109566,33.003906,8534.4
          -91.175705,33.003815,8534.4
          -91.241005,33.003719,8542.02
          -91.307816,33.003571,8542.02
          -91.375137,33.003441,8549.64
          -91.435532,33.00325,8542.02
          -91.50386,33.002975,8534.4
          -91.569809,33.002697,8526.78
          -91.633766,33.002419,8526.78
          -91.695297,33.00206,8526.78
          -91.759789,33.001602,8526.78
          -91.821991,33.001205,8526.78
          -91.888641,33.00079,8526.78
          -91.951775,33.00032,8534.4
          -92.018181,32.997578,8534.4
          -92.085312,32.989655,8534.4
          -92.149307,32.982056,8542.02
          -92.212975,32.974411,8542.02
          -92.279442,32.9664,8542.02
          -92.348824,32.957977,8542.02
          -92.410767,32.95042,8534.4
          -92.476967,32.942364,8534.4
          -92.54171,32.934357,8534.4
          -92.60247,32.926865,8526.78
          -92.668442,32.918762,8526.78
          -92.730927,32.915222,8534.4
          -92.801346,32.912849,8534.4
          -92.867485,32.910645,8534.4
          -92.931389,32.908524,8534.4
          -92.998199,32.906193,8534.4
          -93.063339,32.903912,8534.4
          -93.131721,32.901585,8534.4
          -93.197472,32.899212,8526.78
          -93.263222,32.896835,8534.4
          -93.327347,32.894463,8534.4
          -93.395706,32.891922,8534.4
          -93.46196,32.889359,8534.4
          -93.526443,32.886921,8534.4
          -93.591187,32.884407,8534.4
          -93.653458,32.881989,8534.4
          -93.717278,32.879471,8534.4
          -93.782661,32.87682,8534.4
          -93.847084,32.874161,8534.4
          -93.920197,32.871185,8534.4
          -93.988533,32.868301,8534.4
          -94.051758,32.865555,8534.4
          -94.120201,32.862625,8534.4
          -94.187363,32.859688,8526.78
          -94.255463,32.856709,8526.78
          -94.323006,32.853683,8534.4
          -94.390717,32.850563,8534.4
          -94.456932,32.847519,8534.4
          -94.521545,32.844604,8542.02
          -94.586021,32.841614,8534.4
          -94.655067,32.838322,8534.4
          -94.723732,32.835064,8534.4
          -94.787842,32.831909,8534.4
          -94.857933,32.828476,8534.4
          -94.92569,32.825146,8526.78
          -94.994385,32.821747,8534.4
          -95.066452,32.818085,8534.4
          -95.129074,32.814835,8534.4
          -95.200325,32.811172,8534.4
          -95.269348,32.807598,8534.4
          -95.33963,32.803802,8534.4
          -95.410988,32.800007,8534.4
          -95.481674,32.796192,8534.4
          -95.551338,32.792404,8534.4
          -95.620407,32.788605,8534.4
          -95.689514,32.78474,8534.4
          -95.755295,32.781052,8534.4
          -95.82605,32.776978,8534.4
          -95.895432,32.772995,8534.4
          -95.967171,32.768875,8534.4
          -96.038528,32.764709,8534.4
          -96.109329,32.760544,8542.02
          -96.173927,32.756668,8534.4
          -96.243752,32.752487,8534.4
          -96.313187,32.748276,8534.4
          -96.38179,32.744064,8542.02
          -96.450211,32.739864,8534.4
          -96.52121,32.735413,8534.4
          -96.587372,32.731251,8580.12
          -96.654015,32.727062,8808.72
          -96.723015,32.722687,9022.08
          -96.79158,32.718246,9235.44
          -96.864037,32.713486,9441.18
          -96.936111,32.708771,9631.68
          -97.008827,32.703831,9745.98
          -97.077774,32.699223,9753.6
          -97.148117,32.694473,9753.6
          -97.218971,32.689865,9753.6
          -97.291901,32.685608,9753.6
          -97.359138,32.68158,9753.6
          -97.434502,32.676956,9753.6
          -97.507675,32.672333,9753.6
          -97.57872,32.667847,9753.6
          -97.645584,32.663704,9753.6
          -97.72171,32.658955,9745.98
          -97.793732,32.654392,9745.98
          -97.866943,32.64941,9745.98
          -97.939323,32.644684,9753.6
          -98.010902,32.640015,9753.6
          -98.086494,32.635075,9761.22
          -98.159988,32.630081,9761.22
          -98.232407,32.625156,9761.22
          -98.306168,32.620224,9753.6
          -98.379372,32.615242,9753.6
          -98.454262,32.60989,9753.6
          -98.52594,32.604858,9753.6
          -98.614159,32.598724,9753.6
          -98.689194,32.593323,9761.22
          -98.758011,32.588337,9753.6
          -98.833908,32.582794,9753.6
          -98.904976,32.577629,9753.6
          -98.976669,32.572369,9753.6
          -99.053406,32.566643,9753.6
          -99.126617,32.561142,9753.6
          -99.20015,32.555561,9753.6
          -99.275093,32.549885,9753.6
          -99.346123,32.544342,9753.6
          -99.418579,32.538849,9753.6
          -99.493141,32.533031,9753.6
          -99.562172,32.527588,9753.6
          -99.637314,32.521637,9753.6
          -99.713318,32.515667,9745.98
          -99.786575,32.5098,9745.98
          -99.860512,32.503841,9745.98
          -99.936089,32.49765,9753.6
          -100.012299,32.491413,9753.6
          -100.08136,32.485687,9761.22
          -100.156578,32.47945,9761.22
          -100.232063,32.473068,9761.22
          -100.305725,32.466797,9761.22
          -100.381012,32.460411,9753.6
          -100.452721,32.454254,9753.6
          -100.527206,32.447845,9753.6
          -100.60054,32.441528,9753.6
          -100.676018,32.434937,9753.6
          -100.752586,32.428196,9753.6
          -100.823997,32.421864,9753.6
          -100.898941,32.415161,9753.6
          -100.972214,32.408615,9753.6
          -101.042267,32.402313,9761.22
          -101.114914,32.395748,9761.22
          -101.192154,32.388657,9753.6
          -101.26313,32.382111,9753.6
          -101.337448,32.375198,9753.6
          -101.413315,32.368149,9753.6
          -101.482254,32.361694,9753.6
          -101.557343,32.354599,9753.6
          -101.630295,32.347549,9753.6
          -101.699989,32.340958,9753.6
          -101.771736,32.334114,9753.6
          -101.84079,32.327362,9745.98
          -101.913551,32.320335,9745.98
          -101.984238,32.313351,9753.6
          -102.051125,32.306717,9753.6
          -102.128853,32.299072,9753.6
          -102.20385,32.291565,9753.6
          -102.275131,32.284424,9753.6
          -102.345551,32.277321,9753.6
          -102.419495,32.269821,9753.6
          -102.491341,32.262516,9753.6
          -102.564774,32.254974,9753.6
          -102.640373,32.247162,9753.6
          -102.712059,32.239609,9753.6
          -102.785172,32.23201,9753.6
          -102.85524,32.22467,9753.6
          -102.93119,32.216709,9753.6
          -103.008652,32.208378,9753.6
          -103.077484,32.201115,9753.6
          -103.151787,32.193146,9753.6
          -103.227989,32.184822,9753.6
          -103.298126,32.17717,9753.6
          -103.373215,32.168976,9761.22
          -103.447433,32.160847,9753.6
          -103.518959,32.152931,9753.6
          -103.593452,32.144691,9753.6
          -103.665031,32.136734,9753.6
          -103.737854,32.12851,9753.6
          -103.812119,32.120132,9753.6
          -103.886887,32.111618,9753.6
          -103.957344,32.103588,9753.6
          -104.032944,32.094864,9753.6
          -104.106895,32.086361,9753.6
          -104.179451,32.077972,9753.6
          -104.253555,32.069366,9753.6
          -104.329086,32.060574,9753.6
          -104.400772,32.052155,9753.6
          -104.47438,32.043457,9753.6
          -104.548645,32.034641,9753.6
          -104.623535,32.025658,9753.6
          -104.699707,32.016487,9753.6
          -104.774818,32.007458,9753.6
          -104.846596,31.998779,9753.6
          -104.921448,31.989628,9753.6
          -104.992973,31.980829,9753.6
          -105.066872,31.971725,9753.6
          -105.143478,31.962301,9753.6
          -105.219032,31.952866,9753.6
          -105.292854,31.94368,9761.22
          -105.363823,31.934835,9753.6
          -105.439911,31.925171,9753.6
          -105.514893,31.915649,9745.98
          -105.588722,31.906265,9753.6
          -105.6595,31.897175,9753.6
          -105.728409,31.888321,9753.6
          -105.804222,31.878553,9753.6
          -105.877335,31.869141,9753.6
          -105.953964,31.859116,9753.6
          -106.02993,31.849136,9753.6
          -106.108818,31.838751,9753.6
          -106.179184,31.82959,9753.6
          -106.256798,31.825251,9753.6
          -106.329887,31.829161,9753.6
          -106.403656,31.841265,9753.6
          -106.477364,31.856209,9753.6
          -106.55365,31.871704,9753.6
          -106.621864,31.885536,9753.6
          -106.690323,31.899399,9753.6
          -106.760818,31.913607,9753.6
          -106.84407,31.930344,9745.98
          -106.918388,31.945263,9768.84
          -106.988899,31.959461,9966.96
          -107.059128,31.973465,10187.94
          -107.129936,31.987518,10355.58
          -107.206512,32.002716,10363.2
          -107.279297,32.01709,10363.2
          -107.350777,32.031246,10363.2
          -107.423927,32.045628,10363.2
          -107.499481,32.060387,10363.2
          -107.573471,32.074818,10370.82
          -107.646461,32.088959,10363.2
          -107.718536,32.102936,10363.2
          -107.783897,32.115597,10363.2
          -107.854019,32.129143,10355.58
          -107.927109,32.143204,10355.58
          -108.000443,32.157257,10355.58
          -108.074211,32.17131,10355.58
          -108.144371,32.184635,10355.58
          -108.217857,32.198555,10355.58
          -108.291901,32.212521,10363.2
          -108.366394,32.226578,10370.82
          -108.441269,32.240616,10378.44
          -108.516411,32.254715,10370.82
          -108.584885,32.267403,10370.82
          -108.661209,32.28154,10370.82
          -108.734383,32.295151,10370.82
          -108.801346,32.307495,10363.2
          -108.872147,32.320541,10363.2
          -108.94664,32.334183,10355.58
          -109.013542,32.346405,10355.58
          -109.087814,32.359863,10355.58
          -109.154335,32.37204,10363.2
          -109.2342,32.386486,10363.2
          -109.301857,32.398636,10363.2
          -109.37529,32.411808,10363.2
          -109.446625,32.4245,10363.2
          -109.516991,32.437042,10363.2
          -109.590714,32.450134,10363.2
          -109.660423,32.46246,10370.82
          -109.733124,32.475307,10370.82
          -109.804886,32.4879,10370.82
          -109.877853,32.500725,10370.82
          -109.951279,32.513626,10363.2
          -110.027405,32.526886,10363.2
          -110.097191,32.53899,10363.2
          -110.169273,32.551373,10363.2
          -110.244011,32.564255,10363.2
          -110.312485,32.576,10363.2
          -110.388382,32.588985,10363.2
          -110.463608,32.601788,10363.2
          -110.536301,32.614151,10363.2
          -110.608871,32.626373,10363.2
          -110.683464,32.63887,10363.2
          -110.751968,32.650406,10363.2
          -110.821388,32.66198,10363.2
          -110.891739,32.673714,10363.2
          -110.962196,32.685398,10355.58
          -111.031868,32.696896,10363.2
          -111.105118,32.708908,10355.58
          -111.176697,32.720627,10363.2
          -111.24588,32.731995,10363.2
          -111.319138,32.743927,10363.2
          -111.389389,32.755371,10363.2
          -111.463936,32.76741,10363.2
          -111.5326,32.778534,10363.2
          -111.603844,32.789886,10363.2
          -111.676193,32.801422,10370.82
          -111.751114,32.813324,10370.82
          -111.820419,32.824356,10370.82
          -111.893845,32.835945,10370.82
          -111.964142,32.84697,10363.2
          -112.036873,32.858368,10363.2
          -112.10878,32.869629,10363.2
          -112.181396,32.880962,10363.2
          -112.251381,32.89183,10355.58
          -112.321587,32.902611,10355.58
          -112.391205,32.913269,10355.58
          -112.460831,32.923965,10363.2
          -112.533966,32.935104,10363.2
          -112.603821,32.945114,10363.2
          -112.678413,32.949162,10363.2
          -112.753242,32.94516,10363.2
          -112.825195,32.93573,10363.2
          -112.894791,32.926437,10363.2
          -112.969887,32.916321,10363.2
          -113.039169,32.906891,10363.2
          -113.117363,32.896233,10363.2
          -113.189667,32.886292,10363.2
          -113.262596,32.876213,10363.2
          -113.333389,32.86644,10370.82
          -113.403244,32.85672,10363.2
          -113.47998,32.845917,10363.2
          -113.550293,32.835983,10363.2
          -113.621048,32.826004,10363.2
          -113.692894,32.815842,10363.2
          -113.769524,32.804993,10363.2
          -113.842201,32.794647,10363.2
          -113.907928,32.78516,10363.2
          -113.982605,32.776794,10363.2
          -114.057533,32.775284,10363.2
          -114.131416,32.777618,10363.2
          -114.205574,32.780548,10363.2
          -114.283302,32.783569,10363.2
          -114.359764,32.788696,10363.2
          -114.432472,32.80122,10363.2
          -114.506104,32.82074,10363.2
          -114.574173,32.839344,10363.2
          -114.646927,32.858757,10363.2
          -114.721931,32.872025,10363.2
          -114.794388,32.87709,10210.8
          -114.869698,32.875992,9913.62
          -114.939079,32.874493,9616.44
          -115.011147,32.872925,9304.02
          -115.087227,32.871185,8983.98
          -115.155609,32.869511,8679.18
          -115.22551,32.86779,8389.62
          -115.294426,32.866013,8092.44
          -115.363007,32.861549,7802.88
          -115.426788,32.852707,7528.56
          -115.493225,32.843399,7330.44
          -115.559471,32.832687,7216.14
          -115.61869,32.822891,7010.4
          -115.68367,32.812225,6720.84
          -115.748489,32.801468,6408.42
          -115.812485,32.790894,6088.38
          -115.875656,32.78302,5791.2
          -115.932236,32.778992,5532.12
          -115.993484,32.774265,5234.94
          -116.053627,32.769794,4945.38
          -116.110161,32.765396,4655.82
          -116.175201,32.760452,4343.4
          -116.229637,32.756294,4084.32
          -116.290504,32.751595,3794.76
          -116.34684,32.747173,3512.82
          -116.373466,32.745125,3383.28
          -116.397728,32.743286,3284.22
          -116.422287,32.741318,3185.16
          -116.446167,32.739445,3086.1
          -116.469986,32.737534,2994.66
          -116.492264,32.735779,2971.8
          -116.514511,32.733994,2956.56
          -116.53231,32.7323,2895.6
          -116.555748,32.729996,2796.54
          -116.5784,32.727722,2712.72
          -116.599747,32.725616,2628.9
          -116.621109,32.723522,2545.08
          -116.642288,32.721451,2461.26
          -116.66169,32.719612,2385.06
          -116.682259,32.717842,2301.24
          -116.699417,32.716599,2232.66
          -116.719307,32.715191,2148.84
          -116.738083,32.71376,2080.26
          -116.756027,32.712303,1996.44
          -116.77401,32.710922,1912.62
          -116.78904,32.709743,1851.66
          -116.806023,32.708393,1775.46
          -116.822388,32.705555,1752.6
          -116.825485,32.704651,1744.98
          -116.828896,32.703598,1737.36
          -116.831963,32.702682,1722.12
          -116.83551,32.701645,1714.5
          -116.83876,32.700665,1699.26
          -116.841957,32.699688,1684.02
          -116.857399,32.694946,1607.82
          -116.870316,32.691029,1539.24
          -116.885574,32.686386,1463.04
          -116.894913,32.683594,1424.94
          -116.903702,32.680984,1379.22
          -116.913536,32.678101,1333.5
          -116.92334,32.675201,1280.16
          -116.93293,32.673199,1234.44
          -116.936234,32.673061,1219.2
          -116.939522,32.673157,1203.96
          -116.94313,32.673527,1188.72
          -116.946434,32.673946,1173.48
          -116.949905,32.67453,1158.24
          -116.95311,32.675201,1143
          -116.956131,32.675854,1127.76
          -116.9599,32.676773,1112.52
          -116.96286,32.677528,1097.28
          -116.966545,32.678513,1082.04
          -116.969513,32.679337,1066.8
          -116.972206,32.680069,1051.56
          -116.974518,32.680695,1036.32
          -116.976654,32.681305,1028.7
          -116.988304,32.684418,982.98
          -116.998299,32.687027,929.64
          -117.00769,32.689407,891.54
          -117.017174,32.691776,845.82
          -117.028778,32.694614,792.48
          -117.036346,32.696476,754.38
          -117.044388,32.69838,716.28
          -117.05439,32.700806,678.18
          -117.062675,32.702774,640.08
          -117.067734,32.703972,609.6
          -117.076187,32.706024,556.26
          -117.083939,32.707947,510.54
          -117.091217,32.709698,464.82
          -117.098335,32.711468,426.72
          -117.105087,32.71312,388.62
          -117.1119,32.714725,350.52
          -117.117844,32.716167,312.42
          -117.12323,32.717518,281.94
          -117.130623,32.719334,236.22
          -117.136848,32.720821,198.12
          -117.14296,32.722359,160.02
          -117.149635,32.723969,121.92
          -117.15596,32.725479,83.82
          -117.163078,32.7272,38.1
          -117.168968,32.728592,7.62
          -117.176003,32.730286,0
          -117.188133,32.733208,0
          -117.195251,32.734909,0
          -117.198112,32.735184,0
          -117.198586,32.735035,0
          -117.200241,32.735092,0
          -117.200516,32.735161,0
          -117.200775,32.735229,0
          -117.201294,32.735355,0
          -117.202148,32.735561,0
          -117.202866,32.735733,0
          -117.203438,32.73587,0
          -117.204155,32.736034,0
          -117.204407,32.735989,0
          -117.204567,32.735744,0
          -117.204453,32.735493,0
          -117.204193,32.735382,0
          -117.203987,32.735355,0
          -117.203743,32.735287,0
          -117.203522,32.735229,0
          -117.203163,32.735149,0
          -117.202782,32.735058,0
          -117.20253,32.734921,0
          -117.202507,32.734692,0
          -117.202766,32.733963,0
          -117.203003,32.73381,0
          -117.203323,32.733799,0
        </coordinates>
      </LineString>
    </Placemark>
  </Document>
</kml>