<?xml version='1.0' encoding='utf-8'?>
<kml xmlns="http://www.opengis.net/kml/2.2">
  <Document>
    <Placemark>
      <name>DL952-2025-11-10</name>
      <TimeStamp>
        <when>2025-11-10</when>
      </TimeStamp>
      <LineString>
        <altitudeMode>absolute</altitudeMode>
        <coordinates>
          -115.140526,36.080544,0
          -115.140739,36.080669,0
          -115.140953,36.080788,0
          -115.141167,36.080818,0
          -115.14138,36.080841,0
          -115.141586,36.08086,0
          -115.141602,36.08065,0
          -115.141594,36.080441,0
          -115.141602,36.080231,0
          -115.141602,36.080009,0
          -115.141594,36.079788,0
          -115.141602,36.079533,0
          -115.141594,36.079296,0
          -115.141602,36.078949,0
          -115.141602,36.078636,0
          -115.14151,36.078426,0
          -115.141304,36.078285,0
          -115.141098,36.078255,0
          -115.140869,36.078262,0
          -115.140633,36.078262,0
          -115.140411,36.078262,0
          -115.140198,36.078266,0
          -115.139946,36.078262,0
          -115.139709,36.078266,0
          -115.13945,36.078266,0
          -115.13868,36.078266,0
          -115.137779,36.078266,0
          -115.136909,36.078262,0
          -115.135971,36.078262,0
          -115.135109,36.078262,0
          -115.134117,36.078262,0
          -115.133156,36.078266,0
          -115.132187,36.078262,0
          -115.131142,36.078266,0
          -115.130226,36.078278,0
          -115.129311,36.078278,0
          -115.12841,36.078278,0
          -115.12722,36.078274,0
          -115.126205,36.078278,0
          -115.125305,36.078278,0
          -115.12442,36.078278,0
          -115.123497,36.078274,0
          -115.122871,36.078278,0
          -115.122597,36.078209,0
          -115.122375,36.078041,0
          -115.122169,36.077923,0
          -115.121933,36.077763,0
          -115.121681,36.077602,0
          -115.121452,36.077454,0
          -115.121262,36.077229,0
          -115.121216,36.076996,0
          -115.121223,36.076733,0
          -115.1213,36.076469,0
          -115.121536,36.076389,0
          -115.121788,36.076412,0
          -115.122009,36.076412,0
          -115.122223,36.076412,0
          -115.122459,36.076424,0
          -115.122986,36.076412,0
          -115.12336,36.076412,0
          -115.123657,36.076412,0
          -115.124435,36.076401,0
          -115.124832,36.076401,0
          -115.125488,36.076401,0
          -115.125923,36.076401,0
          -115.126465,36.076389,0
          -115.127182,36.076389,0
          -115.12825,36.076401,533.4
          -115.129509,36.076401,541.02
          -115.131226,36.076401,541.02
          -115.132713,36.076401,541.02
          -115.134209,36.076401,541.02
          -115.139809,36.076401,548.64
          -115.148964,36.076401,548.64
          -115.158226,36.076401,655.32
          -115.165237,36.076447,754.38
          -115.174644,36.076447,876.3
          -115.184113,36.076355,990.6
          -115.191422,36.076218,1066.8
          -115.199249,36.076031,1120.14
          -115.203384,36.075806,1135.38
          -115.206299,36.075577,1150.62
          -115.208656,36.075333,1165.86
          -115.210815,36.075119,1173.48
          -115.213799,36.074726,1181.1
          -115.216309,36.074398,1188.72
          -115.218941,36.074074,1203.96
          -115.221405,36.073746,1211.58
          -115.223694,36.073425,1219.2
          -115.226608,36.073013,1226.82
          -115.228897,36.072693,1234.44
          -115.231911,36.072258,1242.06
          -115.235008,36.071838,1257.3
          -115.237366,36.071503,1257.3
          -115.239716,36.071045,1272.54
          -115.242348,36.07045,1272.54
          -115.245354,36.069557,1287.78
          -115.247749,36.068672,1295.4
          -115.250732,36.067326,1303.02
          -115.252953,36.066113,1318.26
          -115.255058,36.064762,1318.26
          -115.256927,36.063461,1325.88
          -115.259438,36.061413,1325.88
          -115.261169,36.059692,1325.88
          -115.263176,36.057358,1325.88
          -115.26458,36.055405,1333.5
          -115.265747,36.053497,1333.5
          -115.267265,36.050705,1341.12
          -115.268494,36.048515,1348.74
          -115.269432,36.046749,1356.36
          -115.270889,36.043953,1363.98
          -115.272064,36.041672,1371.6
          -115.273132,36.039505,1371.6
          -115.274338,36.036942,1379.22
          -115.275536,36.034286,1386.84
          -115.276855,36.031338,1394.46
          -115.278137,36.028408,1409.7
          -115.27919,36.026077,1424.94
          -115.280518,36.022934,1447.8
          -115.281769,36.019958,1470.66
          -115.282806,36.017303,1485.9
          -115.283745,36.01458,1508.76
          -115.284409,36.012222,1524
          -115.284973,36.009109,1546.86
          -115.285324,36.005783,1577.34
          -115.285378,36.002563,1607.82
          -115.285324,36.000458,1630.68
          -115.28492,35.997028,1661.16
          -115.284409,35.994507,1684.02
          -115.283546,35.991348,1714.5
          -115.282578,35.988785,1737.36
          -115.281433,35.986221,1760.22
          -115.280167,35.983887,1790.7
          -115.27874,35.981598,1813.56
          -115.276855,35.978943,1836.42
          -115.275078,35.976837,1859.28
          -115.272789,35.974411,1882.14
          -115.270729,35.972443,1905
          -115.268555,35.970428,1927.86
          -115.26651,35.968586,1950.72
          -115.263939,35.966213,1973.58
          -115.261749,35.964249,1996.44
          -115.259201,35.961929,2019.3
          -115.257111,35.960083,2042.16
          -115.254883,35.958069,2065.02
          -115.252602,35.956062,2087.88
          -115.250473,35.954086,2110.74
          -115.247894,35.951843,2141.22
          -115.245819,35.949966,2156.46
          -115.231911,35.937443,2301.24
          -115.218773,35.925568,2415.54
          -115.20401,35.913025,2545.08
          -115.201492,35.911423,2567.94
          -115.198135,35.909557,2590.8
          -115.19474,35.907715,2621.28
          -115.192116,35.906391,2644.14
          -115.188736,35.904602,2674.62
          -115.186508,35.903461,2689.86
          -115.183823,35.902111,2712.72
          -115.180954,35.900665,2735.58
          -115.177856,35.899132,2758.44
          -115.174484,35.897507,2781.3
          -115.171738,35.896225,2796.54
          -115.169037,35.894939,2819.4
          -115.149986,35.88633,2887.98
          -115.130478,35.877319,2941.32
          -115.113457,35.870781,2971.8
          -115.109192,35.869755,2987.04
          -115.106445,35.869244,2987.04
          -115.10183,35.8685,2994.66
          -115.097641,35.868073,3002.28
          -115.093979,35.867844,3002.28
          -115.090317,35.867752,3009.9
          -115.086754,35.867756,3009.9
          -115.081787,35.867752,3017.52
          -115.077728,35.867752,3025.14
          -115.074249,35.867756,3032.76
          -115.069595,35.867798,3040.38
          -115.065826,35.867844,3048
          -115.060577,35.868034,3055.62
          -115.05661,35.868164,3063.24
          -115.052948,35.868347,3070.86
          -115.048241,35.868637,3078.48
          -115.043396,35.868965,3093.72
          -115.039383,35.869217,3101.34
          -115.013977,35.871048,3147.06
          -114.986595,35.872829,3192.78
          -114.958817,35.874481,3238.5
          -114.930084,35.876087,3276.6
          -114.899925,35.877716,3322.32
          -114.870529,35.879288,3375.66
          -114.842247,35.880791,3467.1
          -114.812454,35.882355,3566.16
          -114.780746,35.884048,3672.84
          -114.705162,35.888077,3893.82
          -114.632431,35.89183,4099.56
          -114.557877,35.89563,4312.92
          -114.478569,35.896957,4594.86
          -114.405098,35.896591,4785.36
          -114.32402,35.896103,4968.24
          -114.242386,35.895546,5204.46
          -114.163399,35.894989,5326.38
          -114.077393,35.894348,5486.4
          -113.994141,35.893753,5623.56
          -113.90934,35.894531,5814.06
          -113.829117,35.899658,5989.32
          -113.749229,35.90453,6103.62
          -113.663673,35.909653,6225.54
          -113.580383,35.914719,6332.22
          -113.493034,35.919941,6492.24
          -113.409515,35.924881,6675.12
          -113.322601,35.929962,6804.66
          -113.238831,35.934788,6896.1
          -113.154945,35.939484,6995.16
          -113.067726,35.944332,7117.08
          -112.983398,35.949097,7246.62
          -112.896591,35.953812,7376.16
          -112.809448,35.958435,7536.18
          -112.725563,35.962921,7696.2
          -112.640541,35.967468,7825.74
          -112.555573,35.971893,7970.52
          -112.467331,35.976406,8153.4
          -112.383705,35.980644,8336.28
          -112.296638,35.984894,8488.68
          -112.208237,35.989197,8641.08
          -112.119942,35.993362,8770.62
          -112.037544,35.997299,8892.54
          -111.949371,36.001419,9075.42
          -111.867172,36.005222,9220.2
          -111.781998,36.009018,9342.12
          -111.700508,36.012627,9464.04
          -111.613441,36.016441,9593.58
          -111.528702,36.020119,9745.98
          -111.440109,36.023849,9860.28
          -111.353821,36.02742,9982.2
          -111.267815,36.031082,10058.4
          -111.179466,36.034653,10058.4
          -111.096207,36.038086,10058.4
          -111.010094,36.041382,10058.4
          -110.924576,36.044605,10058.4
          -110.841354,36.047726,10058.4
          -110.755005,36.050858,10058.4
          -110.668144,36.054062,10058.4
          -110.584831,36.056992,10058.4
          -110.503006,36.05983,10058.4
          -110.421295,36.062576,10058.4
          -110.333298,36.065556,10058.4
          -110.249008,36.068298,10058.4
          -110.159096,36.071186,10050.78
          -110.074478,36.073792,10050.78
          -109.992607,36.076309,10058.4
          -109.907852,36.078781,10058.4
          -109.819397,36.081337,10066.02
          -109.736473,36.08371,10073.64
          -109.653915,36.085922,10073.64
          -109.569809,36.088272,10058.4
          -109.486183,36.090412,10058.4
          -109.402496,36.092556,10050.78
          -109.316475,36.09465,10058.4
          -109.229622,36.096771,10058.4
          -109.142387,36.098793,10058.4
          -109.054092,36.10075,10058.4
          -108.968132,36.102657,10050.78
          -108.882866,36.104416,10043.16
          -108.79612,36.106247,10050.78
          -108.708778,36.107918,10058.4
          -108.619598,36.10968,10066.02
          -108.531654,36.111317,10066.02
          -108.44873,36.112747,10066.02
          -108.359238,36.114212,10066.02
          -108.273071,36.115585,10066.02
          -108.189697,36.116867,10066.02
          -108.106583,36.118065,10058.4
          -108.018745,36.119324,10058.4
          -107.937111,36.120392,10058.4
          -107.848602,36.121536,10058.4
          -107.764435,36.122498,10058.4
          -107.681976,36.123413,10058.4
          -107.595062,36.124374,10058.4
          -107.511978,36.125198,10058.4
          -107.429985,36.125935,10058.4
          -107.346268,36.126663,10050.78
          -107.258293,36.127331,10058.4
          -107.17701,36.127934,10058.4
          -107.089874,36.128448,10058.4
          -107.002319,36.128906,10058.4
          -106.914597,36.129318,10058.4
          -106.830536,36.129684,10058.4
          -106.749176,36.130005,10058.4
          -106.660126,36.130215,10058.4
          -106.572189,36.130417,10058.4
          -106.483757,36.130497,10066.02
          -106.401131,36.130447,10066.02
          -106.318672,36.130447,10073.64
          -106.2323,36.13031,10066.02
          -106.149788,36.130188,10066.02
          -106.067268,36.130032,10066.02
          -105.985695,36.129845,10058.4
          -105.899727,36.129517,10043.16
          -105.812073,36.129135,10043.16
          -105.72773,36.128677,10050.78
          -105.645386,36.128265,10058.4
          -105.562309,36.12775,10058.4
          -105.477333,36.127075,10066.02
          -105.395706,36.126446,10058.4
          -105.307404,36.125702,10058.4
          -105.223732,36.125015,10066.02
          -105.141556,36.124165,10172.7
          -105.05793,36.12328,10309.86
          -104.975708,36.122349,10424.16
          -104.893173,36.121353,10523.22
          -104.8106,36.1203,10645.14
          -104.727234,36.119228,10668
          -104.645752,36.118057,10668
          -104.561295,36.116821,10668
          -104.475464,36.115494,10668
          -104.396645,36.11425,10668
          -104.310318,36.112793,10668
          -104.229874,36.11142,10668
          -104.14846,36.109966,10668
          -104.065483,36.108337,10668
          -103.980392,36.106659,10668
          -103.898102,36.104965,10668
          -103.811935,36.10318,10668
          -103.731598,36.10144,10668
          -103.649345,36.099678,10675.62
          -103.560638,36.09763,10675.62
          -103.480049,36.095627,10675.62
          -103.393623,36.093533,10675.62
          -103.309296,36.091343,10668
          -103.226624,36.089127,10668
          -103.138565,36.086838,10668
          -103.050301,36.084408,10668
          -102.964569,36.082035,10675.62
          -102.878723,36.079567,10675.62
          -102.795242,36.077087,10668
          -102.708435,36.074478,10668
          -102.623177,36.071838,10668
          -102.541534,36.069279,10668
          -102.455513,36.066486,10668
          -102.374344,36.063831,10668
          -102.289291,36.060974,10660.38
          -102.207916,36.058201,10660.38
          -102.121834,36.055172,10668
          -102.033463,36.052002,10668
          -101.949402,36.048981,10675.62
          -101.866402,36.04591,10675.62
          -101.78421,36.042664,10675.62
          -101.697632,36.039368,10675.62
          -101.614265,36.036118,10668
          -101.53009,36.03273,10668
          -101.444153,36.029251,10668
          -101.361969,36.025799,10660.38
          -101.280045,36.022385,10660.38
          -101.192322,36.018631,10660.38
          -101.10466,36.014786,10668
          -101.017654,36.010948,10668
          -100.936478,36.007271,10668
          -100.848083,36.00325,10675.62
          -100.765289,35.999405,10675.62
          -100.677734,35.995285,10668
          -100.594269,35.991257,10668
          -100.504532,35.987,10668
          -100.419365,35.98283,10675.62
          -100.337563,35.978668,10668
          -100.25425,35.974365,10660.38
          -100.167084,35.969891,10660.38
          -100.078873,35.965347,10660.38
          -99.996353,35.96109,10660.38
          -99.913673,35.95665,10668
          -99.824409,35.951828,10675.62
          -99.740868,35.94722,10675.62
          -99.651031,35.942184,10675.62
          -99.566002,35.937378,10668
          -99.477997,35.932343,10675.62
          -99.394012,35.927483,10668
          -99.30851,35.922455,10668
          -99.224602,35.917473,10668
          -99.139137,35.912384,10668
          -99.050224,35.907043,10660.38
          -98.96582,35.901855,10668
          -98.881134,35.896591,10668
          -98.791008,35.890915,10675.62
          -98.705498,35.885445,10675.62
          -98.615509,35.879608,10675.62
          -98.526093,35.873714,10668
          -98.441734,35.868164,10668
          -98.356216,35.862495,10668
          -98.264923,35.8564,10668
          -98.181778,35.850716,10668
          -98.090088,35.844387,10660.38
          -97.999359,35.838089,10668
          -97.915993,35.832275,10668
          -97.828873,35.826092,10668
          -97.742676,35.81987,10668
          -97.651749,35.813324,10668
          -97.564941,35.807007,10668
          -97.476486,35.800461,10668
          -97.384987,35.79364,10668
          -97.301003,35.787312,10668
          -97.216324,35.780842,10668
          -97.129662,35.774139,10660.38
          -97.040428,35.767246,10668
          -96.950394,35.760178,10660.38
          -96.861778,35.753143,10668
          -96.775246,35.746262,10668
          -96.689911,35.73941,10668
          -96.600327,35.732117,10660.38
          -96.511459,35.724838,10660.38
          -96.424141,35.71767,10652.76
          -96.330475,35.709778,10660.38
          -96.244644,35.702545,10668
          -96.15892,35.695267,10668
          -96.068634,35.687393,10668
          -95.97908,35.679794,10668
          -95.893578,35.672375,10668
          -95.807854,35.664742,10668
          -95.715469,35.65654,10668
          -95.630608,35.648941,10668
          -95.543404,35.640976,10668
          -95.453079,35.632759,10668
          -95.365051,35.624725,10660.38
          -95.279518,35.616886,10660.38
          -95.191269,35.608658,10660.38
          -95.104408,35.600464,10652.76
          -95.018883,35.59235,10660.38
          -94.926338,35.583527,10668
          -94.834381,35.574646,10683.24
          -94.747864,35.566315,10668
          -94.657806,35.557526,10668
          -94.570137,35.54887,10668
          -94.482773,35.540215,10668
          -94.39167,35.531067,10668
          -94.302956,35.522152,10675.62
          -94.217262,35.513397,10675.62
          -94.12645,35.504105,10668
          -94.040398,35.495289,10660.38
          -93.954048,35.486298,10660.38
          -93.866547,35.477135,10668
          -93.77964,35.468033,10668
          -93.69381,35.459015,10675.62
          -93.605972,35.449631,10668
          -93.519363,35.44022,10668
          -93.433342,35.430908,10660.38
          -93.341301,35.420944,10668
          -93.251785,35.411179,10668
          -93.16301,35.401253,10668
          -93.07074,35.390965,10675.62
          -92.984276,35.381195,10675.62
          -92.898582,35.371738,10675.62
          -92.811012,35.361832,10668
          -92.718124,35.350933,10668
          -92.631165,35.341049,10668
          -92.540474,35.330521,10668
          -92.452057,35.320114,10668
          -92.359024,35.309128,10668
          -92.270721,35.298794,10668
          -92.175636,35.287537,10668
          -92.089333,35.277145,10675.62
          -91.996063,35.265881,10668
          -91.908875,35.25536,10668
          -91.813446,35.243721,10668
          -91.725143,35.232967,10668
          -91.632904,35.221424,10668
          -91.538147,35.209599,10668
          -91.445206,35.198044,10668
          -91.352661,35.186417,10668
          -91.264496,35.175156,10668
          -91.17382,35.163605,10668
          -91.081238,35.151829,10668
          -90.988152,35.139725,10660.38
          -90.899567,35.128178,10668
          -90.810532,35.116493,10668
          -90.717415,35.104202,10668
          -90.622406,35.09166,10660.38
          -90.529976,35.079391,10668
          -90.434189,35.066635,10660.38
          -90.34407,35.054535,10668
          -90.252403,35.04213,10675.62
          -90.161934,35.029724,10675.62
          -90.067688,35.016685,10675.62
          -89.971329,35.003464,10675.62
          -89.87635,34.990311,10675.62
          -89.785767,34.977585,10675.62
          -89.690437,34.964268,10668
          -89.595856,34.950909,10668
          -89.501205,34.937546,10660.38
          -89.403244,34.923443,10660.38
          -89.30912,34.91008,10668
          -89.214874,34.896397,10668
          -89.121666,34.882801,10675.62
          -89.023956,34.868591,10668
          -88.933472,34.855244,10668
          -88.839539,34.841354,10668
          -88.743668,34.827126,10668
          -88.653831,34.813717,10660.38
          -88.561417,34.799801,10652.76
          -88.468842,34.78574,10660.38
          -88.377396,34.772053,10660.38
          -88.283218,34.757576,10668
          -88.188461,34.743053,10675.62
          -88.093643,34.728481,10675.62
          -87.999084,34.71373,10675.62
          -87.903275,34.698734,10675.62
          -87.807388,34.683655,10614.66
          -87.717705,34.66964,10469.88
          -87.622261,34.65451,10309.86
          -87.527176,34.639252,10165.08
          -87.433403,34.624329,10066.02
          -87.338959,34.609169,10058.4
          -87.244263,34.593807,10058.4
          -87.146988,34.578026,10058.4
          -87.05275,34.562523,10058.4
          -86.958191,34.546692,10058.4
          -86.866608,34.525188,10058.4
          -86.777115,34.502007,10058.4
          -86.690987,34.479675,10050.78
          -86.599228,34.455688,10050.78
          -86.51384,34.433201,10050.78
          -86.425293,34.409866,10050.78
          -86.335144,34.386089,10043.16
          -86.242844,34.361744,9883.14
          -86.151413,34.337349,9585.96
          -86.061058,34.313793,9060.18
          -85.973122,34.291077,8496.3
          -85.883156,34.267822,7978.14
          -85.797333,34.245224,7581.9
          -85.710182,34.222504,7193.28
          -85.627899,34.200951,6819.9
          -85.547623,34.179794,6461.76
          -85.472603,34.16003,6118.86
          -85.395889,34.139694,5775.96
          -85.321594,34.120369,5448.3
          -85.248245,34.101421,5113.02
          -85.175713,34.082565,4792.98
          -85.107254,34.064693,4480.56
          -85.065399,34.05162,4297.68
          -85.061363,34.049789,4282.44
          -85.056488,34.047272,4267.2
          -85.052452,34.045074,4259.58
          -85.048431,34.042675,4251.96
          -85.044998,34.040588,4244.34
          -85.040405,34.037659,4236.72
          -85.036758,34.035324,4229.1
          -85.032608,34.032578,4213.86
          -85.029137,34.030243,4206.24
          -85.025551,34.027817,4198.62
          -85.021133,34.024845,4183.38
          -85.017532,34.022377,4175.76
          -85.013748,34.019817,4160.52
          -85.01049,34.017628,4152.9
          -85.005928,34.014496,4130.04
          -84.948517,33.976059,3779.52
          -84.891357,33.938442,3619.5
          -84.867844,33.922943,3611.88
          -84.845581,33.908184,3611.88
          -84.818153,33.89003,3611.88
          -84.795685,33.875179,3604.26
          -84.769775,33.858078,3611.88
          -84.748016,33.843708,3611.88
          -84.727905,33.830383,3611.88
          -84.707909,33.817173,3611.88
          -84.689621,33.805069,3611.88
          -84.670944,33.79269,3604.26
          -84.653435,33.781002,3611.88
          -84.637131,33.770203,3611.88
          -84.617874,33.757416,3611.88
          -84.59845,33.745811,3611.88
          -84.592438,33.743065,3604.26
          -84.589401,33.741806,3604.26
          -84.586601,33.740753,3596.64
          -84.584084,33.739853,3589.02
          -84.580536,33.738689,3581.4
          -84.577576,33.737778,3573.78
          -84.574547,33.737,3566.16
          -84.5718,33.736313,3558.54
          -84.568405,33.735569,3535.68
          -84.565491,33.734962,3512.82
          -84.562569,33.734451,3482.34
          -84.558792,33.733894,3451.86
          -84.555771,33.733521,3421.38
          -84.552902,33.733242,3390.9
          -84.549438,33.732971,3345.18
          -84.547005,33.732868,3322.32
          -84.543686,33.732777,3291.84
          -84.540016,33.732742,3253.74
          -84.536987,33.732731,3223.26
          -84.534302,33.732731,3200.4
          -84.530548,33.732742,3162.3
          -84.527779,33.732731,3139.44
          -84.524551,33.732742,3101.34
          -84.521637,33.732742,3078.48
          -84.518394,33.732777,3048
          -84.515015,33.732822,3009.9
          -84.49556,33.733009,2819.4
          -84.477242,33.733246,2644.14
          -84.458427,33.733475,2476.5
          -84.438171,33.733612,2308.86
          -84.419693,33.733707,2141.22
          -84.402412,33.733749,1996.44
          -84.382568,33.733704,1813.56
          -84.362701,33.733662,1592.58
          -84.345474,33.733707,1432.56
          -84.334259,33.733662,1363.98
          -84.325851,33.733612,1303.02
          -84.315811,33.733566,1242.06
          -84.307365,33.733566,1203.96
          -84.296974,33.733658,1181.1
          -84.28627,33.733749,1173.48
          -84.276062,33.733753,1173.48
          -84.270287,33.733379,1173.48
          -84.267944,33.733055,1165.86
          -84.26548,33.73259,1165.86
          -84.262611,33.731827,1173.48
          -84.259933,33.730915,1173.48
          -84.257736,33.729996,1173.48
          -84.255814,33.729004,1173.48
          -84.253761,33.727798,1173.48
          -84.251801,33.72649,1173.48
          -84.249687,33.72477,1173.48
          -84.24765,33.722809,1173.48
          -84.246468,33.721481,1173.48
          -84.244843,33.71933,1173.48
          -84.243736,33.717552,1173.48
          -84.242828,33.715759,1173.48
          -84.241821,33.71347,1173.48
          -84.241333,33.711967,1173.48
          -84.240585,33.709488,1173.48
          -84.240135,33.707657,1173.48
          -84.239731,33.705868,1173.48
          -84.239296,33.703857,1173.48
          -84.238754,33.701401,1173.48
          -84.238472,33.699818,1173.48
          -84.238007,33.697449,1173.48
          -84.237617,33.69548,1173.48
          -84.237274,33.693718,1173.48
          -84.23687,33.691578,1173.48
          -84.236465,33.689434,1173.48
          -84.23613,33.687572,1173.48
          -84.235779,33.685154,1173.48
          -84.235725,33.68343,1165.86
          -84.235725,33.681381,1165.86
          -84.236046,33.679092,1165.86
          -84.236465,33.677193,1165.86
          -84.237221,33.674881,1158.24
          -84.238007,33.673141,1150.62
          -84.238846,33.671631,1143
          -84.240021,33.66993,1127.76
          -84.241318,33.668381,1120.14
          -84.242996,33.666763,1104.9
          -84.244598,33.665413,1089.66
          -84.246246,33.664352,1082.04
          -84.247871,33.663437,1066.8
          -84.25,33.66243,1059.18
          -84.251793,33.661606,1043.94
          -84.253532,33.660873,1036.32
          -84.255356,33.660202,1021.08
          -84.257515,33.659363,1013.46
          -84.259254,33.658722,998.22
          -84.260986,33.658081,990.6
          -84.262558,33.657501,975.36
          -84.264687,33.656754,967.74
          -84.266571,33.656105,960.12
          -84.268387,33.655472,944.88
          -84.270569,33.654755,937.26
          -84.272346,33.654102,922.02
          -84.274048,33.653549,922.02
          -84.276237,33.652817,914.4
          -84.277611,33.652378,906.78
          -84.279991,33.651672,891.54
          -84.281784,33.651215,883.92
          -84.283562,33.650799,876.3
          -84.28582,33.650436,868.68
          -84.287666,33.650208,861.06
          -84.289337,33.650051,853.44
          -84.291626,33.649914,845.82
          -84.293274,33.649841,838.2
          -84.29496,33.649796,830.58
          -84.296783,33.649773,822.96
          -84.298615,33.649773,815.34
          -84.300323,33.649773,807.72
          -84.302505,33.649773,800.1
          -84.303978,33.64975,792.48
          -84.305649,33.649773,792.48
          -84.307648,33.649727,792.48
          -84.30983,33.649681,784.86
          -84.3116,33.649632,777.24
          -84.313454,33.649612,769.62
          -84.315033,33.649586,754.38
          -84.317093,33.649586,739.14
          -84.321693,33.649521,716.28
          -84.328934,33.649494,678.18
          -84.335236,33.649494,640.08
          -84.341705,33.649521,601.98
          -84.348091,33.649475,579.12
          -84.354401,33.64954,548.64
          -84.358971,33.649521,518.16
          -84.36058,33.64954,510.54
          -84.366646,33.649567,480.06
          -84.373055,33.649494,449.58
          -84.379463,33.649494,419.1
          -84.385529,33.64954,381
          -84.390335,33.649586,358.14
          -84.396744,33.649586,327.66
          -84.402924,33.649586,297.18
          -84.407898,33.649586,266.7
          -84.413284,33.649567,236.22
          -84.419167,33.649567,236.22
          -84.424187,33.649544,0
          -84.427589,33.649544,0
          -84.429008,33.649555,0
          -84.43045,33.649509,0
          -84.431274,33.649387,0
          -84.431831,33.64925,0
          -84.432037,33.649178,0
          -84.432243,33.649109,0
          -84.432526,33.648994,0
          -84.432892,33.648823,0
          -84.433136,33.648689,0
          -84.433411,33.648594,0
          -84.433662,33.648529,0
          -84.43399,33.648457,0
          -84.434235,33.648445,0
          -84.434608,33.648457,0
          -84.434837,33.648457,0
          -84.435059,33.648411,0
          -84.435341,33.648193,0
          -84.435493,33.64793,0
          -84.43576,33.647541,0
          -84.436012,33.647179,0
          -84.436256,33.64682,0
          -84.436455,33.646538,0
          -84.436684,33.646191,0
          -84.436996,33.64571,0
          -84.437286,33.645294,0
          -84.437347,33.645035,0
          -84.437286,33.644779,0
          -84.43718,33.644508,0
          -84.437187,33.644218,0
          -84.437202,33.644009,0
          -84.437202,33.643799,0
          -84.437218,33.64357,0
          -84.43721,33.643318,0
          -84.437233,33.643101,0
          -84.43721,33.642879,0
          -84.437202,33.64267,0
          -84.43721,33.64246,0
          -84.437202,33.642239,0
          -84.437202,33.642021,0
          -84.437218,33.641396,0
          -84.43734,33.641186,0
          -84.437698,33.641323,0
          -84.437782,33.641544,0
          -84.43811,33.641743,0
          -84.438454,33.641727,0
          -84.43869,33.641731,0
        </coordinates>
      </LineString>
    </Placemark>
  </Document>
</kml>