<?xml version='1.0' encoding='utf-8'?>
<kml xmlns="http://www.opengis.net/kml/2.2">
  <Document>
    <Placemark>
      <name>FJ810-2025-12-14</name>
      <TimeStamp>
        <when>2025-12-14</when>
      </TimeStamp>
      <LineString>
        <altitudeMode>absolute</altitudeMode>
        <coordinates>
          177.450485,-17.751984,0
          177.450272,-17.75194,0
          177.450058,-17.751846,0
          177.449844,-17.751707,0
          177.449631,-17.751696,0
          177.449554,-17.751486,0
          177.4496,-17.751263,0
          177.449677,-17.751022,0
          177.449722,-17.750765,0
          177.44957,-17.750544,0
          177.449326,-17.75045,0
          177.449112,-17.750404,0
          177.448898,-17.750368,0
          177.448654,-17.750301,0
          177.448395,-17.750244,0
          177.448166,-17.750181,0
          177.447937,-17.750135,0
          177.447601,-17.750053,0
          177.447342,-17.750031,0
          177.447189,-17.750244,0
          177.447098,-17.75045,0
          177.446869,-17.750729,0
          177.446121,-17.751648,0
          177.444504,-17.753651,0
          177.442734,-17.755861,45.72
          177.439941,-17.759308,38.1
          177.435944,-17.764297,22.86
          177.431992,-17.769129,83.82
          177.423264,-17.779463,274.32
          177.420517,-17.782536,327.66
          177.4189,-17.783979,350.52
          177.417816,-17.784817,365.76
          177.415665,-17.786119,388.62
          177.414215,-17.786865,403.86
          177.411758,-17.787964,411.48
          177.408142,-17.789337,426.72
          177.406799,-17.789795,434.34
          177.403427,-17.790894,449.58
          177.401154,-17.79158,457.2
          177.398743,-17.792313,464.82
          177.39653,-17.792999,472.44
          177.394531,-17.79357,480.06
          177.391785,-17.794313,495.3
          177.38945,-17.794968,502.92
          177.386749,-17.7957,510.54
          177.384766,-17.796223,518.16
          177.381683,-17.797073,533.4
          177.381256,-17.797211,533.4
          177.373154,-17.799362,563.88
          177.36554,-17.801468,617.22
          177.353714,-17.804276,731.52
          177.351089,-17.804626,769.62
          177.348053,-17.804855,800.1
          177.345428,-17.80488,830.58
          177.342712,-17.804718,861.06
          177.340378,-17.804462,891.54
          177.337723,-17.803904,922.02
          177.335129,-17.803205,952.5
          177.330856,-17.801529,1013.46
          177.31134,-17.779541,1181.1
          177.310181,-17.7724,1234.44
          177.311096,-17.762924,1333.5
          177.312622,-17.758375,1394.46
          177.313995,-17.755442,1432.56
          177.315994,-17.751997,1478.28
          177.318085,-17.749054,1508.76
          177.320206,-17.746353,1546.86
          177.321838,-17.74441,1569.72
          177.324295,-17.741524,1600.2
          177.325516,-17.740128,1615.44
          177.329102,-17.735983,1661.16
          177.334808,-17.729279,1729.74
          177.336533,-17.727219,1752.6
          177.351578,-17.708908,1927.86
          177.365295,-17.691759,2095.5
          177.378357,-17.674301,2286
          177.38884,-17.658754,2567.94
          177.423416,-17.606289,2918.46
          177.432953,-17.591354,3025.14
          177.443329,-17.574959,3139.44
          177.452576,-17.559998,3185.16
          177.463196,-17.542606,3246.12
          177.474609,-17.523846,3299.46
          177.486343,-17.504471,3352.8
          177.497574,-17.485998,3398.52
          177.510956,-17.46398,3520.44
          177.524292,-17.445452,3665.22
          177.526611,-17.442984,3688.08
          177.529327,-17.440292,3703.32
          177.531494,-17.438278,3726.18
          177.535599,-17.434799,3749.04
          177.538177,-17.432743,3771.9
          177.541565,-17.430084,3794.76
          177.544067,-17.428207,3810
          177.54715,-17.4259,3832.86
          177.550964,-17.423035,3855.72
          177.55751,-17.418137,3909.06
          177.560944,-17.415565,3931.92
          177.563446,-17.413651,3947.16
          177.566864,-17.410995,3970.02
          177.611206,-17.375763,4213.86
          177.658463,-17.337845,4511.04
          177.70372,-17.301819,4770.12
          177.750397,-17.264688,4975.86
          177.798111,-17.22789,5189.22
          177.815781,-17.217253,5242.56
          177.81955,-17.215256,5257.8
          177.822739,-17.213528,5273.04
          177.826614,-17.211479,5288.28
          177.830917,-17.209259,5311.14
          177.887009,-17.179001,5516.88
          177.945313,-17.147827,5722.62
          178.00441,-17.118376,5913.12
          178.060379,-17.089979,6088.38
          178.118683,-17.054413,6271.26
          178.167145,-17.027878,6484.62
          178.286774,-16.969408,6865.62
          178.34285,-16.941742,7040.88
          178.377106,-16.922745,7124.7
          178.488892,-16.854767,7246.62
          178.545883,-16.814156,7315.2
          178.579041,-16.783525,7345.68
          178.599106,-16.760971,7391.4
          178.602417,-16.756897,7406.64
          178.608643,-16.748978,7421.88
          178.651718,-16.69219,7559.04
          178.696289,-16.634537,7703.82
          178.745148,-16.580696,7833.36
          178.79892,-16.532959,7917.18
          178.857956,-16.48558,8031.48
          178.902084,-16.444427,8161.02
          178.905029,-16.44104,8183.88
          178.909073,-16.436188,8221.98
          178.911758,-16.432894,8244.84
          178.915253,-16.428377,8282.94
          178.918335,-16.424286,8313.42
          178.921188,-16.420464,8336.28
          178.923828,-16.416973,8351.52
          178.926376,-16.41362,8366.76
          178.931244,-16.407476,8389.62
          178.934616,-16.403425,8404.86
          178.937668,-16.399935,8412.48
          178.940826,-16.396408,8412.48
          178.945648,-16.391369,8427.72
          178.948898,-16.388109,8435.34
          178.952057,-16.385056,8442.96
          178.955338,-16.382034,8442.96
          178.960022,-16.377823,8450.58
          178.965256,-16.373428,8458.2
          178.968903,-16.370514,8458.2
          178.972534,-16.367661,8458.2
          178.97644,-16.364731,8465.82
          178.982559,-16.360428,8473.44
          178.986267,-16.357897,8473.44
          178.991913,-16.354219,8481.06
          178.995712,-16.351776,8488.68
          178.99971,-16.349304,8488.68
          179.007263,-16.344677,8496.3
          179.011917,-16.341791,8496.3
          179.074997,-16.303291,8549.64
          179.133987,-16.260324,8587.74
          179.196747,-16.207855,8648.7
          179.287231,-16.134018,8747.76
          179.312103,-16.113647,8778.24
          179.65773,-15.829422,9174.48
          179.746399,-15.756271,9281.16
          179.806396,-15.706787,9349.74
          179.863953,-15.659242,9433.56
          179.938156,-15.597839,9570.72
          179.999802,-15.546844,9685.02
          -178.483078,-14.281723,10668
          -178.405365,-14.216309,10668
          -178.299728,-14.127254,10668
          -178.241379,-14.077972,10668
          -178.183746,-14.029404,10660.38
          -178.123077,-13.978194,10668
          -178.06636,-13.930152,10668
          -178.006836,-13.879807,10668
          -177.949295,-13.831146,10668
          -177.892715,-13.783173,10668
          -177.834229,-13.733551,10668
          -177.775558,-13.683746,10668
          -177.716873,-13.633986,10668
          -177.655716,-13.582034,10668
          -177.596558,-13.531586,10668
          -177.538055,-13.481994,10668
          -177.48143,-13.433765,10668
          -177.419922,-13.381348,10668
          -177.361786,-13.33177,10668
          -177.300827,-13.279771,10668
          -177.240265,-13.228051,10668
          -177.182388,-13.178566,10668
          -177.122925,-13.127731,10668
          -177.063278,-13.07671,10668
          -177.007858,-13.029273,10668
          -176.950775,-12.980301,10668
          -176.895416,-12.932785,10668
          -176.838303,-12.883798,10668
          -176.779663,-12.833288,10668
          -176.72139,-12.783234,10668
          -176.662766,-12.732781,10668
          -176.607498,-12.685181,10668
          -176.549164,-12.634964,10668
          -176.492188,-12.5858,10668
          -176.436401,-12.537689,10668
          -176.377121,-12.486474,10668
          -176.320404,-12.437501,10668
          -176.264893,-12.389505,10668
          -176.205734,-12.338333,10668
          -176.145935,-12.286514,10668
          -176.088303,-12.236664,10668
          -176.032471,-12.188278,10668
          -175.975388,-12.138775,10668
          -175.919434,-12.090225,10668
          -175.863892,-12.042023,10668
          -175.806839,-11.992461,10668
          -175.749832,-11.942883,10668
          -175.692596,-11.893158,10668
          -175.634064,-11.842209,10668
          -175.580994,-11.795964,10668
          -175.520905,-11.743593,10668
          -175.070084,-11.349808,10668
          -173.44339,-9.914303,10669.2192
          -172.620789,-9.180622,10765.536
          -172.341156,-8.93034,11192.256
          -170.290741,-7.078491,11277.6
          -168.625366,-5.556335,11278.8192
          -167.15509,-4.201412,11278.8192
          -165.556427,-2.719116,11277.6
          -163.592957,-0.891094,11278.8192
          -160.797363,1.714053,11277.6
          -159.1763,3.220688,11277.6
          -157.44455,4.82214,11278.8192
          -155.953812,6.193822,11277.6
          -153.820618,8.136406,11278.8192
          -151.182526,10.494175,11278.8192
          -149.40361,12.052328,11277.6
          -147.784012,13.444702,11887.2
          -146.069061,14.890079,11888.4192
          -145.995422,14.951534,11887.2
          -143.919525,16.657333,11887.2
          -141.285522,18.749193,11887.2
          -139.644775,20.00857,11887.2
          -138.001419,21.235199,11887.2
          -136.364029,22.421839,11887.2
          -134.476257,23.744717,11888.4192
          -132.299774,25.20916,11887.2
          -131.184662,25.934944,11890.8576
          -128.883026,27.378445,11888.4192
          -126.46534,28.81525,11887.2
          -123.930756,30.234718,11888.4192
          -122.006744,31.316761,11887.2
          -121.935966,31.358185,11887.2
          -121.865898,31.399019,11887.2
          -121.793571,31.441086,11887.2
          -121.724205,31.481506,11887.2
          -121.633102,31.5343,11887.2
          -121.563065,31.574846,11887.2
          -121.488914,31.617645,11887.2
          -121.417183,31.659027,11887.2
          -121.343239,31.701553,11887.2
          -121.268845,31.744249,11887.2
          -121.19458,31.786835,11887.2
          -121.122841,31.827942,11887.2
          -121.053642,31.867428,11887.2
          -120.9804,31.909149,11887.2
          -120.909706,31.949387,11887.2
          -120.838295,31.989944,11887.2
          -120.767265,32.030182,11887.2
          -120.697426,32.069698,11887.2
          -120.626091,32.10997,11887.2
          -120.548691,32.153641,11887.2
          -120.477005,32.19397,11887.2
          -120.405045,32.234344,11887.2
          -120.333199,32.274582,11887.2
          -120.256462,32.317493,11864.34
          -120.185837,32.357018,11711.94
          -120.113083,32.397537,11452.86
          -120.038986,32.438599,11132.82
          -119.969498,32.477097,10835.64
          -119.896881,32.517529,10530.84
          -119.825241,32.556976,10233.66
          -119.758659,32.593781,9951.72
          -119.689835,32.631683,9662.16
          -119.625534,32.667057,9380.22
          -119.559723,32.703178,9098.28
          -119.493073,32.739716,8763
          -119.428841,32.774872,8450.58
          -119.368195,32.807968,8153.4
          -119.30558,32.842091,7848.6
          -119.241737,32.876774,7536.18
          -119.180679,32.909958,7239
          -119.122292,32.941528,6979.92
          -119.061249,32.974625,6705.6
          -119.003799,33.005768,6446.52
          -118.943817,33.038124,6172.2
          -118.887619,33.068527,5913.12
          -118.832275,33.09827,5654.04
          -118.773796,33.129684,5379.72
          -118.717216,33.159943,5059.68
          -118.664955,33.188858,4838.7
          -118.616135,33.224148,4762.5
          -118.570053,33.256805,4701.54
          -118.521065,33.291508,4640.58
          -118.473198,33.325352,4587.24
          -118.458908,33.333637,4564.38
          -118.45549,33.335175,4564.38
          -118.452225,33.336456,4556.76
          -118.447754,33.337921,4556.76
          -118.444206,33.338928,4549.14
          -118.439865,33.339935,4549.14
          -118.435638,33.340668,4541.52
          -118.431793,33.341171,4541.52
          -118.427452,33.341537,4533.9
          -118.423882,33.341675,4533.9
          -118.419052,33.341644,4526.28
          -118.415184,33.341503,4526.28
          -118.411034,33.34127,4518.66
          -118.407448,33.340992,4518.66
          -118.40358,33.340668,4511.04
          -118.398819,33.340248,4511.04
          -118.394501,33.339874,4503.42
          -118.390747,33.33955,4503.42
          -118.386261,33.33913,4495.8
          -118.382393,33.338802,4495.8
          -118.377464,33.338425,4488.18
          -118.373619,33.33815,4488.18
          -118.369614,33.33783,4480.56
          -118.307564,33.334335,4419.6
          -118.246895,33.331238,4366.26
          -118.186043,33.327911,4305.3
          -118.128418,33.324745,4251.96
          -118.11631,33.325119,4236.72
          -118.112694,33.325516,4236.72
          -118.107903,33.326237,4221.48
          -118.104233,33.327026,4213.86
          -118.099998,33.328098,4206.24
          -118.096054,33.329315,4191
          -118.092545,33.330612,4175.76
          -118.089294,33.33197,4168.14
          -118.085892,33.333618,4145.28
          -118.082458,33.335499,4130.04
          -118.079132,33.337509,4114.8
          -118.07618,33.339504,4099.56
          -118.072594,33.342251,4076.7
          -118.07074,33.343739,4061.46
          -118.067543,33.346439,4038.6
          -118.064796,33.348812,4023.36
          -118.061775,33.351467,4008.12
          -118.059082,33.353886,3985.26
          -118.056618,33.356075,3970.02
          -118.053703,33.358635,3954.78
          -118.050789,33.361195,3939.54
          -118.048149,33.363476,3916.68
          -118.045403,33.365845,3901.44
          -118.042381,33.368454,3878.58
          -118.039688,33.370651,3863.34
          -118.010033,33.396435,3672.84
          -118.007568,33.39946,3657.6
          -118.005219,33.402767,3634.74
          -118.003548,33.405579,3619.5
          -118.002022,33.408447,3604.26
          -118.000397,33.412079,3581.4
          -117.99926,33.415329,3566.16
          -117.998489,33.418129,3550.92
          -117.997726,33.421829,3528.06
          -117.997314,33.424973,3512.82
          -117.997147,33.428696,3497.58
          -117.997116,33.431992,3482.34
          -117.997253,33.435215,3467.1
          -117.997482,33.438099,3451.86
          -117.99778,33.441376,3429
          -117.998207,33.445271,3413.76
          -117.998489,33.448288,3398.52
          -117.998878,33.451645,3383.28
          -117.999153,33.454285,3368.04
          -117.999428,33.457443,3352.8
          -117.999756,33.460693,3337.56
          -118,33.463844,3314.7
          -118.000282,33.467846,3299.46
          -118.000526,33.471085,3276.6
          -118.000671,33.473618,3268.98
          -118.001678,33.493973,3185.16
          -118.002304,33.512676,3131.82
          -118.003029,33.534325,3032.76
          -118.003761,33.552292,2926.08
          -118.004494,33.57003,2842.26
          -118.005272,33.587952,2750.82
          -118.006096,33.605453,2644.14
          -118.006897,33.622818,2522.22
          -118.008072,33.643661,2415.54
          -118.010262,33.654739,2385.06
          -118.011017,33.657223,2377.44
          -118.011887,33.659866,2369.82
          -118.013062,33.663025,2362.2
          -118.014015,33.665543,2354.58
          -118.015076,33.668255,2346.96
          -118.016037,33.670761,2339.34
          -118.016968,33.673283,2331.72
          -118.018051,33.676216,2324.1
          -118.019058,33.678818,2324.1
          -118.020004,33.681335,2316.48
          -118.020798,33.683525,2308.86
          -118.026413,33.69949,2278.38
          -118.031395,33.714432,2240.28
          -118.036819,33.73082,2202.18
          -118.042313,33.747162,2164.08
          -118.047066,33.761265,2133.6
          -118.051796,33.775085,2103.12
          -118.057709,33.790127,2087.88
          -118.063568,33.801865,2087.88
          -118.069321,33.813358,2057.4
          -118.075844,33.826035,1973.58
          -118.082718,33.839054,1844.04
          -118.088608,33.849716,1714.5
          -118.090729,33.852695,1676.4
          -118.092384,33.854603,1653.54
          -118.093758,33.856045,1638.3
          -118.09536,33.857582,1615.44
          -118.096786,33.858841,1592.58
          -118.098907,33.860607,1569.72
          -118.100502,33.861923,1554.48
          -118.102242,33.863297,1539.24
          -118.104111,33.864704,1516.38
          -118.105774,33.865963,1501.14
          -118.107452,33.867233,1485.9
          -118.109589,33.86879,1463.04
          -118.111038,33.869827,1455.42
          -118.112724,33.871078,1440.18
          -118.114632,33.872498,1417.32
          -118.116592,33.87392,1402.08
          -118.118271,33.875153,1386.84
          -118.120064,33.87648,1371.6
          -118.125,33.880051,1325.88
          -118.131783,33.885086,1257.3
          -118.138786,33.890259,1188.72
          -118.145012,33.894974,1135.38
          -118.150223,33.898865,1097.28
          -118.156723,33.903717,1059.18
          -118.163338,33.908615,1021.08
          -118.168106,33.91214,998.22
          -118.17466,33.916946,952.5
          -118.179642,33.920334,914.4
          -118.181702,33.921543,899.16
          -118.183578,33.922531,883.92
          -118.185364,33.923313,876.3
          -118.187271,33.924133,868.68
          -118.189255,33.924896,853.44
          -118.191704,33.925781,838.2
          -118.193665,33.926468,830.58
          -118.195663,33.927132,822.96
          -118.197388,33.927689,807.72
          -118.199387,33.928295,800.1
          -118.201904,33.929123,792.48
          -118.203796,33.929737,784.86
          -118.205681,33.930344,777.24
          -118.207741,33.930996,762
          -118.209694,33.931595,754.38
          -118.211685,33.932251,746.76
          -118.213638,33.932858,739.14
          -118.215927,33.933601,739.14
          -118.221916,33.935577,716.28
          -118.230286,33.938305,693.42
          -118.238586,33.941051,670.56
          -118.244507,33.943039,647.7
          -118.252686,33.945557,617.22
          -118.254662,33.946079,609.6
          -118.256836,33.946545,601.98
          -118.258911,33.946884,601.98
          -118.260956,33.947197,594.36
          -118.262886,33.947388,586.74
          -118.264793,33.947571,579.12
          -118.266907,33.947662,563.88
          -118.268967,33.947754,556.26
          -118.271317,33.947754,548.64
          -118.273254,33.947754,533.4
          -118.275085,33.947708,525.78
          -118.277435,33.947567,518.16
          -118.279144,33.947479,510.54
          -118.280983,33.94738,502.92
          -118.283348,33.947205,495.3
          -118.285202,33.947067,487.68
          -118.286705,33.946915,480.06
          -118.288727,33.946747,464.82
          -118.29071,33.946545,457.2
          -118.292427,33.946381,449.58
          -118.294258,33.946217,434.34
          -118.29641,33.946014,426.72
          -118.298088,33.945877,419.1
          -118.299881,33.945694,411.48
          -118.306778,33.945053,373.38
          -118.311935,33.944542,350.52
          -118.318497,33.943909,320.04
          -118.324814,33.943283,297.18
          -118.32962,33.942772,266.7
          -118.336258,33.94212,228.6
          -118.342499,33.941471,198.12
          -118.348907,33.940819,167.64
          -118.355255,33.940166,137.16
          -118.361435,33.93956,106.68
          -118.367729,33.938908,76.2
          -118.373909,33.938305,45.72
          -118.378639,33.93782,30.48
          -118.385254,33.937134,0
          -118.389847,33.93663,0
          -118.394852,33.936115,0
          -118.396629,33.935944,0
          -118.398285,33.935791,0
          -118.398987,33.935719,0
          -118.399193,33.935703,0
          -118.399826,33.935635,0
          -118.400246,33.935593,0
          -118.400642,33.935555,0
          -118.401001,33.935524,0
          -118.401352,33.935486,0
          -118.401718,33.935452,0
          -118.402145,33.935406,0
          -118.402489,33.935371,0
          -118.402786,33.935337,0
          -118.403076,33.935303,0
          -118.403503,33.935265,0
          -118.404068,33.935207,0
          -118.404602,33.935154,0
          -118.404922,33.935116,0
          -118.405251,33.935085,0
          -118.40567,33.935059,0
          -118.405952,33.93502,0
          -118.406242,33.935005,0
          -118.406738,33.93494,0
          -118.40699,33.934914,0
          -118.407341,33.934879,0
          -118.40757,33.934849,0
          -118.408028,33.934811,0
          -118.408455,33.934788,0
          -118.408752,33.934788,0
          -118.408974,33.934788,0
          -118.409225,33.934799,0
          -118.409508,33.934822,0
          -118.409843,33.93486,0
          -118.410271,33.93494,0
          -118.410629,33.93502,0
          -118.410904,33.935104,0
          -118.41127,33.93523,0
          -118.411629,33.935349,0
          -118.411835,33.935383,0
          -118.412064,33.935406,0
          -118.412308,33.935394,0
          -118.412521,33.935486,0
          -118.41259,33.935692,0
          -118.412621,33.935898,0
          -118.412636,33.936115,0
          -118.412674,33.936344,0
          -118.412704,33.936573,0
          -118.412735,33.93679,0
          -118.412773,33.937057,0
          -118.412834,33.93726,0
          -118.413055,33.937397,0
          -118.413292,33.937454,0
          -118.413521,33.937443,0
          -118.413734,33.93742,0
          -118.413994,33.937386,0
          -118.414215,33.93734,0
          -118.414436,33.937313,0
          -118.414696,33.937283,0
          -118.414963,33.937256,0
          -118.415237,33.937237,0
          -118.41581,33.937176,0
          -118.416298,33.93713,0
          -118.416542,33.937134,0
          -118.416763,33.937222,0
          -118.416954,33.937523,0
          -118.416939,33.937733,0
          -118.416939,33.937935,0
          -118.416962,33.938141,0
          -118.416992,33.938385,0
          -118.417038,33.938656,0
          -118.417076,33.938896,0
          -118.417152,33.939396,0
          -118.417175,33.939617,0
          -118.417221,33.939899,0
          -118.417259,33.940155,0
          -118.417297,33.940422,0
          -118.417328,33.940659,0
          -118.417358,33.940876,0
          -118.417381,33.941082,0
          -118.41748,33.941689,0
          -118.417526,33.941994,0
          -118.417557,33.942204,0
          -118.417595,33.942467,0
          -118.417625,33.942673,0
          -118.417648,33.942879,0
          -118.417694,33.943226,0
          -118.417625,33.943474,0
          -118.417412,33.9436,0
          -118.417122,33.943668,0
          -118.416908,33.943775,0
          -118.416824,33.944,0
          -118.416824,33.944206,0
          -118.41687,33.944412,0
          -118.416924,33.944622,0
          -118.41684,33.944832,0
          -118.416611,33.944889,0
          -118.416351,33.944836,0
          -118.416107,33.944855,0
          -118.415901,33.944881,0
          -118.415688,33.944904,0
        </coordinates>
      </LineString>
    </Placemark>
  </Document>
</kml>