<?xml version='1.0' encoding='utf-8'?>
<kml xmlns="http://www.opengis.net/kml/2.2">
  <Document>
    <Placemark>
      <name>JQ152-2024-12-12</name>
      <TimeStamp>
        <when>2024-12-12</when>
      </TimeStamp>
      <LineString>
        <altitudeMode>absolute</altitudeMode>
        <coordinates>
          174.777145,-37.005238,0
          174.777222,-37.005444,0
          174.777313,-37.005653,0
          174.777405,-37.005875,0
          174.777527,-37.006107,0
          174.777725,-37.006329,0
          174.777985,-37.006325,0
          174.777542,-37.006435,0
          174.777206,-37.006531,0
          174.776993,-37.006588,0
          174.776779,-37.006641,0
          174.776566,-37.006714,0
          174.776352,-37.006771,0
          174.776123,-37.006828,0
          174.775909,-37.006886,0
          174.775635,-37.006992,0
          174.775436,-37.007202,0
          174.775421,-37.007423,0
          174.775497,-37.007652,0
          174.77562,-37.0079,0
          174.775711,-37.008156,0
          174.775818,-37.008362,0
          174.775894,-37.008568,0
          174.776123,-37.009071,0
          174.776321,-37.009541,0
          174.77655,-37.010075,0
          174.776764,-37.010571,0
          174.777039,-37.0112,0
          174.777267,-37.011765,0
          174.777496,-37.012218,0
          174.77774,-37.012367,0
          174.777985,-37.012394,0
          174.778214,-37.012333,0
          174.778519,-37.012253,0
          174.778732,-37.012184,0
          174.778976,-37.012123,0
          174.779251,-37.012047,0
          174.779465,-37.011986,0
          174.779861,-37.011868,0
          174.780548,-37.011684,0
          174.781158,-37.01152,0
          174.78154,-37.011417,0
          174.782028,-37.011276,0
          174.782486,-37.011158,0
          174.78273,-37.011086,0
          174.783051,-37.010998,0
          174.783524,-37.010868,0
          174.784241,-37.01067,0
          174.784943,-37.010471,0
          174.785538,-37.010311,0
          174.786438,-37.010063,0
          174.787292,-37.009827,0
          174.788162,-37.009586,0
          174.789215,-37.009289,0
          174.790085,-37.009048,0
          174.791016,-37.008797,0
          174.792068,-37.008507,0
          174.792969,-37.008251,0
          174.794174,-37.007915,0
          174.795181,-37.007641,0
          174.796188,-37.007366,0
          174.797195,-37.00708,0
          174.798004,-37.006863,0
          174.798859,-37.006622,0
          174.799515,-37.006447,0
          174.799744,-37.006409,0
          174.799973,-37.006447,0
          174.800186,-37.006584,0
          174.8004,-37.006737,0
          174.800644,-37.006908,0
          174.800858,-37.007057,0
          174.801086,-37.007225,0
          174.8013,-37.007412,0
          174.801498,-37.007629,0
          174.801514,-37.007847,0
          174.8013,-37.007904,0
          174.801086,-37.007938,0
          174.80014,-37.008202,0
          174.797974,-37.008808,0
          174.794571,-37.009727,45.72
          174.788361,-37.011448,30.48
          174.781906,-37.013264,106.68
          174.776703,-37.014679,190.5
          174.770157,-37.016476,289.56
          174.76329,-37.018341,381
          174.756241,-37.020294,457.2
          174.750763,-37.021866,510.54
          174.74292,-37.024063,586.74
          174.736618,-37.025848,640.08
          174.727966,-37.02832,708.66
          174.718796,-37.030838,777.24
          174.709244,-37.033421,845.82
          174.698746,-37.036285,952.5
          174.690857,-37.038403,1059.18
          174.680222,-37.041245,1150.62
          174.670502,-37.043896,1226.82
          174.659576,-37.046875,1333.5
          174.650314,-37.049019,1432.56
          174.647507,-37.049389,1455.42
          174.643982,-37.049717,1493.52
          174.641296,-37.049809,1516.38
          174.63826,-37.049789,1546.86
          174.635025,-37.04953,1577.34
          174.631424,-37.049057,1615.44
          174.628448,-37.048462,1645.92
          174.624878,-37.047527,1684.02
          174.621964,-37.046631,1722.12
          174.619263,-37.045712,1752.6
          174.615982,-37.044548,1798.32
          174.61319,-37.043518,1836.42
          174.611038,-37.042694,1866.9
          174.607864,-37.041523,1905
          174.604935,-37.040451,1943.1
          174.601593,-37.039196,1996.44
          174.598663,-37.038124,2034.54
          174.595688,-37.037052,2080.26
          174.593414,-37.036217,2103.12
          174.590637,-37.035233,2141.22
          174.573166,-37.029144,2362.2
          174.552536,-37.022186,2567.94
          174.532623,-37.015686,2796.54
          174.512039,-37.009003,3002.28
          174.490662,-37.002094,3169.92
          174.470657,-36.995529,3253.74
          174.44986,-36.988678,3322.32
          174.422531,-36.979607,3421.38
          174.399368,-36.971878,3489.96
          174.375305,-36.963825,3558.54
          174.350281,-36.955444,3619.5
          174.321182,-36.945694,3756.66
          174.258118,-36.924408,4183.38
          174.193146,-36.902527,4518.66
          174.125351,-36.87973,4838.7
          174.058273,-36.857162,5120.64
          173.988312,-36.833481,5486.4
          173.922394,-36.811089,5890.26
          173.851151,-36.78685,6149.34
          173.784653,-36.764236,6416.04
          173.71109,-36.739071,6713.22
          173.63974,-36.714725,6941.82
          173.563538,-36.688564,7231.38
          173.494049,-36.664635,7414.26
          173.418961,-36.637821,7627.62
          173.348526,-36.606033,7886.7
          173.274368,-36.572845,8153.4
          173.203552,-36.54118,8435.34
          173.128632,-36.50766,8663.94
          173.057724,-36.475708,8953.5
          172.990601,-36.445419,9204.96
          172.92363,-36.415207,9441.18
          172.859116,-36.385975,9585.96
          172.792175,-36.355637,9784.08
          172.725616,-36.325516,9906
          172.658325,-36.294891,10073.64
          172.592239,-36.264679,10279.38
          172.527756,-36.235245,10355.58
          172.462524,-36.20549,10355.58
          172.39389,-36.174023,10355.58
          172.326401,-36.143063,10355.58
          172.257736,-36.111549,10355.58
          172.191177,-36.080776,10355.58
          172.126984,-36.050949,10355.58
          172.061295,-36.020508,10355.58
          171.995148,-35.989929,10355.58
          171.928665,-35.958996,10355.58
          171.863693,-35.928646,10355.58
          171.797852,-35.897964,10355.58
          171.733017,-35.867706,10355.58
          171.667267,-35.836853,10355.58
          171.605133,-35.807648,10355.58
          171.537781,-35.77597,10363.2
          171.472733,-35.745323,10363.2
          171.408463,-35.715015,10363.2
          171.342651,-35.683918,10363.2
          171.27861,-35.653522,10355.58
          171.209366,-35.620655,10355.58
          171.146011,-35.590584,10355.58
          171.079514,-35.559673,10355.58
          171.012894,-35.534958,10355.58
          170.945099,-35.510605,10355.58
          170.874481,-35.484833,10355.58
          170.808624,-35.460388,10355.58
          170.741272,-35.435425,10355.58
          170.672668,-35.409958,10355.58
          170.623459,-35.391678,10355.58
          170.498642,-35.345158,10355.58
          170.417511,-35.314819,10355.58
          170.350571,-35.289597,10363.2
          170.277267,-35.261971,10355.58
          170.205566,-35.235016,10355.58
          170.125809,-35.204849,10347.96
          170.031906,-35.169239,10355.58
          169.965591,-35.144054,10355.58
          169.905029,-35.121002,10355.58
          169.730698,-35.054443,10355.58
          169.665344,-35.029312,10355.58
          169.592087,-35.001205,10363.2
          168.712158,-34.658066,10355.58
          163.579132,-32.468742,10355.58
          163.510788,-32.437454,10355.58
          161.556931,-31.516064,10363.2
          161.526871,-31.501493,10363.2
          161.406235,-31.443108,10363.2
          161.315857,-31.399012,10363.2
          161.225632,-31.355045,10363.2
          161.135513,-31.310993,10363.2
          161.045731,-31.266939,10363.2
          160.956085,-31.222801,10363.2
          160.92627,-31.208145,10363.2
          160.807114,-31.14933,10363.2
          160.718079,-31.105213,10363.2
          160.629028,-31.061247,10363.2
          160.539948,-31.017193,10363.2
          160.480743,-30.987625,10363.2
          160.391998,-30.943272,10363.2
          160.332764,-30.913618,10363.2
          160.24379,-30.86935,10363.2
          160.154938,-30.824739,10363.2
          160.06601,-30.780107,10363.2
          159.977249,-30.735413,10363.2
          159.918198,-30.705606,10363.2
          159.829834,-30.660847,10363.2
          159.741699,-30.615936,10363.2
          159.653549,-30.571089,10363.2
          159.565201,-30.526306,10363.2
          159.50618,-30.496244,10363.2
          159.417862,-30.450947,10363.2
          159.329697,-30.405735,10363.2
          159.241425,-30.360481,10363.2
          159.153351,-30.315056,10363.2
          159.06546,-30.269737,10363.2
          159.006958,-30.239483,10363.2
          158.919281,-30.194056,10363.2
          158.860809,-30.163864,10363.2
          158.802521,-30.133589,10363.2
          158.685944,-30.072821,10363.2
          158.598648,-30.027393,10363.2
          158.569565,-30.01218,10363.2
          158.482468,-29.966562,10363.2
          158.366287,-29.905472,10363.2
          158.298676,-29.870041,10355.58
          158.288696,-29.864777,10355.58
          158.16861,-29.801579,10355.58
          158.106461,-29.768574,10355.58
          158.042496,-29.73468,10355.58
          157.982208,-29.702749,10355.58
          157.919312,-29.669371,10355.58
          157.85817,-29.636993,10355.58
          157.792694,-29.60215,10355.58
          157.730331,-29.568771,10355.58
          157.667801,-29.53537,10355.58
          157.605286,-29.501968,10355.58
          157.545181,-29.469614,10355.58
          157.486053,-29.43782,10355.58
          157.425308,-29.405233,10355.58
          157.364609,-29.372646,10363.2
          157.302399,-29.339081,10355.58
          157.239609,-29.305115,10347.96
          157.18129,-29.273582,10347.96
          157.122818,-29.241898,10355.58
          157.06076,-29.208252,10355.58
          156.997696,-29.174007,10355.58
          156.939056,-29.142027,10355.58
          156.879761,-29.109673,10355.58
          156.820801,-29.077515,10355.58
          156.759689,-29.044189,10355.58
          156.702301,-29.012892,10355.58
          156.642014,-28.979736,10355.58
          156.584229,-28.948013,10355.58
          156.523407,-28.914713,10355.58
          156.464493,-28.882278,10363.2
          156.406219,-28.850052,10370.82
          156.347244,-28.817604,10363.2
          156.285583,-28.783493,10355.58
          156.230133,-28.752823,10347.96
          156.16925,-28.719147,10347.96
          156.11351,-28.688189,10347.96
          156.05368,-28.654997,10340.34
          155.995087,-28.622269,10340.34
          155.933655,-28.588074,10347.96
          155.876495,-28.556168,10355.58
          155.818085,-28.523529,10363.2
          155.759613,-28.490753,10363.2
          155.701477,-28.458082,10363.2
          155.645203,-28.426519,10363.2
          155.583481,-28.391884,10363.2
          155.52594,-28.359467,10355.58
          155.467636,-28.326571,10355.58
          155.410065,-28.294264,10355.58
          155.353943,-28.262468,10355.58
          155.296188,-28.229645,10355.58
          155.237762,-28.19664,10355.58
          155.182373,-28.165314,10355.58
          155.125549,-28.133053,10355.58
          155.06572,-28.098978,10355.58
          155.008911,-28.06653,10195.56
          154.954498,-28.035645,10027.92
          154.903458,-28.006571,9867.9
          154.852509,-27.977289,9707.88
          154.800217,-27.947113,9525
          154.749893,-27.918411,9220.2
          154.699677,-27.889755,8915.4
          154.649414,-27.860825,8610.6
          154.601105,-27.83313,8321.04
          154.55249,-27.80514,8023.86
          154.503479,-27.77693,7734.3
          154.454254,-27.748352,7437.12
          154.406723,-27.720657,7147.56
          154.360657,-27.694061,6865.62
          154.313431,-27.66674,6583.68
          154.266373,-27.639507,6301.74
          154.219955,-27.612534,6019.8
          154.188782,-27.594444,5829.3
          154.12973,-27.560165,5478.78
          154.086258,-27.534763,5219.7
          154.057907,-27.519882,5044.44
          154.054123,-27.518646,5021.58
          154.050766,-27.517773,5006.34
          154.04776,-27.517181,4991.1
          154.041733,-27.516237,4968.24
          154.038269,-27.515808,4953
          154.03418,-27.515352,4930.14
          154.030746,-27.51498,4914.9
          154.027954,-27.514618,4899.66
          154.024582,-27.514206,4884.42
          154.020386,-27.513657,4869.18
          154.017548,-27.51321,4853.94
          154.012894,-27.512419,4823.46
          154.009567,-27.51186,4808.22
          153.956604,-27.50267,4541.52
          153.906281,-27.494385,4274.82
          153.878082,-27.488388,4122.42
          153.875137,-27.487198,4107.18
          153.872192,-27.485792,4084.32
          153.869431,-27.484268,4069.08
          153.866425,-27.4823,4053.84
          153.864105,-27.480577,4038.6
          153.86171,-27.478683,4023.36
          153.858765,-27.476202,4008.12
          153.85643,-27.474152,3992.88
          153.85376,-27.471733,3970.02
          153.851913,-27.470123,3954.78
          153.84964,-27.468056,3939.54
          153.846786,-27.4655,3924.3
          153.844452,-27.46344,3901.44
          153.842133,-27.461397,3886.2
          153.839996,-27.459503,3870.96
          153.837616,-27.457397,3855.72
          153.835266,-27.455393,3840.48
          153.799088,-27.424761,3604.26
          153.784607,-27.412657,3497.58
          153.770294,-27.400589,3390.9
          153.754333,-27.387131,3276.6
          153.740341,-27.374405,3177.54
          153.726242,-27.361404,3070.86
          153.713547,-27.349686,2994.66
          153.701004,-27.338081,2910.84
          153.688675,-27.326706,2849.88
          153.676498,-27.315399,2788.92
          153.665207,-27.304916,2712.72
          153.652298,-27.293064,2613.66
          153.640121,-27.281891,2522.22
          153.628723,-27.271454,2438.4
          153.61702,-27.260572,2346.96
          153.605133,-27.249586,2247.9
          153.593109,-27.238815,2186.94
          153.579437,-27.22673,2171.7
          153.567322,-27.216021,2125.98
          153.554962,-27.205082,2042.16
          153.542221,-27.194141,1973.58
          153.533401,-27.187904,1912.62
          153.529282,-27.185902,1882.14
          153.526947,-27.184982,1859.28
          153.524506,-27.184204,1836.42
          153.521866,-27.183517,1821.18
          153.5186,-27.182922,1798.32
          153.51619,-27.182644,1783.08
          153.512009,-27.182503,1752.6
          153.509323,-27.182596,1744.98
          153.506577,-27.182922,1729.74
          153.503464,-27.183481,1706.88
          153.500717,-27.184158,1691.64
          153.498276,-27.184923,1684.02
          153.49437,-27.186506,1661.16
          153.492172,-27.187637,1653.54
          153.490036,-27.188881,1638.3
          153.487915,-27.190292,1623.06
          153.485657,-27.192047,1607.82
          153.484131,-27.193451,1600.2
          153.481964,-27.19574,1592.58
          153.480377,-27.19754,1577.34
          153.478638,-27.199768,1569.72
          153.477264,-27.201637,1562.1
          153.475998,-27.203339,1554.48
          153.474335,-27.205673,1539.24
          153.472977,-27.207642,1531.62
          153.471436,-27.209885,1516.38
          153.468903,-27.213501,1493.52
          153.467438,-27.215603,1478.28
          153.466217,-27.217232,1463.04
          153.464493,-27.21936,1447.8
          153.458618,-27.225052,1394.46
          153.456558,-27.226542,1379.22
          153.45491,-27.2276,1363.98
          153.451324,-27.229477,1341.12
          153.449005,-27.230499,1325.88
          153.446884,-27.231337,1318.26
          153.444199,-27.232361,1303.02
          153.440979,-27.233479,1287.78
          153.438019,-27.234455,1280.16
          153.435837,-27.235199,1280.16
          153.432999,-27.236086,1272.54
          153.429871,-27.237076,1264.92
          153.42746,-27.237854,1264.92
          153.424866,-27.238691,1264.92
          153.421066,-27.239902,1257.3
          153.419006,-27.240555,1257.3
          153.416092,-27.24147,1257.3
          153.413559,-27.242277,1257.3
          153.40332,-27.245535,1257.3
          153.394913,-27.248188,1249.68
          153.385361,-27.251312,1249.68
          153.37764,-27.25383,1257.3
          153.368195,-27.256987,1249.68
          153.361801,-27.259129,1257.3
          153.354034,-27.261736,1257.3
          153.347534,-27.263947,1257.3
          153.338928,-27.266855,1257.3
          153.332428,-27.269091,1257.3
          153.32431,-27.27182,1257.3
          153.319702,-27.273102,1257.3
          153.317642,-27.273466,1257.3
          153.315796,-27.273653,1257.3
          153.312958,-27.273743,1249.68
          153.310928,-27.273605,1257.3
          153.308929,-27.27342,1257.3
          153.30661,-27.273094,1257.3
          153.304382,-27.272768,1257.3
          153.301804,-27.272303,1249.68
          153.299789,-27.271976,1242.06
          153.297729,-27.271559,1234.44
          153.295654,-27.271179,1219.2
          153.293228,-27.270721,1196.34
          153.291092,-27.270309,1181.1
          153.28891,-27.269928,1165.86
          153.286331,-27.26944,1143
          153.28421,-27.269045,1127.76
          153.28244,-27.268753,1120.14
          153.280319,-27.268387,1104.9
          153.272186,-27.267014,1051.56
          153.26535,-27.265972,1005.84
          153.263062,-27.265686,990.6
          153.261017,-27.265598,975.36
          153.258804,-27.26564,960.12
          153.256317,-27.265924,944.88
          153.254089,-27.266373,929.64
          153.251938,-27.267088,914.4
          153.25,-27.267929,906.78
          153.248245,-27.268812,899.16
          153.246475,-27.269806,891.54
          153.244354,-27.271088,876.3
          153.242477,-27.272209,868.68
          153.240875,-27.273193,853.44
          153.238724,-27.274445,845.82
          153.237564,-27.275162,838.2
          153.235199,-27.276539,822.96
          153.233566,-27.277451,815.34
          153.231506,-27.278641,800.1
          153.229385,-27.279799,784.86
          153.224091,-27.282761,754.38
          153.216064,-27.287201,708.66
          153.208725,-27.291342,662.94
          153.203659,-27.294182,632.46
          153.197052,-27.297907,594.36
          153.191757,-27.300888,563.88
          153.18486,-27.30475,518.16
          153.180145,-27.307434,487.68
          153.177658,-27.309036,472.44
          153.176056,-27.310181,464.82
          153.174698,-27.311188,457.2
          153.173569,-27.312149,449.58
          153.172211,-27.313339,441.96
          153.1716,-27.313873,434.34
          153.170441,-27.315037,426.72
          153.168793,-27.316759,411.48
          153.168015,-27.317642,403.86
          153.165375,-27.320984,373.38
          153.164368,-27.322533,365.76
          153.1633,-27.324142,358.14
          153.161301,-27.327745,335.28
          153.160355,-27.329422,335.28
          153.15947,-27.3311,327.66
          153.158386,-27.333023,312.42
          153.157394,-27.334776,304.8
          153.156662,-27.335999,297.18
          153.153381,-27.341619,266.7
          153.150345,-27.346893,228.6
          153.147034,-27.352558,190.5
          153.143814,-27.358099,160.02
          153.141647,-27.361776,137.16
          153.139435,-27.365686,106.68
          153.137207,-27.369551,83.82
          153.134903,-27.373627,60.96
          153.131744,-27.37912,30.48
          153.130142,-27.381979,30.48
          153.128143,-27.385448,0
          153.126999,-27.387438,0
          153.126556,-27.388103,0
          153.126297,-27.38847,0
          153.1259,-27.388939,0
          153.125534,-27.389299,0
          153.125168,-27.389614,0
          153.124954,-27.389774,0
          153.124664,-27.38998,0
          153.124161,-27.390289,0
          153.123917,-27.390429,0
          153.123657,-27.390575,0
          153.123367,-27.390736,0
          153.123154,-27.390882,0
          153.122879,-27.391033,0
          153.122589,-27.391251,0
          153.122437,-27.391453,0
          153.122269,-27.391756,0
          153.122147,-27.391966,0
          153.122025,-27.392178,0
          153.121857,-27.392475,0
          153.121719,-27.392727,0
          153.121307,-27.393448,0
          153.120834,-27.394238,0
          153.120468,-27.394886,0
          153.120102,-27.39555,0
          153.11972,-27.396214,0
          153.119263,-27.397005,0
          153.118851,-27.397728,0
          153.118469,-27.398392,0
          153.118057,-27.399122,0
          153.117615,-27.399914,0
          153.117157,-27.400682,0
          153.116806,-27.401287,0
          153.116592,-27.401695,0
          153.116409,-27.402008,0
          153.116272,-27.402237,0
          153.116135,-27.402489,0
          153.115906,-27.402672,0
          153.115692,-27.402683,0
          153.115448,-27.402603,0
          153.115189,-27.402473,0
          153.114944,-27.40237,0
          153.114716,-27.402266,0
          153.114502,-27.402161,0
          153.114059,-27.401962,0
          153.113846,-27.401882,0
          153.113617,-27.401857,0
          153.113373,-27.401939,0
          153.113159,-27.402149,0
          153.113022,-27.402363,0
          153.112869,-27.402603,0
          153.112701,-27.402836,0
          153.112564,-27.403044,0
          153.112396,-27.403324,0
          153.112274,-27.403568,0
          153.112137,-27.403778,0
          153.11203,-27.403988,0
          153.111908,-27.404194,0
          153.111786,-27.404406,0
          153.111618,-27.404686,0
          153.11145,-27.404995,0
          153.111237,-27.405361,0
          153.110931,-27.405785,0
          153.110657,-27.406059,0
          153.110428,-27.406244,0
          153.110153,-27.406431,0
          153.10994,-27.406559,0
          153.10965,-27.406723,0
          153.109406,-27.406851,0
          153.109116,-27.406998,0
          153.108841,-27.407146,0
          153.108597,-27.407272,0
          153.108292,-27.407444,0
          153.108047,-27.407328,0
          153.107895,-27.407095,0
          153.107727,-27.406839,0
        </coordinates>
      </LineString>
    </Placemark>
  </Document>
</kml>