<?xml version='1.0' encoding='utf-8'?>
<kml xmlns="http://www.opengis.net/kml/2.2">
  <Document>
    <Placemark>
      <name>KE33-2026-05-17</name>
      <TimeStamp>
        <when>2026-05-17</when>
      </TimeStamp>
      <LineString>
        <altitudeMode>absolute</altitudeMode>
        <coordinates>
          126.435066,37.461239,0
          126.441742,37.463692,0
          126.442383,37.464054,0
          126.443039,37.46442,0
          126.44529,37.465591,0
          126.445885,37.465954,0
          126.443916,37.468571,0
          126.44352,37.469021,0
          126.442978,37.469627,0
          126.442421,37.470257,0
          126.441589,37.471188,0
          126.440643,37.47226,0
          126.440102,37.472862,0
          126.434143,37.480358,0
          126.460991,37.454224,83.82
          126.466133,37.448639,182.88
          126.470573,37.444336,259.08
          126.472519,37.442802,297.18
          126.474075,37.441685,327.66
          126.476303,37.440399,365.76
          126.478249,37.439312,396.24
          126.479866,37.438427,426.72
          126.481735,37.437515,449.58
          126.483727,37.436462,480.06
          126.486183,37.435226,510.54
          126.487877,37.434311,533.4
          126.489777,37.433308,556.26
          126.491684,37.432281,579.12
          126.493713,37.431164,601.98
          126.495468,37.430145,617.22
          126.49736,37.42907,640.08
          126.499329,37.427906,655.32
          126.500824,37.427021,670.56
          126.502663,37.425934,693.42
          126.504997,37.424515,716.28
          126.506866,37.423416,739.14
          126.508522,37.422367,754.38
          126.510437,37.421249,777.24
          126.512474,37.419983,800.1
          126.513954,37.41906,815.34
          126.520073,37.415176,876.3
          126.527687,37.410309,960.12
          126.535622,37.405151,1013.46
          126.54351,37.399883,1051.56
          126.55233,37.393982,1089.66
          126.561302,37.387966,1127.76
          126.570679,37.38168,1173.48
          126.577171,37.376907,1226.82
          126.579155,37.375164,1242.06
          126.581085,37.373337,1257.3
          126.583305,37.371094,1272.54
          126.585007,37.36911,1280.16
          126.586227,37.367523,1287.78
          126.5877,37.365433,1295.4
          126.589073,37.363247,1310.64
          126.590607,37.360519,1318.26
          126.59201,37.357635,1341.12
          126.593063,37.355164,1356.36
          126.593826,37.353241,1379.22
          126.594803,37.350861,1394.46
          126.595985,37.348114,1417.32
          126.597038,37.345551,1432.56
          126.598083,37.343136,1440.18
          126.599083,37.34079,1455.42
          126.600357,37.337826,1463.04
          126.602066,37.334061,1485.9
          126.603104,37.331684,1501.14
          126.604294,37.329029,1508.76
          126.607819,37.321114,1569.72
          126.616615,37.302246,1737.36
          126.621758,37.295013,1798.32
          126.624298,37.292206,1821.18
          126.626488,37.290115,1844.04
          126.628883,37.288101,1866.9
          126.63266,37.285362,1897.38
          126.634789,37.283936,1912.62
          126.638092,37.282013,1935.48
          126.640953,37.280567,1958.34
          126.644547,37.278946,1981.2
          126.650566,37.276749,2019.3
          126.654305,37.27565,2049.78
          126.656876,37.274963,2065.02
          126.661377,37.274143,2095.5
          126.665176,37.27359,2118.36
          126.669197,37.273212,2148.84
          126.673477,37.272995,2179.32
          126.677971,37.272949,2209.8
          126.681129,37.272995,2225.04
          126.685081,37.273075,2255.52
          126.689194,37.273224,2278.38
          126.693916,37.273354,2308.86
          126.69825,37.273544,2331.72
          126.701408,37.273682,2354.58
          126.705322,37.273911,2377.44
          126.710289,37.274185,2407.92
          126.714218,37.274376,2430.78
          126.717979,37.274654,2446.02
          126.722916,37.274963,2484.12
          126.726517,37.275215,2499.36
          126.754822,37.277252,2674.62
          126.781937,37.279266,2819.4
          126.8116,37.281315,2948.94
          126.83593,37.282883,3002.28
          126.863785,37.284477,3025.14
          126.893105,37.28606,3017.52
          126.919319,37.287781,3017.52
          126.947784,37.290436,3017.52
          126.977234,37.293369,3017.52
          127.003937,37.295929,3017.52
          127.028831,37.298264,3017.52
          127.059273,37.301052,3017.52
          127.084412,37.303288,3017.52
          127.113922,37.30687,3017.52
          127.138504,37.311386,3017.52
          127.151764,37.314411,3017.52
          127.155937,37.315437,3017.52
          127.180069,37.321701,3017.52
          127.209755,37.329483,3017.52
          127.232956,37.338272,3017.52
          127.236176,37.339874,3017.52
          127.240494,37.342255,3017.52
          127.244064,37.344315,3017.52
          127.247238,37.346298,3017.52
          127.250694,37.348534,3017.52
          127.2537,37.350677,3017.52
          127.257561,37.353561,3017.52
          127.260368,37.355843,3025.14
          127.263412,37.358452,3032.76
          127.266037,37.360931,3032.76
          127.269363,37.364273,3048
          127.271355,37.366272,3048
          127.27404,37.369205,3063.24
          127.277077,37.372559,3070.86
          127.278999,37.374649,3078.48
          127.282227,37.378189,3093.72
          127.284615,37.380844,3108.96
          127.287071,37.383545,3116.58
          127.290344,37.387127,3131.82
          127.292915,37.389999,3147.06
          127.295837,37.393158,3162.3
          127.298409,37.396065,3169.92
          127.301689,37.399696,3185.16
          127.318947,37.419155,3261.36
          127.338379,37.441177,3375.66
          127.35965,37.463104,3528.06
          127.362343,37.465256,3543.3
          127.366112,37.468128,3566.16
          127.370651,37.47134,3596.64
          127.374474,37.473854,3619.5
          127.378471,37.476181,3642.36
          127.382713,37.478554,3665.22
          127.386414,37.480511,3688.08
          127.390419,37.482513,3710.94
          127.39489,37.484528,3733.8
          127.399445,37.486496,3764.28
          127.403015,37.487869,3779.52
          127.408096,37.489746,3810
          127.411781,37.490936,3825.24
          127.417221,37.492615,3855.72
          127.421654,37.493774,3878.58
          127.42569,37.494736,3901.44
          127.430595,37.495827,3924.3
          127.436272,37.496895,3954.78
          127.439857,37.497547,3970.02
          127.444633,37.498386,3992.88
          127.449646,37.499271,4015.74
          127.453972,37.5,4038.6
          127.459175,37.500916,4069.08
          127.463737,37.50169,4084.32
          127.468338,37.502483,4107.18
          127.473312,37.503296,4130.04
          127.477928,37.504074,4152.9
          127.483658,37.50499,4183.38
          127.556763,37.516342,4503.42
          127.631386,37.52774,4785.36
          127.708763,37.539917,5082.54
          127.787117,37.552387,5356.86
          127.867828,37.565094,5608.32
          127.943672,37.577061,5844.54
          128.027023,37.590141,6111.24
          128.107254,37.602585,6347.46
          128.189133,37.615231,6576.06
          128.271042,37.627899,6804.66
          128.356613,37.64093,7002.78
          128.436142,37.653122,7200.9
          128.52153,37.666115,7406.64
          128.609985,37.679489,7581.9
          128.695663,37.691162,7749.54
          128.718979,37.691578,7795.26
          128.725754,37.691254,7802.88
          128.731369,37.690887,7810.5
          128.736954,37.690414,7825.74
          128.742874,37.689789,7833.36
          128.748718,37.689056,7848.6
          128.754791,37.688141,7856.22
          128.759232,37.687389,7863.84
          128.765793,37.686176,7879.08
          128.770996,37.685062,7886.7
          128.776718,37.683746,7901.94
          128.782043,37.682362,7909.56
          128.787415,37.68087,7917.18
          128.793716,37.67894,7932.42
          128.799149,37.677109,7940.04
          128.805618,37.674866,7955.28
          128.810669,37.672897,7962.9
          128.815475,37.67091,7970.52
          128.820892,37.668549,7985.76
          128.825806,37.666306,7993.38
          128.830643,37.664021,8001
          128.83548,37.661739,8016.24
          128.840073,37.65955,8031.48
          128.845932,37.656803,8046.72
          128.850998,37.65443,8061.96
          128.855896,37.652149,8069.58
          128.860977,37.649727,8084.82
          128.866821,37.647026,8100.06
          128.944016,37.610046,8298.18
          129.018768,37.573883,8473.44
          129.097534,37.535797,8633.46
          129.173431,37.49913,8747.76
          129.258148,37.458305,8900.16
          129.339539,37.418922,9075.42
          129.416504,37.381493,9265.92
          129.498428,37.34166,9441.18
          129.576843,37.303391,9448.8
          129.654434,37.265438,9448.8
          129.731705,37.227497,9448.8
          129.81308,37.187511,9448.8
          129.895065,37.147148,9448.8
          129.978424,37.105957,9448.8
          130.057144,37.066956,9448.8
          130.136276,37.027695,9448.8
          130.215805,36.988174,9448.8
          130.316238,36.937992,9448.8
          130.545807,36.822914,9448.8
          130.622009,36.784599,9448.8
          130.695633,36.747406,9448.8
          130.777161,36.706207,9448.8
          130.846405,36.671154,9448.8
          130.920563,36.633492,9448.8
          131.012756,36.586487,9448.8
          131.088638,36.547745,9448.8
          131.165771,36.508266,9448.8
          131.246704,36.466743,9448.8
          131.329987,36.423889,9448.8
          131.416061,36.385464,9448.8
          131.421539,36.383881,9448.8
          131.42897,36.381832,9448.8
          131.438156,36.379597,9448.8
          131.445984,36.377838,9448.8
          131.451935,36.376694,9448.8
          131.460175,36.375221,9448.8
          131.466522,36.374313,9448.8
          131.474884,36.373215,9448.8
          131.480652,36.372528,9448.8
          131.48642,36.372009,9448.8
          131.492264,36.371544,9448.8
          131.508926,36.370705,9448.8
          131.624283,36.36684,9448.8
          131.713165,36.364326,9448.8
          131.811737,36.361443,9448.8
          131.905396,36.358429,9448.8
          132.001373,36.355156,9448.8
          132.096634,36.351883,9448.8
          132.188934,36.348541,9448.8
          132.279892,36.345196,9448.8
          132.373413,36.341721,9448.8
          132.472351,36.337967,9448.8
          132.567322,36.334213,9448.8
          132.662369,36.33046,9448.8
          132.758209,36.326668,9448.8
          132.852463,36.322803,9448.8
          132.946243,36.318878,9448.8
          133.035721,36.315029,9448.8
          133.124939,36.311142,9448.8
          133.218674,36.307068,9448.8
          133.308502,36.30304,9448.8
          133.40564,36.298595,9448.8
          133.497971,36.294312,9448.8
          133.590546,36.289902,9448.8
          133.683304,36.285461,9448.8
          133.778687,36.280838,9448.8
          133.872528,36.276169,9448.8
          133.964203,36.2715,9448.8
          134.057632,36.266754,9448.8
          134.150833,36.261913,9448.8
          134.238556,36.257256,9448.8
          134.336533,36.252045,9448.8
          134.426666,36.247154,9448.8
          134.48175,36.248749,9448.8
          134.490112,36.249756,9448.8
          134.496155,36.250599,9448.8
          134.501556,36.25145,9448.8
          134.507309,36.252415,9448.8
          134.512711,36.253464,9448.8
          134.520569,36.25507,9448.8
          134.526215,36.256348,9448.8
          134.53183,36.257721,9448.8
          134.537354,36.259167,9448.8
          134.542633,36.260605,9448.8
          134.548935,36.262436,9448.8
          134.555679,36.264633,9448.8
          134.561066,36.266464,9448.8
          134.565353,36.267929,9448.8
          134.571991,36.270447,9448.8
          134.578247,36.2729,9448.8
          134.582458,36.274574,9448.8
          134.589005,36.27718,9448.8
          134.595276,36.279648,9448.8
          134.60054,36.281754,9448.8
          134.606537,36.284119,9448.8
          134.611816,36.286148,9448.8
          134.618637,36.288818,9448.8
          134.703201,36.322266,9448.8
          134.787201,36.355774,9448.8
          134.870117,36.388733,9448.8
          134.950089,36.420376,9448.8
          135.031555,36.452591,9448.8
          135.116226,36.485828,9448.8
          135.197403,36.517578,9448.8
          135.282211,36.550735,9448.8
          135.362259,36.582001,9448.8
          135.450317,36.616196,9448.8
          135.537109,36.649834,9448.8
          135.62149,36.682419,9448.8
          135.700546,36.71291,9448.8
          135.787857,36.746521,9448.8
          135.8685,36.777431,9448.8
          135.95369,36.810013,9448.8
          136.038147,36.842232,9448.8
          136.122833,36.874466,9448.8
          136.204697,36.905594,9448.8
          136.285706,36.936268,9448.8
          136.37204,36.968853,9448.8
          136.454727,37.000046,9448.8
          136.539963,37.031982,9448.8
          136.620773,37.062241,9448.8
          136.704254,37.093475,9448.8
          136.788254,37.124725,9448.8
          136.871384,37.155575,9448.8
          136.957535,37.187511,9448.8
          137.041931,37.21875,9448.8
          137.123749,37.248825,9448.8
          137.211472,37.278946,9448.8
          137.295731,37.306137,9448.8
          137.384445,37.333786,9448.8
          137.468185,37.359283,9448.8
          137.555389,37.385544,9448.8
          137.637909,37.410217,9448.8
          137.722626,37.435547,9448.8
          137.807007,37.460678,9448.8
          137.89624,37.48732,9448.8
          137.978546,37.511841,9448.8
          138.067169,37.538177,9448.8
          138.149811,37.562668,9448.8
          138.239777,37.589302,9448.8
          138.323181,37.613884,9448.8
          138.413177,37.640396,9448.8
          138.504288,37.666946,9448.8
          138.593597,37.689575,9448.8
          138.686142,37.710434,9448.8
          138.777985,37.729656,9448.8
          138.869156,37.747952,9448.8
          138.956757,37.765224,9448.8
          139.045242,37.782486,9448.8
          139.140411,37.801117,9448.8
          139.227402,37.818054,9448.8
          139.314758,37.835144,9448.8
          139.406235,37.85302,9448.8
          139.494629,37.870239,9448.8
          139.58429,37.887657,9448.8
          139.676956,37.905579,9448.8
          139.769882,37.923523,9448.8
          139.861267,37.941051,9448.8
          139.954178,37.958836,9448.8
          140.048569,37.976761,9448.8
          140.140762,37.994167,9448.8
          140.230667,38.011093,9448.8
          140.32048,38.02787,9448.8
          140.416611,38.038906,9448.8
          140.513672,38.040207,9448.8
          140.605423,38.039063,9448.8
          140.701202,38.037781,9448.8
          140.799438,38.036224,9448.8
          140.892136,38.034576,9448.8
          140.98732,38.032745,9448.8
          141.080811,38.030823,9448.8
          141.18103,38.028625,9448.8
          141.278519,38.026428,9448.8
          141.378036,38.024101,9448.8
          141.471069,38.021851,9448.8
          141.566772,38.019493,9448.8
          141.661682,38.017044,9448.8
          141.758224,38.014481,9448.8
          141.855286,38.01181,9448.8
          141.948135,38.009205,9448.8
          142.047211,38.005051,9448.8
          142.14006,37.996307,9448.8
          142.229843,37.985321,9448.8
          142.327164,37.973358,9448.8
          142.420609,37.959766,9448.8
          142.511246,37.9431,9448.8
          142.60376,37.924026,9448.8
          142.694855,37.904228,9448.8
          142.789841,37.882954,9448.8
          142.880814,37.862274,9448.8
          142.972565,37.841263,9448.8
          143.06868,37.819271,9448.8
          143.16507,37.79718,9448.8
          143.255707,37.776398,9448.8
          143.345016,37.755913,9448.8
          143.405075,37.742134,9448.8
          143.56749,37.704754,9448.8
          143.661652,37.682919,9448.8
          143.696259,37.674866,9448.8
          143.873367,37.633575,9448.8
          143.963974,37.612289,9448.8
          144.007156,37.602127,9448.8
          144.192291,37.558411,9448.8
          144.860352,37.397461,9448.8
          149.164291,38.859501,9448.8
          151.090332,39.570866,9448.8
          155.240601,40.810261,9448.8
          158.233505,41.586342,9448.8
          160.004547,42.004509,9448.8
          161.852478,42.646008,9448.8
          165.58783,43.820686,9448.8
          167.527435,44.366055,9450.0192
          170.007935,44.998798,9448.8
          170.303253,45.043991,9448.8
          177.290329,45.818573,10058.4
          -179.35112,46.2327,10058.4
          -175.215622,47.58728,10058.4
          -170.914825,48.774834,10058.4
          -168.714813,49.31591,10058.4
          -168.212418,49.434425,10058.4
          -161.987,50.683144,10058.4
          -159.325272,51.096039,10059.6192
          -154.311142,51.678726,10058.4
          -149.993927,51.996231,10058.4
          -146.978531,51.791782,10058.4
          -142.837906,51.375607,10058.4
          -139.884109,50.984631,10058.4
          -137.594666,50.683708,10058.4
          -135.339722,50.337811,10058.4
          -132.16098,49.807068,10058.4
          -130.257019,49.480698,10058.4
          -129.81105,49.399094,10058.4
          -129.638458,49.366974,10058.4
          -129.534515,49.347515,10058.4
          -129.429276,49.327637,10058.4
          -129.389023,49.320049,10058.4
          -129.191055,49.282341,10058.4
          -129.085663,49.262138,10058.4
          -128.979065,49.241512,10058.4
          -128.880264,49.222275,10058.4
          -128.772049,49.201199,10058.4
          -128.670181,49.181213,10058.4
          -128.565918,49.160515,10058.4
          -128.459259,49.139374,10058.4
          -128.434219,49.134396,10058.4
          -128.243408,49.096226,10058.4
          -128.138397,49.075012,10058.4
          -128.041428,49.055328,10058.4
          -127.935654,49.033813,10058.4
          -127.837418,49.013641,10058.4
          -127.740433,48.993668,10058.4
          -127.636063,48.972061,10058.4
          -127.53421,48.95089,10058.4
          -127.432228,48.92952,10058.4
          -127.334427,48.908981,10058.4
          -127.234833,48.888042,10058.4
          -127.133644,48.866535,10058.4
          -127.037659,48.84613,10058.4
          -126.93956,48.825073,10058.4
          -126.841873,48.804062,10058.4
          -126.74276,48.7826,10058.4
          -126.644966,48.761353,10058.4
          -126.545662,48.739681,10058.4
          -126.448273,48.718231,10058.4
          -126.345665,48.695595,10058.4
          -126.242737,48.672832,10058.4
          -126.145309,48.651093,10058.4
          -126.048325,48.629471,10058.4
          -125.947121,48.606682,10058.4
          -125.848671,48.584381,10058.4
          -125.752693,48.562641,10058.4
          -125.656128,48.540718,10058.4
          -125.551323,48.516697,10058.4
          -125.448906,48.493095,10058.4
          -125.352051,48.470703,10058.4
          -125.253365,48.44783,10058.4
          -125.15062,48.423843,10058.4
          -125.053185,48.401012,10058.4
          -124.955467,48.377975,10058.4
          -124.853836,48.353951,10058.4
          -124.756096,48.330734,10058.4
          -124.652107,48.305954,10058.4
          -124.5494,48.280628,10058.4
          -124.447342,48.254234,10058.4
          -124.345505,48.227791,10058.4
          -124.247566,48.202423,10058.4
          -124.148674,48.17688,10058.4
          -124.046417,48.150284,10058.4
          -123.949677,48.125061,10058.4
          -123.846336,48.097961,10058.4
          -123.747116,48.071888,10058.4
          -123.647552,48.045502,10058.4
          -123.551895,48.020123,10058.4
          -123.453094,47.993683,10058.4
          -123.353996,47.967194,10058.4
          -123.250969,47.9394,10058.4
          -123.152069,47.912659,10058.4
          -123.055328,47.886379,10058.4
          -122.951241,47.858028,10058.4
          -122.854134,47.831406,10058.4
          -122.753265,47.803665,10058.4
          -122.650612,47.775375,10058.4
          -122.55304,47.748322,10058.4
          -122.457253,47.721634,10058.4
          -122.353844,47.692703,10058.4
          -122.251053,47.663818,10058.4
          -122.148399,47.634888,10058.4
          -122.052399,47.60767,10058.4
          -121.949226,47.578342,10058.4
          -121.85218,47.550613,10058.4
          -121.754646,47.522667,10058.4
          -121.655693,47.494175,10058.4
          -121.557953,47.465881,10058.4
          -121.460175,47.437546,10058.4
          -121.358826,47.40802,10058.4
          -121.258987,47.378769,10058.4
          -121.161209,47.350067,10058.4
          -121.063019,47.321091,10058.4
          -120.96579,47.292206,10058.4
          -120.868492,47.263367,10058.4
          -120.770851,47.234253,10058.4
          -120.67321,47.204956,10058.4
          -120.57016,47.173943,10058.4
          -120.473122,47.144669,10058.4
          -120.373146,47.114319,10058.4
          -120.269394,47.082733,10058.4
          -120.166878,47.051422,10058.4
          -120.065048,47.020065,10058.4
          -119.964432,46.984524,10058.4
          -119.870346,46.945789,10058.4
          -119.777664,46.906967,10058.4
          -119.68087,46.866234,10058.4
          -119.588104,46.827084,10058.4
          -119.49601,46.788025,10058.4
          -119.399879,46.747147,10058.4
          -119.30777,46.707825,10058.4
          -119.214569,46.668015,10058.4
          -119.124153,46.629181,10058.4
          -119.027939,46.587711,10058.4
          -118.931328,46.545952,10058.4
          -118.838768,46.505733,10058.4
          -118.746666,46.465622,10058.4
          -118.651245,46.423939,10058.4
          -118.553604,46.381157,10058.4
          -118.46283,46.341217,10058.4
          -118.370544,46.300438,10058.4
          -118.274055,46.257706,10058.4
          -118.183815,46.21756,10058.4
          -118.08902,46.175304,10058.4
          -117.996979,46.134109,10058.4
          -117.904205,46.092499,10058.4
          -117.807671,46.049057,10058.4
          -117.717957,46.008415,10058.4
          -117.625259,45.966431,10058.4
          -117.529816,45.923084,10058.4
          -117.439156,45.881699,10058.4
          -117.346275,45.839149,10058.4
          -117.253922,45.796741,10058.4
          -117.162941,45.754799,10058.4
          -117.06562,45.709808,10172.7
          -116.968018,45.664536,10317.48
          -116.875572,45.621506,10485.12
          -116.776024,45.574997,10645.14
          -116.679581,45.529678,10668
          -116.578804,45.482208,10668
          -116.484833,45.437759,10668
          -116.391708,45.393723,10668
          -116.292503,45.346573,10668
          -116.193626,45.299423,10668
          -116.099396,45.254333,10668
          -116.007118,45.210091,10668
          -115.909782,45.163166,10668
          -115.817871,45.11879,10668
          -115.724747,45.073608,10668
          -115.628815,45.027008,10668
          -115.537521,44.982468,10668
          -115.445381,44.937332,10668
          -115.353043,44.891968,10668
          -115.258095,44.845139,10668
          -115.164986,44.799175,10668
          -115.07415,44.754063,10668
          -114.985069,44.709641,10668
          -114.895935,44.6651,10668
          -114.801369,44.617851,10668
          -114.708389,44.571114,10660.38
          -114.619621,44.526379,10675.62
          -114.529991,44.481083,10668
          -114.440697,44.435833,10668
          -114.354401,44.391907,10668
          -114.264175,44.34594,10668
          -114.177422,44.301529,10668
          -114.091278,44.257259,10668
          -114.004387,44.212475,10668
          -113.916405,44.167007,10668
          -113.831764,44.123188,10668
          -113.743874,44.077568,10668
          -113.659584,44.033623,10668
          -113.569443,43.986603,10668
          -113.481613,43.940552,10668
          -113.394997,43.894943,10668
          -113.308769,43.849503,10668
          -113.224648,43.804916,10668
          -113.136162,43.758034,10668
          -113.05468,43.714741,10668
          -112.970779,43.669956,10668
          -112.885506,43.624336,10668
          -112.802063,43.579514,10668
          -112.722603,43.536861,10668
          -112.641548,43.493042,10668
          -112.559341,43.448547,10668
          -112.478226,43.404514,10668
          -112.39962,43.361782,10668
          -112.315392,43.315834,10668
          -112.23275,43.270615,10668
          -112.151184,43.225849,10668
          -112.070381,43.181396,10668
          -111.987961,43.13591,10668
          -111.912483,43.094193,10668
          -111.834305,43.050888,10668
          -111.753517,43.00589,10668
          -111.676086,42.962723,10668
          -111.594345,42.917068,10668
          -111.511482,42.870667,10668
          -111.433937,42.827034,10668
          -111.357048,42.7836,10668
          -111.282204,42.741302,10668
          -111.205673,42.697998,10668
          -111.130264,42.655106,10668
          -111.048683,42.608643,10660.38
          -110.973709,42.565887,10668
          -110.89389,42.520256,10668
          -110.817368,42.476215,10668
          -110.740623,42.432175,10668
          -110.662285,42.386902,10668
          -110.588509,42.344196,10668
          -110.514732,42.301414,10668
          -110.435692,42.255524,10668
          -110.361038,42.21199,10668
          -110.286942,42.168686,10668
          -110.210373,42.123863,10668
          -110.137688,42.081081,10668
          -110.062721,42.037033,10668
          -109.995552,42.004257,10668
          -109.990074,42.002129,10668
          -109.983192,41.999542,10668
          -109.978256,41.997753,10668
          -109.970711,41.995102,10668
          -109.963943,41.992817,10668
          -109.958603,41.991119,10668
          -109.952324,41.989189,10668
          -109.944527,41.986908,10668
          -109.939934,41.985603,10668
          -109.932007,41.983509,10668
          -109.926704,41.982159,10668
          -109.91909,41.98027,10668
          -109.912018,41.978573,10668
          -109.823807,41.9566,10668
          -109.733192,41.934265,10668
          -109.642593,41.911957,10668
          -109.551132,41.889194,10668
          -109.462852,41.867222,10668
          -109.376053,41.845482,10668
          -109.289627,41.823696,10668
          -109.200981,41.801285,10668
          -109.115463,41.779541,10668
          -109.032631,41.758484,10668
          -108.942055,41.735367,10668
          -108.859505,41.714249,10668
          -108.76931,41.691067,10668
          -108.685684,41.669357,10668
          -108.603912,41.648209,10668
          -108.520844,41.626686,10668
          -108.438698,41.605179,10668
          -108.35453,41.583206,10668
          -108.272499,41.561653,10668
          -108.190674,41.540146,10668
          -108.106491,41.517845,10668
          -108.025383,41.496323,10668
          -107.939522,41.473667,10668
          -107.858658,41.451927,10668
          -107.775818,41.429718,10675.62
          -107.693993,41.407703,10668
          -107.612518,41.385731,10668
          -107.525818,41.362289,10668
          -107.442017,41.339493,10668
          -107.354713,41.315762,10668
          -107.267075,41.29179,10668
          -107.187424,41.26609,10668
          -107.182312,41.263779,10668
          -107.17775,41.261669,10668
          -107.172813,41.259247,10668
          -107.166885,41.256363,10668
          -107.162476,41.254074,10668
          -107.156464,41.250916,10668
          -107.151123,41.248123,10668
          -107.145874,41.245331,10668
          -107.141235,41.242859,10668
          -107.136414,41.24025,10668
          -107.061646,41.20047,10668
          -106.986298,41.160931,10668
          -106.95871,41.142307,10668
          -106.953964,41.138493,10668
          -106.950218,41.135372,10668
          -106.946411,41.132023,10668
          -106.942917,41.128811,10668
          -106.938667,41.12476,10668
          -106.935364,41.121407,10668
          -106.93219,41.118027,10668
          -106.928101,41.113403,10668
          -106.924866,41.109604,10668
          -106.92157,41.105347,10668
          -106.919136,41.10218,10668
          -106.916451,41.098362,10668
          -106.913147,41.093491,10668
          -106.911331,41.090542,10668
          -106.908508,41.085754,10668
          -106.906067,41.081223,10668
          -106.904335,41.077835,10668
          -106.902092,41.073318,10668
          -106.900146,41.069138,10668
          -106.898071,41.06456,10668
          -106.896484,41.060944,10668
          -106.894478,41.056374,10668
          -106.89325,41.053528,10668
          -106.891052,41.048355,10668
          -106.889282,41.044144,10668
          -106.88736,41.03952,10668
          -106.862267,40.979935,10668
          -106.837646,40.921463,10668
          -106.810852,40.858109,10668
          -106.785858,40.799126,10668
          -106.76062,40.739548,10668
          -106.735535,40.680359,10668
          -106.71064,40.621902,10668
          -106.677933,40.559799,10668
          -106.641907,40.498993,10668
          -106.598328,40.442825,10668
          -106.550964,40.390072,10668
          -106.543274,40.383499,10668
          -106.539246,40.380295,10668
          -106.53511,40.377178,10668
          -106.530052,40.373501,10668
          -106.525696,40.370499,10668
          -106.5215,40.367725,10668
          -106.516945,40.364841,10668
          -106.511841,40.361801,10668
          -106.507271,40.359207,10668
          -106.502647,40.356647,10668
          -106.497009,40.353699,10668
          -106.492477,40.351433,10668
          -106.486359,40.348545,10668
          -106.480408,40.345917,10668
          -106.47583,40.343994,10668
          -106.469688,40.341518,10668
          -106.463745,40.339233,10668
          -106.457397,40.337002,10668
          -106.452591,40.335373,10668
          -106.447472,40.333744,10668
          -106.440849,40.331787,10668
          -106.435112,40.330158,10668
          -106.42868,40.328388,10668
          -106.423401,40.327011,10668
          -106.416504,40.325134,10668
          -106.409851,40.323349,10668
          -106.404274,40.321827,10668
          -106.397888,40.320145,10668
          -106.307953,40.297993,10668
          -106.220337,40.279083,10668
          -106.127441,40.259995,10668
          -106.03479,40.241089,10668
          -105.939163,40.2216,10668
          -105.84584,40.202511,10668
          -105.751961,40.183285,10668
          -105.657143,40.163643,10668
          -105.569687,40.145393,10668
          -105.476738,40.126026,10668
          -105.386963,40.107239,10668
          -105.293655,40.08762,10668
          -105.199837,40.067883,10668
          -105.112366,40.049469,10668
          -105.02224,40.030224,10668
          -104.928238,40.010159,10668
          -104.839539,39.991013,10668
          -104.747559,39.9711,10668
          -104.658508,39.951828,10668
          -104.569275,39.932465,10668
          -104.477478,39.912399,10668
          -104.383179,39.891777,10668
          -104.291664,39.871674,10668
          -104.197563,39.850937,10668
          -104.105103,39.830421,10668
          -104.013,39.809875,10668
          -103.918518,39.788757,10668
          -103.831192,39.769089,10668
          -103.743347,39.749279,10668
          -103.65155,39.728378,10668
          -103.562386,39.70816,10668
          -103.470154,39.687088,10668
          -103.382935,39.667023,10668
          -103.297363,39.647423,10668
          -103.209412,39.627033,10668
          -103.12323,39.607132,10675.62
          -103.036377,39.586811,10668
          -102.94339,39.565201,10668
          -102.856926,39.544876,10668
          -102.77047,39.524414,10668
          -102.678581,39.502716,10668
          -102.591858,39.482117,10668
          -102.504471,39.461334,10668
          -102.414314,39.439819,10668
          -102.32869,39.419266,10668
          -102.238594,39.397568,10668
          -102.153564,39.377014,10668
          -102.066589,39.355774,10668
          -101.9785,39.334259,10668
          -101.88739,39.312016,10668
          -101.792747,39.288895,10668
          -101.709106,39.268257,10668
          -101.620491,39.246323,10668
          -101.529556,39.223755,10568.94
          -101.44342,39.202198,10317.48
          -101.358551,39.181091,10126.98
          -101.270836,39.159164,10058.4
          -101.187622,39.138096,10050.78
          -101.098572,39.115566,10058.4
          -101.016052,39.094616,10058.4
          -100.926941,39.071899,10058.4
          -100.836578,39.048843,10058.4
          -100.755318,39.028061,10058.4
          -100.667236,39.005421,10058.4
          -100.586403,38.984482,10058.4
          -100.496597,38.961182,10058.4
          -100.409729,38.938618,10058.4
          -100.327385,38.917282,10058.4
          -100.239792,38.894348,10058.4
          -100.153275,38.871597,10058.4
          -100.065567,38.848389,10058.4
          -99.981567,38.826241,10058.4
          -99.898987,38.804317,10058.4
          -99.810555,38.780869,10058.4
          -99.727844,38.758835,10058.4
          -99.640686,38.73542,10058.4
          -99.556702,38.712841,10058.4
          -99.473816,38.690495,10058.4
          -99.38591,38.666748,10058.4
          -99.302612,38.644176,10058.4
          -99.215942,38.620529,10058.4
          -99.130531,38.597214,10058.4
          -99.048096,38.574673,10058.4
          -98.960083,38.550419,10058.4
          -98.871399,38.525982,10058.4
          -98.783875,38.501678,10058.4
          -98.70237,38.479019,10058.4
          -98.616867,38.455215,10058.4
          -98.534546,38.432316,10058.4
          -98.453445,38.409554,10058.4
          -98.371582,38.386505,10058.4
          -98.289543,38.363281,10058.4
          -98.202347,38.338623,10058.4
          -98.118195,38.314728,10058.4
          -98.031006,38.289871,10058.4
          -97.947174,38.265938,10058.4
          -97.865372,38.242432,10058.4
          -97.783401,38.216034,10058.4
          -97.704338,38.187698,10058.4
          -97.622055,38.156204,10058.4
          -97.545914,38.126312,10058.4
          -97.464676,38.093838,10058.4
          -97.38472,38.061947,10058.4
          -97.302872,38.029266,10058.4
          -97.221756,37.99704,10058.4
          -97.138542,37.964035,10058.4
          -97.05825,37.932037,10058.4
          -96.98008,37.900784,10058.4
          -96.895851,37.867172,10058.4
          -96.818474,37.836227,10058.4
          -96.739525,37.804504,10058.4
          -96.659698,37.772278,10058.4
          -96.578545,37.739479,10058.4
          -96.502327,37.708603,10058.4
          -96.421272,37.675598,10058.4
          -96.341156,37.64296,10058.4
          -96.26075,37.610229,10058.4
          -96.182793,37.578232,10058.4
          -96.101273,37.544861,10058.4
          -96.022537,37.512539,10058.4
          -95.944855,37.480415,10058.4
          -95.865585,37.447678,10058.4
          -95.786285,37.41481,10058.4
          -95.70874,37.382584,10058.4
          -95.634735,37.351791,10058.4
          -95.556221,37.319,10058.4
          -95.48349,37.288574,10058.4
          -95.408257,37.257011,10058.4
          -95.331711,37.2248,10058.4
          -95.254036,37.192165,10058.4
          -95.17485,37.158737,10058.4
          -95.096367,37.125549,10058.4
          -95.018997,37.092682,10058.4
          -94.941521,37.059723,10058.4
          -94.865189,37.02713,10058.4
          -94.788811,36.994446,10058.4
          -94.713791,36.962292,10058.4
          -94.636406,36.9291,10058.4
          -94.55986,36.896046,10058.4
          -94.488335,36.865181,10058.4
          -94.409119,36.835785,10058.4
          -94.325455,36.811741,10058.4
          -94.244728,36.789139,10058.4
          -94.160545,36.765656,10058.4
          -94.081306,36.743408,10058.4
          -93.996689,36.719475,10058.4
          -93.912567,36.695709,10058.4
          -93.831024,36.672546,10058.4
          -93.750076,36.649506,10058.4
          -93.668846,36.626278,10058.4
          -93.586693,36.602692,10058.4
          -93.50499,36.579212,10058.4
          -93.422005,36.555332,10058.4
          -93.341507,36.532059,10058.4
          -93.258881,36.508118,10058.4
          -93.176025,36.484039,10058.4
          -93.097153,36.461109,10058.4
          -93.013412,36.436623,10058.4
          -92.930664,36.412262,10058.4
          -92.848953,36.388275,10058.4
          -92.765343,36.363491,10058.4
          -92.687134,36.340347,10058.4
          -92.606216,36.316284,10058.4
          -92.52195,36.291195,10058.4
          -92.440369,36.266941,10058.4
          -92.357544,36.242249,10058.4
          -92.275887,36.217667,10058.4
          -92.197678,36.194038,10058.4
          -92.11544,36.169189,10058.4
          -92.037445,36.145569,10058.4
          -91.956856,36.121044,10058.4
          -91.873337,36.095673,10058.4
          -91.79644,36.072117,10058.4
          -91.713982,36.046875,10058.4
          -91.632385,36.02179,10058.4
          -91.555557,35.998196,10058.4
          -91.471466,35.972218,10058.4
          -91.389938,35.946899,10058.4
          -91.313278,35.923058,10058.4
          -91.231613,35.89769,10058.4
          -91.150993,35.872456,10058.4
          -91.06971,35.846992,10058.4
          -90.987228,35.82106,10058.4
          -90.904793,35.795086,10058.4
          -90.82283,35.769287,10058.4
          -90.740089,35.743011,10058.4
          -90.661636,35.718018,10058.4
          -90.579765,35.69202,10058.4
          -90.494499,35.664734,10058.4
          -90.412331,35.638412,10058.4
          -90.329414,35.611717,10058.4
          -90.250793,35.586411,10058.4
          -90.170288,35.560371,10058.4
          -90.086899,35.533417,10058.4
          -90.00795,35.507767,10058.4
          -89.930984,35.482719,10058.4
          -89.845963,35.454895,10058.4
          -89.763222,35.427795,10058.4
          -89.684082,35.401932,10058.4
          -89.600372,35.374329,10058.4
          -89.523323,35.348835,10058.4
          -89.438034,35.32045,10058.4
          -89.358528,35.29409,10058.4
          -89.275139,35.2663,10058.4
          -89.193359,35.239151,10058.4
          -89.10994,35.211273,10058.4
          -89.031242,35.18486,10058.4
          -88.94886,35.157089,10058.4
          -88.865723,35.129017,10058.4
          -88.779999,35.099968,10058.4
          -88.695435,35.071339,10058.4
          -88.614693,35.046852,10058.4
          -88.533264,35.026276,10058.4
          -88.447845,35.006378,10058.4
          -88.359207,34.986149,10058.4
          -88.273712,34.96669,10058.4
          -88.185768,34.946766,10058.4
          -88.098511,34.926842,10058.4
          -88.012711,34.907227,10058.4
          -87.925415,34.887226,10058.4
          -87.839561,34.867493,10058.4
          -87.753181,34.847488,10058.4
          -87.667007,34.82745,10058.4
          -87.580658,34.807434,10058.4
          -87.493683,34.78709,10058.4
          -87.40757,34.766888,10058.4
          -87.320938,34.746544,10058.4
          -87.236099,34.726501,10058.4
          -87.150116,34.706085,10058.4
          -87.066261,34.686172,10058.4
          -86.97905,34.66531,10058.4
          -86.892998,34.644745,10058.4
          -86.807495,34.624252,9898.38
          -86.721588,34.6035,9654.54
          -86.63858,34.583469,9471.66
          -86.558029,34.56395,9265.92
          -86.477875,34.54454,9052.56
          -86.398109,34.525085,8823.96
          -86.319244,34.505676,8595.36
          -86.241821,34.486595,8382
          -86.165436,34.467773,8153.4
          -86.089149,34.448959,7932.42
          -86.013702,34.429504,7703.82
          -85.940437,34.409412,7498.08
          -85.866737,34.389347,7261.86
          -85.794235,34.369751,6979.92
          -85.723114,34.350616,6705.6
          -85.654678,34.332184,6446.52
          -85.5867,34.313747,6179.82
          -85.519928,34.295498,5920.74
          -85.453659,34.27739,5631.18
          -85.386429,34.259094,5303.52
          -85.320511,34.241032,5052.06
          -85.261856,34.225018,4808.22
          -85.208527,34.210075,4472.94
          -85.154572,34.195179,4213.86
          -85.100037,34.180191,4000.5
          -85.047623,34.165619,3870.96
          -85.016411,34.155304,3863.34
          -85.013382,34.153748,3863.34
          -85.010635,34.1521,3863.34
          -85.007385,34.149948,3863.34
          -85.005089,34.148254,3863.34
          -85.002197,34.145973,3863.34
          -84.999542,34.143631,3870.96
          -84.997215,34.14127,3870.96
          -84.995056,34.138962,3870.96
          -84.992752,34.136246,3870.96
          -84.990906,34.133789,3870.96
          -84.988976,34.13089,3870.96
          -84.987427,34.128284,3863.34
          -84.986343,34.126282,3863.34
          -84.985023,34.123306,3863.34
          -84.983597,34.119949,3848.1
          -84.98278,34.117401,3832.86
          -84.981995,34.114883,3825.24
          -84.981308,34.112362,3802.38
          -84.980423,34.108887,3779.52
          -84.97982,34.106312,3771.9
          -84.979134,34.10347,3756.66
          -84.978447,34.100632,3741.42
          -84.977737,34.097534,3726.18
          -84.977058,34.094696,3710.94
          -84.976448,34.092316,3703.32
          -84.975754,34.089367,3688.08
          -84.975128,34.086666,3680.46
          -84.974312,34.083206,3665.22
          -84.96563,34.041882,3482.34
          -84.962196,34.025543,3406.14
          -84.958305,34.007622,3322.32
          -84.954582,33.990875,3253.74
          -84.950882,33.974716,3169.92
          -84.94709,33.958416,3086.1
          -84.943321,33.941986,3009.9
          -84.939766,33.926201,2926.08
          -84.935921,33.909576,2842.26
          -84.932274,33.893738,2758.44
          -84.928665,33.877785,2682.24
          -84.924873,33.861465,2583.18
          -84.92067,33.842926,2468.88
          -84.916977,33.826721,2385.06
          -84.913498,33.810974,2346.96
          -84.909798,33.794586,2339.34
          -84.906158,33.778839,2339.34
          -84.902176,33.761032,2339.34
          -84.898285,33.744274,2339.34
          -84.894501,33.730682,2346.96
          -84.890442,33.717739,2331.72
          -84.886322,33.704659,2293.62
          -84.88205,33.69104,2240.28
          -84.878014,33.678268,2194.56
          -84.873619,33.664532,2141.22
          -84.86927,33.651634,2080.26
          -84.86731,33.647827,2065.02
          -84.865837,33.645676,2057.4
          -84.864235,33.643627,2049.78
          -84.862717,33.642014,2042.16
          -84.861206,33.640556,2042.16
          -84.859238,33.638992,2034.54
          -84.856888,33.637573,2026.92
          -84.854797,33.636551,2026.92
          -84.852348,33.635559,2026.92
          -84.849869,33.634785,2026.92
          -84.847633,33.634232,2026.92
          -84.845116,33.633682,2026.92
          -84.842438,33.633202,2034.54
          -84.840179,33.632767,2034.54
          -84.837631,33.632362,2034.54
          -84.835358,33.631989,2034.54
          -84.833054,33.631664,2034.54
          -84.831047,33.631393,2034.54
          -84.828247,33.631107,2034.54
          -84.826126,33.63092,2034.54
          -84.823982,33.630753,2034.54
          -84.821182,33.630569,2026.92
          -84.818604,33.630432,2026.92
          -84.816345,33.630314,2019.3
          -84.81395,33.630249,2019.3
          -84.811707,33.630173,2011.68
          -84.809418,33.630127,1996.44
          -84.806664,33.630066,1988.82
          -84.804253,33.630066,1981.2
          -84.801956,33.630066,1965.96
          -84.798874,33.630066,1958.34
          -84.796463,33.630112,1943.1
          -84.779419,33.630569,1851.66
          -84.76181,33.631107,1737.36
          -84.74453,33.631477,1653.54
          -84.729828,33.631573,1584.96
          -84.712601,33.631523,1493.52
          -84.703415,33.631531,1440.18
          -84.693321,33.631577,1394.46
          -84.68428,33.631573,1348.74
          -84.675064,33.631618,1310.64
          -84.668365,33.631618,1280.16
          -84.659668,33.631618,1234.44
          -84.653412,33.631622,1211.58
          -84.644554,33.631622,1165.86
          -84.636093,33.631618,1120.14
          -84.629196,33.631622,1082.04
          -84.620514,33.631668,1043.94
          -84.613785,33.63171,1005.84
          -84.605087,33.63171,975.36
          -84.599152,33.631668,944.88
          -84.590149,33.631664,899.16
          -84.583405,33.631668,861.06
          -84.575729,33.63171,830.58
          -84.569504,33.631714,800.1
          -84.560982,33.63176,762
          -84.554932,33.63176,731.52
          -84.546722,33.63171,693.42
          -84.540863,33.63176,670.56
          -84.533516,33.63176,640.08
          -84.52623,33.631756,601.98
          -84.52079,33.631805,571.5
          -84.513504,33.631805,541.02
          -84.506386,33.631805,502.92
          -84.499939,33.63176,472.44
          -84.492302,33.631805,441.96
          -84.485703,33.631805,403.86
          -84.47892,33.631805,373.38
          -84.471581,33.631805,335.28
          -84.464684,33.631805,304.8
          -84.459457,33.631805,281.94
          -84.452301,33.631851,243.84
          -84.446579,33.631805,213.36
          -84.44075,33.631805,198.12
          -84.434677,33.631805,198.12
          -84.430405,33.631817,0
          -84.427803,33.631817,0
          -84.424942,33.631817,0
          -84.422249,33.631805,0
          -84.420609,33.631817,0
          -84.419716,33.631817,0
          -84.419296,33.631863,0
          -84.418991,33.631977,0
          -84.418762,33.632114,0
          -84.418549,33.632328,0
          -84.418404,33.632538,0
          -84.418304,33.632813,0
          -84.418228,33.63303,0
          -84.418129,33.633316,0
          -84.418022,33.633602,0
          -84.417938,33.633854,0
          -84.417847,33.634121,0
          -84.41777,33.634357,0
          -84.417671,33.634735,0
          -84.417641,33.634956,0
          -84.417641,33.635166,0
          -84.417656,33.635433,0
          -84.417686,33.635674,0
          -84.417786,33.635925,0
          -84.417839,33.636131,0
          -84.417839,33.636337,0
          -84.417961,33.636543,0
          -84.418159,33.636761,0
          -84.418243,33.637001,0
          -84.418243,33.637207,0
          -84.418243,33.637447,0
          -84.418243,33.637653,0
          -84.418243,33.637856,0
          -84.418373,33.638065,0
          -84.418594,33.638088,0
          -84.418816,33.638088,0
          -84.419029,33.638088,0
          -84.419243,33.638077,0
        </coordinates>
      </LineString>
    </Placemark>
  </Document>
</kml>