<?xml version='1.0' encoding='utf-8'?>
<kml xmlns="http://www.opengis.net/kml/2.2">
  <Document>
    <Placemark>
      <name>KE476-2025-05-17</name>
      <TimeStamp>
        <when>2026-05-17</when>
      </TimeStamp>
      <LineString>
        <altitudeMode>absolute</altitudeMode>
        <coordinates>
          106.665062,10.817951,0
          106.664978,10.818134,0
          106.664886,10.818356,0
          106.664848,10.818577,0
          106.664635,10.818892,0
          106.664948,10.819077,0
          106.665352,10.819233,0
          106.665596,10.819322,0
          106.665833,10.819416,0
          106.666054,10.819496,0
          106.666275,10.819601,0
          106.666328,10.819805,0
          106.666283,10.820008,0
          106.66613,10.820462,0
          106.666275,10.820695,0
          106.666504,10.820811,0
          106.668076,10.821405,0
          106.668465,10.821545,0
          106.668839,10.821682,0
          106.669289,10.821854,0
          106.669647,10.821991,0
          106.670029,10.822231,0
          106.670074,10.82254,0
          106.670006,10.822743,0
          106.669899,10.823,0
          106.669655,10.823256,0
          106.669067,10.823536,0
          106.668678,10.82341,0
          106.668442,10.823307,0
          106.668221,10.823233,0
          106.667946,10.823128,0
          106.667221,10.822848,0
          106.666885,10.822723,0
          106.666634,10.822616,0
          106.653488,10.817669,68.58
          106.648216,10.815674,68.58
          106.641022,10.813019,106.68
          106.633209,10.810089,220.98
          106.625961,10.807434,335.28
          106.618622,10.804688,457.2
          106.612915,10.80254,548.64
          106.607254,10.800385,640.08
          106.601837,10.79835,716.28
          106.594368,10.79551,815.34
          106.58931,10.793649,876.3
          106.582443,10.791092,960.12
          106.577019,10.789133,1013.46
          106.573257,10.788025,1051.56
          106.571548,10.787659,1059.18
          106.569649,10.787457,1066.8
          106.567383,10.787384,1074.42
          106.565071,10.78769,1082.04
          106.56324,10.788062,1089.66
          106.561409,10.788621,1097.28
          106.559433,10.789412,1104.9
          106.557961,10.790085,1112.52
          106.55587,10.791414,1120.14
          106.554214,10.792648,1127.76
          106.552231,10.794525,1135.38
          106.550667,10.796173,1143
          106.549362,10.797885,1150.62
          106.548439,10.79924,1158.24
          106.547165,10.80162,1165.86
          106.54628,10.803658,1173.48
          106.545555,10.805845,1173.48
          106.54493,10.808312,1181.1
          106.54464,10.811012,1188.72
          106.54454,10.813293,1196.34
          106.54454,10.815481,1203.96
          106.544685,10.818042,1219.2
          106.54493,10.820835,1226.82
          106.54512,10.823209,1242.06
          106.54541,10.825974,1249.68
          106.545647,10.8284,1264.92
          106.545937,10.830983,1272.54
          106.546219,10.833481,1287.78
          106.546455,10.835815,1295.4
          106.546806,10.838851,1310.64
          106.547112,10.841309,1318.26
          106.547531,10.844483,1333.5
          106.547829,10.846573,1348.74
          106.548203,10.849558,1371.6
          106.548637,10.852863,1394.46
          106.550133,10.863942,1485.9
          106.551239,10.872229,1554.48
          106.553795,10.891479,1722.12
          106.556015,10.908463,1874.52
          106.558517,10.926369,2026.92
          106.560944,10.94339,2164.08
          106.563477,10.961003,2301.24
          106.566902,10.975574,2407.92
          106.568008,10.977995,2423.16
          106.569656,10.981018,2438.4
          106.571289,10.983535,2461.26
          106.573441,10.98642,2484.12
          106.575241,10.988388,2499.36
          106.577644,10.990704,2522.22
          106.579765,10.992566,2545.08
          106.582077,10.994474,2567.94
          106.584442,10.99629,2590.8
          106.586609,10.99792,2613.66
          106.589455,11.000014,2636.52
          106.592247,11.002063,2667
          106.594612,11.003769,2689.86
          106.59639,11.005042,2705.1
          106.599426,11.00723,2735.58
          106.601807,11.008942,2758.44
          106.604698,11.011047,2781.3
          106.607018,11.012695,2804.16
          106.609573,11.014526,2827.02
          106.624435,11.025292,2964.18
          106.6399,11.036744,3108.96
          106.656364,11.048996,3185.16
          106.674881,11.062958,3261.36
          106.691971,11.075821,3329.94
          106.70874,11.088501,3398.52
          106.727867,11.103104,3482.34
          106.74678,11.117652,3589.02
          106.764702,11.131478,3749.04
          106.811783,11.167603,4206.24
          106.859749,11.204453,4625.34
          106.90844,11.24176,5013.96
          106.958206,11.279892,5372.1
          107.004372,11.317932,5692.14
          107.024597,11.338989,5852.16
          107.027245,11.342056,5875.02
          107.033257,11.349197,5928.36
          107.035675,11.352173,5951.22
          107.076561,11.405578,6309.36
          107.116226,11.45787,6621.78
          107.155533,11.509781,6941.82
          107.194763,11.561248,7239
          107.236343,11.615808,7536.18
          107.276146,11.667899,7978.14
          107.317635,11.722086,8252.46
          107.357407,11.774368,8519.16
          107.396996,11.826096,8755.38
          107.440216,11.882645,8983.98
          107.480103,11.934814,9159.24
          107.523293,11.991298,9357.36
          107.567619,12.049162,9448.8
          107.611755,12.10684,9448.8
          107.655029,12.163402,9448.8
          107.70002,12.222015,9448.8
          107.744652,12.280201,9448.8
          107.786964,12.335365,9448.8
          107.832138,12.39418,9448.8
          107.876366,12.451721,9448.8
          107.921539,12.510361,9448.8
          107.966293,12.568588,9448.8
          108.010002,12.625259,9448.8
          108.055695,12.684647,9448.8
          108.09893,12.740891,9448.8
          108.122818,12.778683,9448.8
          108.12513,12.783431,9448.8
          108.127113,12.787674,9448.8
          108.129524,12.793167,9448.8
          108.131279,12.797379,9448.8
          108.133026,12.801636,9448.8
          108.134972,12.806534,9448.8
          108.1362,12.809784,9448.8
          108.138756,12.816422,9448.8
          108.140465,12.820953,9448.8
          108.142029,12.825027,9448.8
          108.14373,12.829514,9448.8
          108.170227,12.900602,9448.8
          108.195091,12.967126,9448.8
          108.219124,13.031296,9448.8
          108.246918,13.102936,9448.8
          108.276421,13.165466,9448.8
          108.308197,13.23175,9448.8
          108.340614,13.299369,9448.8
          108.371269,13.363403,9448.8
          108.401955,13.427582,9448.8
          108.434395,13.495377,9448.8
          108.465363,13.56015,9448.8
          108.4963,13.624816,9448.8
          108.529388,13.694046,9448.8
          108.56015,13.758374,9448.8
          108.59301,13.827085,9448.8
          108.625137,13.894409,9448.8
          108.656471,13.959946,9448.8
          108.68943,14.029029,9448.8
          108.714294,14.096902,9448.8
          108.7155,14.101883,9448.8
          108.716583,14.106491,9448.8
          108.717628,14.111298,9448.8
          108.718536,14.115709,9448.8
          108.719597,14.121668,9448.8
          108.720367,14.126277,9448.8
          108.721184,14.13177,9448.8
          108.721863,14.137076,9448.8
          108.722343,14.141685,9448.8
          108.722778,14.146294,9448.8
          108.723305,14.152299,9448.8
          108.723694,14.156908,9448.8
          108.724159,14.162338,9448.8
          108.724655,14.167754,9448.8
          108.725136,14.172596,9448.8
          108.72567,14.17767,9448.8
          108.73304,14.247871,9448.8
          108.744263,14.317746,9448.8
          108.759964,14.387924,9448.8
          108.777153,14.457504,9448.8
          108.795677,14.530396,9448.8
          108.813095,14.598175,9448.8
          108.831184,14.668167,9448.8
          108.848984,14.737106,9448.8
          108.867668,14.80957,9448.8
          108.886574,14.882471,9448.8
          108.904678,14.952486,9448.8
          108.923363,15.025014,9448.8
          108.941391,15.094757,9448.8
          108.960236,15.16745,9448.8
          108.978928,15.239639,9448.8
          108.996857,15.30867,9448.8
          109.015717,15.381418,9448.8
          109.033287,15.449249,9441.18
          109.05188,15.520844,9288.78
          109.069908,15.59024,9113.52
          109.087418,15.657659,8961.12
          109.104935,15.724731,8839.2
          109.122475,15.792206,8839.2
          109.141174,15.864166,8839.2
          109.15818,15.929581,8839.2
          109.176735,16.000517,8839.2
          109.194611,16.069244,8839.2
          109.212822,16.138641,8839.2
          109.229782,16.203598,8839.2
          109.247902,16.27322,8839.2
          109.266258,16.343307,8839.2
          109.284424,16.412155,8839.2
          109.302635,16.48168,8839.2
          109.321289,16.552689,8839.2
          109.339958,16.623898,8839.2
          109.358009,16.692535,8839.2
          109.375351,16.758636,8839.2
          109.389908,16.800293,8839.2
          109.391975,16.804276,8839.2
          109.395012,16.809814,8839.2
          109.398079,16.814995,8839.2
          109.400749,16.819107,8839.2
          109.403252,16.822861,8839.2
          109.406044,16.826752,8839.2
          109.408867,16.83045,8839.2
          109.411568,16.833847,8839.2
          109.414459,16.837385,8839.2
          109.41877,16.84227,8839.2
          109.422096,16.845749,8839.2
          109.426819,16.850464,8839.2
          109.432114,16.855225,8839.2
          109.435699,16.858288,8839.2
          109.440948,16.862478,8839.2
          109.444496,16.865204,8839.2
          109.448593,16.868063,8839.2
          109.452225,16.870531,8839.2
          109.456161,16.873123,8839.2
          109.461891,16.876909,8839.2
          109.465759,16.879469,8839.2
          109.472015,16.883606,8839.2
          109.475967,16.886219,8839.2
          109.479919,16.888824,8839.2
          109.541206,16.928558,8839.2
          109.606621,16.970339,8839.2
          109.684372,17.020161,8839.2
          109.737518,17.05431,8839.2
          109.805267,17.09807,8839.2
          109.883438,17.148447,8839.2
          109.916718,17.164673,8839.2
          109.920959,17.166138,8839.2
          109.925323,17.167582,8839.2
          109.929825,17.16893,8839.2
          109.938744,17.171219,8839.2
          109.94313,17.17219,8839.2
          109.947754,17.173096,8839.2
          109.954544,17.174194,8839.2
          109.95681,17.174515,8839.2
          109.976707,17.176163,8839.2
          109.981628,17.176239,8839.2
          109.990929,17.176071,8839.2
          110.006439,17.174973,8839.2
          110.011299,17.174517,8839.2
          110.018166,17.173958,8839.2
          110.022972,17.173632,8839.2
          110.02935,17.173353,8839.2
          110.035881,17.173325,8839.2
          110.040337,17.173399,8839.2
          110.047546,17.173782,8839.2
          110.052124,17.174149,8839.2
          110.06089,17.175215,8839.2
          110.103706,17.185736,8839.2
          110.114426,17.189621,8839.2
          110.119888,17.191835,8839.2
          110.125435,17.194069,8839.2
          110.131485,17.196716,8839.2
          110.177399,17.219971,8839.2
          110.246452,17.261351,8839.2
          110.313087,17.303101,8839.2
          110.346092,17.31892,8839.2
          110.35656,17.322781,8839.2
          110.367638,17.32658,8839.2
          110.450073,17.353041,8839.2
          110.512154,17.372999,8839.2
          110.582069,17.398769,8839.2
          110.67083,17.435949,8839.2
          110.734978,17.46282,8839.2
          110.805557,17.49531,8839.2
          110.891388,17.538321,8839.2
          110.930641,17.558029,8839.2
          112.313133,19.235941,8839.2
          112.287865,19.309729,8839.2
          112.270119,19.373428,8839.2
          112.269577,19.38455,8839.2
          112.270218,19.396133,8839.2
          112.271988,19.407349,8839.2
          112.274727,19.417824,8839.2
          112.278526,19.428341,8839.2
          112.283417,19.438681,8839.2
          112.287529,19.445761,8839.2
          112.2967,19.45846,8839.2
          112.298218,19.46027,8839.2
          112.312347,19.474319,8839.2
          112.321373,19.481279,8839.2
          112.331306,19.48765,8839.2
          112.34124,19.492722,8839.2
          112.352081,19.49716,8839.2
          112.362923,19.500687,8839.2
          112.372383,19.50334,8839.2
          112.383759,19.506409,8839.2
          112.394699,19.509291,8839.2
          112.406273,19.512497,8839.2
          112.482979,19.53891,8839.2
          112.554199,19.570629,8839.2
          112.628593,19.60906,8839.2
          112.689964,19.641041,8839.2
          112.760483,19.67738,8839.2
          112.8395,19.717758,8839.2
          112.881729,19.73914,8839.2
          113.450371,20.026569,8839.2
          113.52153,20.062321,8839.2
          113.610161,20.106899,8839.2
          113.670189,20.137051,8839.2
          113.739403,20.171721,8839.2
          113.929893,20.26689,8839.2
          114.000076,20.30191,8839.2
          114.074142,20.33886,8839.2
          114.139908,20.371582,8961.12
          114.21254,20.407654,9235.44
          114.285378,20.443789,9486.9
          114.355194,20.478422,9715.5
          114.424278,20.512711,9936.48
          114.484848,20.542648,10134.6
          114.560867,20.580185,10370.82
          114.62365,20.611084,10546.08
          114.712746,20.655088,10675.62
          114.784706,20.690468,10668
          114.858063,20.726454,10668
          114.932343,20.762878,10668
          114.998703,20.79538,10668
          115.078743,20.834593,10668
          115.148003,20.868439,10668
          115.210037,20.898701,10668
          115.309456,20.947111,10668
          115.379059,20.980957,10668
          115.452087,21.016479,10668
          115.521591,21.050217,10668
          115.590904,21.083725,10668
          115.662766,21.118515,10668
          115.734764,21.153337,10668
          115.806236,21.18782,10668
          115.878494,21.222656,10668
          115.950653,21.257401,10668
          116.020149,21.290806,10668
          116.093025,21.32579,10668
          116.161041,21.3584,10668
          116.235954,21.394226,10668
          116.305641,21.42753,10668
          116.376137,21.461233,10668
          116.457367,21.499966,10668
          116.537674,21.538193,10668
          116.606293,21.57074,10668
          116.66037,21.59647,10668
          116.741821,21.635101,10668
          116.831413,21.677536,10668
          116.935272,21.726534,10668
          117.004646,21.75926,10668
          117.072601,21.791243,10668
          117.14254,21.824202,10668
          117.213287,21.857439,10668
          117.284492,21.890863,10668
          117.350761,21.92189,10668
          117.422371,21.95549,10668
          117.489067,21.987507,10668
          117.55732,22.024282,10668
          117.622276,22.06105,10668
          117.688805,22.098812,10668
          117.753265,22.13562,10668
          117.814941,22.179628,10668
          117.869164,22.230463,10668
          117.919655,22.280823,10668
          117.971802,22.333157,10668
          118.024696,22.386179,10668
          118.075867,22.43734,10668
          118.125648,22.487137,10668
          118.178833,22.540283,10668
          118.227623,22.588852,10668
          118.282158,22.643143,10668
          118.331093,22.691889,10668
          118.385315,22.745842,10668
          118.437904,22.79812,10668
          118.491722,22.851517,10668
          118.544518,22.903887,10668
          118.594208,22.952999,10668
          118.647102,23.005278,10668
          118.700485,23.058014,10668
          118.753052,23.10988,10668
          118.805237,23.161367,10668
          118.859085,23.214386,10668
          118.911034,23.265459,10668
          118.964851,23.318344,10668
          119.017387,23.369797,10668
          119.069923,23.421249,10668
          119.122566,23.472801,10668
          119.176025,23.52508,10668
          119.228554,23.576427,10668
          119.280495,23.62706,10668
          119.333801,23.67897,10668
          119.386497,23.730286,10668
          119.439751,23.782059,10668
          119.492592,23.833443,10668
          119.546021,23.885208,10668
          119.597115,23.934769,10668
          119.6493,23.985214,10668
          119.702576,24.036829,10668
          119.756828,24.089172,10668
          119.808403,24.138931,10668
          119.862709,24.191242,10668
          119.916435,24.242844,10668
          119.970039,24.294388,10668
          120.02092,24.343328,10668
          120.073853,24.394135,10668
          120.127884,24.445744,10668
          120.178146,24.493786,10668
          120.233101,24.546387,10668
          120.286507,24.597319,10668
          120.33828,24.646664,10668
          120.392815,24.698593,10668
          120.447052,24.750196,10668
          120.50219,24.802567,10668
          120.555473,24.853134,10668
          120.60656,24.901537,10668
          120.660858,24.952927,10668
          120.715385,25.004425,10668
          120.768944,25.054962,10668
          120.822601,25.105637,10668
          120.877686,25.157501,10668
          120.931435,25.208084,10668
          120.982262,25.255875,10668
          121.036171,25.306355,10668
          121.089478,25.356308,10668
          121.142975,25.406488,10668
          121.196083,25.4561,10668
          121.250458,25.506912,10668
          121.303001,25.555893,10668
          121.355965,25.605173,10668
          121.410789,25.656288,10668
          121.464325,25.706099,10668
          121.514488,25.752594,10668
          121.569008,25.803131,10668
          121.622612,25.852646,10668
          121.674164,25.900314,10668
          121.729362,25.951384,10668
          121.781013,25.999008,10668
          121.836739,26.050352,10668
          121.89119,26.100449,10668
          121.945229,26.150114,10668
          121.997009,26.197678,10668
          122.051506,26.247595,10668
          122.105164,26.296875,10668
          122.161079,26.347778,10668
          122.213074,26.395306,10668
          122.294205,26.46936,10668
          122.348831,26.519028,10668
          122.404846,26.569977,10668
          122.473419,26.632303,10668
          122.539169,26.691788,10668
          122.59343,26.740952,10668
          122.645874,26.7883,10668
          122.692619,26.830536,10668
          122.76371,26.894625,10668
          122.800529,26.927769,10668
          122.875847,26.995502,10668
          122.930359,27.04443,10668
          122.99205,27.099779,10668
          123.048897,27.150696,10668
          123.10392,27.199867,10668
          123.168762,27.257721,10668
          123.223976,27.30703,10668
          123.275047,27.352432,10668
          123.333946,27.404837,10668
          123.387039,27.451996,10668
          123.439529,27.498505,10668
          123.492294,27.545193,10668
          123.547546,27.594118,10668
          123.597298,27.638109,10668
          123.63485,27.671219,10668
          123.732254,27.757097,10668
          123.783279,27.801882,10668
          123.841057,27.852623,10668
          123.895569,27.900513,10668
          123.951256,27.949312,10668
          124.001633,27.996002,10668
          124.057037,28.055878,10668
          124.102692,28.106752,10668
          124.178093,28.191105,10668
          124.224243,28.242638,10668
          124.278908,28.303528,10668
          124.332596,28.363207,10668
          124.3815,28.41744,10668
          124.395126,28.432526,10668
          124.48735,28.534653,10668
          124.532829,28.584843,10668
          124.580421,28.637421,10668
          124.626053,28.687729,10668
          124.673752,28.740417,10668
          124.701393,28.778687,10668
          124.711777,28.797318,10668
          124.714645,28.803173,10668
          124.71653,28.807114,10668
          124.719276,28.813181,10668
          124.721535,28.818674,10668
          124.739525,28.863365,10668
          124.786308,28.981476,10668
          124.792892,28.998087,10668
          124.839867,29.115646,10668
          124.864899,29.178223,10668
          124.889885,29.240484,10668
          124.914337,29.301453,10668
          124.99334,29.497871,10668
          125.016983,29.556667,10668
          125.047073,29.631271,10668
          125.307098,30.269394,10668
          125.335159,30.337675,10668
          125.362671,30.404434,10668
          125.390251,30.471359,10668
          125.416901,30.53594,10668
          125.441895,30.596413,10668
          125.468094,30.65963,10668
          125.495697,30.726196,10668
          125.521004,30.787079,10668
          125.547859,30.851751,10668
          125.574219,30.91507,10668
          125.600708,30.978653,10668
          125.626686,31.040752,10668
          125.654083,31.106277,10668
          125.680145,31.168488,10668
          125.705353,31.228546,10668
          125.73336,31.295393,10668
          125.761307,31.361893,10668
          125.788567,31.426579,10668
          125.814499,31.488028,10668
          125.8423,31.553879,10668
          125.870087,31.619583,10668
          125.896591,31.682739,10668
          125.924194,31.748346,10668
          125.951973,31.814312,10668
          125.978577,31.87738,10668
          126.005661,31.941422,10668
          126.033615,32.007523,10668
          126.062233,32.07505,10668
          126.089973,32.140362,10668
          126.117554,32.205276,10668
          126.144348,32.268429,10668
          126.172318,32.334255,10668
          126.200005,32.399139,10668
          126.228622,32.466202,10668
          126.25708,32.532852,10668
          126.284714,32.597397,10668
          126.311684,32.66011,10668
          126.339371,32.724518,10668
          126.367943,32.790886,10668
          126.39518,32.854065,10668
          126.423851,32.920349,10668
          126.451317,32.983932,10668
          126.480377,33.05127,10668
          126.507515,33.114517,10668
          126.536682,33.182236,10668
          126.565575,33.249344,10668
          126.593643,33.314255,10668
          126.622208,33.380264,10668
          126.651489,33.447556,10668
          126.680275,33.51384,10668
          126.696915,33.568268,10668
          126.707001,33.638489,10668
          126.714478,33.708103,10668
          126.721687,33.778305,10668
          126.729187,33.849529,10668
          126.736603,33.920013,10668
          126.743942,33.990921,10668
          126.751442,34.06218,10668
          126.758743,34.131638,10668
          126.765915,34.199844,10668
          126.773415,34.271294,10668
          126.780937,34.342209,10668
          126.788109,34.409683,10668
          126.795792,34.481323,10668
          126.803398,34.552887,10668
          126.811264,34.626114,10668
          126.818787,34.696827,10668
          126.82634,34.767105,10668
          126.834297,34.841125,10668
          126.841797,34.910641,10668
          126.849602,34.982895,10668
          126.857185,35.053417,10668
          126.865196,35.126549,10668
          126.872917,35.198273,10668
          126.880814,35.270325,10668
          126.888367,35.340179,10668
          126.896095,35.411499,10668
          126.903717,35.481743,10668
          126.911606,35.553154,10629.9
          126.919319,35.623356,10401.3
          126.927032,35.69416,10149.84
          126.934166,35.759148,9974.58
          126.941994,35.829952,9776.46
          126.949356,35.897221,9456.42
          126.956841,35.96505,9128.76
          126.964073,36.030167,8869.68
          126.9711,36.093346,8839.2
          126.978149,36.157974,8633.46
          126.985413,36.222298,8298.18
          126.992279,36.28569,7993.38
          126.999603,36.352203,7665.72
          127.002296,36.416885,7360.92
          127.000259,36.481827,7048.5
          126.997864,36.546577,6728.46
          126.995522,36.609283,6423.66
          126.993317,36.672638,6149.34
          126.988388,36.709488,6088.38
          126.987167,36.713516,6080.76
          126.985886,36.717239,6073.14
          126.984444,36.720978,6065.52
          126.982903,36.724503,6057.9
          126.980896,36.728897,6050.28
          126.978836,36.73288,6035.04
          126.976997,36.736233,6027.42
          126.974945,36.739746,6019.8
          126.972679,36.743309,6012.18
          126.970596,36.746338,5996.94
          126.968231,36.749592,5989.32
          126.965431,36.753223,5981.7
          126.962814,36.756317,5974.08
          126.96064,36.758698,5966.46
          126.957779,36.761765,5958.84
          126.954346,36.765152,5943.6
          126.951431,36.767899,5935.98
          126.947769,36.771011,5928.36
          126.944565,36.773663,5913.12
          126.941238,36.776413,5905.5
          126.938255,36.778923,5897.88
          126.935043,36.78162,5890.26
          126.93203,36.784103,5882.64
          126.92894,36.786621,5875.02
          126.925514,36.78949,5867.4
          126.922768,36.791721,5867.4
          126.919785,36.794174,5852.16
          126.871574,36.832687,5791.2
          126.823013,36.870712,5791.2
          126.776138,36.907593,5570.22
          126.729454,36.944595,5356.86
          126.682823,36.981491,5113.02
          126.636307,37.016006,4892.04
          126.632835,37.01778,4884.42
          126.629356,37.019485,4861.56
          126.625732,37.021133,4846.32
          126.621971,37.022717,4831.08
          126.618271,37.024158,4815.84
          126.614571,37.025482,4800.6
          126.610687,37.026718,4785.36
          126.606979,37.02779,4770.12
          126.603233,37.028824,4754.88
          126.599548,37.029694,4739.64
          126.595047,37.030655,4724.4
          126.59166,37.031296,4716.78
          126.587921,37.031845,4701.54
          126.583183,37.032486,4686.3
          126.580116,37.032818,4678.68
          126.575577,37.033283,4663.44
          126.571815,37.033703,4648.2
          126.567513,37.034168,4632.96
          126.563667,37.034592,4617.72
          126.559631,37.035053,4610.1
          126.55584,37.035507,4602.48
          126.552277,37.036011,4594.86
          126.548531,37.036652,4587.24
          126.54409,37.037521,4579.62
          126.540352,37.038448,4579.62
          126.536438,37.03949,4572
          126.532944,37.040592,4572
          126.529243,37.041847,4564.38
          126.525856,37.043198,4564.38
          126.522415,37.044617,4564.38
          126.518616,37.04641,4564.38
          126.514931,37.048325,4564.38
          126.511078,37.050476,4564.38
          126.507927,37.052464,4572
          126.504883,37.054596,4572
          126.5019,37.056793,4572
          126.499153,37.05899,4572
          126.496346,37.061588,4572
          126.493599,37.064209,4564.38
          126.490852,37.066956,4556.76
          126.48822,37.069641,4549.14
          126.485832,37.072201,4533.9
          126.48333,37.074806,4518.66
          126.481354,37.076855,4503.42
          126.478493,37.07988,4488.18
          126.476189,37.082336,4480.56
          126.473831,37.084816,4465.32
          126.471504,37.08733,4457.7
          126.469238,37.089752,4450.08
          126.466255,37.092957,4442.46
          126.44574,37.112366,4366.26
          126.442818,37.114243,4351.02
          126.439842,37.116028,4343.4
          126.43721,37.117401,4335.78
          126.433769,37.119034,4320.54
          126.430603,37.120377,4312.92
          126.426422,37.121918,4297.68
          126.422905,37.12299,4290.06
          126.419914,37.123718,4282.44
          126.416466,37.124451,4267.2
          126.412842,37.125,4251.96
          126.409111,37.125458,4244.34
          126.404831,37.125687,4221.48
          126.402122,37.125828,4213.86
          126.397881,37.125824,4198.62
          126.393967,37.125778,4183.38
          126.390694,37.125641,4175.76
          126.387138,37.125504,4160.52
          126.382721,37.125317,4145.28
          126.379318,37.12513,4130.04
          126.375908,37.124943,4114.8
          126.372749,37.124771,4107.18
          126.368744,37.124527,4091.94
          126.365166,37.12434,4076.7
          126.361404,37.124107,4069.08
          126.358139,37.123947,4061.46
          126.354836,37.123734,4061.46
          126.30265,37.121361,3931.92
          126.251602,37.119217,3710.94
          126.219711,37.119591,3535.68
          126.216553,37.120197,3520.44
          126.213272,37.120972,3505.2
          126.210876,37.121731,3489.96
          126.206673,37.123169,3474.72
          126.20359,37.124386,3459.48
          126.200485,37.12569,3451.86
          126.197617,37.126923,3436.62
          126.19458,37.128296,3421.38
          126.191475,37.129646,3406.14
          126.188072,37.131088,3390.9
          126.185165,37.132233,3375.66
          126.182243,37.133331,3360.42
          126.178513,37.134674,3345.18
          126.175171,37.135792,3337.56
          126.172066,37.136768,3322.32
          126.169739,37.137512,3314.7
          126.165474,37.138824,3291.84
          126.162376,37.13974,3284.22
          126.159103,37.140656,3268.98
          126.155067,37.1418,3253.74
          126.145256,37.144501,3215.64
          126.123863,37.150955,3131.82
          126.117668,37.153793,3101.34
          126.115044,37.155258,3093.72
          126.112236,37.156998,3078.48
          126.109077,37.159286,3063.24
          126.106567,37.161346,3048
          126.104233,37.163498,3040.38
          126.101891,37.165878,3025.14
          126.099731,37.168396,3009.9
          126.097916,37.170776,2994.66
          126.096176,37.173218,2979.42
          126.094505,37.175827,2964.18
          126.092896,37.178513,2948.94
          126.091164,37.181458,2926.08
          126.089798,37.183914,2903.22
          126.088417,37.186348,2887.98
          126.0867,37.18959,2857.5
          126.085373,37.192024,2834.64
          126.083702,37.19519,2804.16
          126.082382,37.197704,2773.68
          126.080956,37.200359,2750.82
          126.079697,37.202732,2727.96
          126.078384,37.205292,2705.1
          126.077057,37.207855,2682.24
          126.068771,37.223587,2537.46
          126.060593,37.23909,2392.68
          126.050873,37.254822,2232.66
          126.049065,37.256874,2209.8
          126.045906,37.259899,2179.32
          126.043755,37.261761,2156.46
          126.041412,37.263474,2148.84
          126.038322,37.265812,2125.98
          126.035995,37.267395,2118.36
          126.033607,37.269024,2103.12
          126.031158,37.270607,2087.88
          126.0289,37.272079,2072.64
          126.026497,37.273586,2057.4
          126.023872,37.275261,2034.54
          126.021545,37.276752,2019.3
          126.019089,37.278305,1996.44
          126.016708,37.279778,1981.2
          126.012703,37.282337,1943.1
          125.998558,37.291462,1813.56
          125.98262,37.303528,1653.54
          125.980881,37.305519,1638.3
          125.979271,37.307613,1615.44
          125.977829,37.309616,1600.2
          125.976524,37.311665,1584.96
          125.975197,37.313873,1569.72
          125.973839,37.316414,1546.86
          125.972687,37.31868,1524
          125.971695,37.320923,1501.14
          125.970848,37.323257,1485.9
          125.969597,37.328053,1440.18
          125.969002,37.333172,1402.08
          125.968948,37.335022,1386.84
          125.969002,37.338043,1363.98
          125.969116,37.340992,1341.12
          125.969299,37.343307,1325.88
          125.969475,37.345184,1318.26
          125.969772,37.348442,1295.4
          125.970001,37.351044,1287.78
          125.970528,37.356445,1272.54
          125.970642,37.357773,1272.54
          125.971268,37.364128,1249.68
          125.971924,37.371902,1226.82
          125.972641,37.37991,1196.34
          125.973419,37.389408,1158.24
          125.974434,37.398438,1120.14
          125.97789,37.409088,1082.04
          125.983505,37.420689,1021.08
          125.996223,37.434658,952.5
          126.010559,37.446201,876.3
          126.020721,37.453125,838.2
          126.062141,37.480835,723.9
          126.07325,37.488052,693.42
          126.080536,37.492802,678.18
          126.094032,37.501553,640.08
          126.102325,37.50695,617.22
          126.109375,37.511513,601.98
          126.115974,37.515839,586.74
          126.123161,37.520462,571.5
          126.131752,37.526047,548.64
          126.139114,37.530807,525.78
          126.146988,37.535908,510.54
          126.157639,37.542892,480.06
          126.166458,37.548615,457.2
          126.175056,37.554203,457.2
          126.183823,37.559967,457.2
          126.189621,37.563793,457.2
          126.195099,37.567245,457.2
          126.202103,37.571472,457.2
          126.211288,37.576767,457.2
          126.217628,37.580364,457.2
          126.226189,37.585236,457.2
          126.232445,37.58876,457.2
          126.23893,37.592468,457.2
          126.248436,37.597775,457.2
          126.254997,37.601486,457.2
          126.262596,37.605423,457.2
          126.265167,37.606339,457.2
          126.269814,37.607506,457.2
          126.271957,37.607784,457.2
          126.276329,37.607895,457.2
          126.278587,37.607738,457.2
          126.280853,37.60741,457.2
          126.284332,37.606567,457.2
          126.28685,37.605698,457.2
          126.288857,37.604805,457.2
          126.291405,37.603226,457.2
          126.292923,37.602127,457.2
          126.29483,37.600521,457.2
          126.295906,37.59959,457.2
          126.297424,37.59819,464.82
          126.298889,37.59668,464.82
          126.30146,37.593979,464.82
          126.302803,37.592514,457.2
          126.304619,37.590652,457.2
          126.305931,37.589211,457.2
          126.306953,37.588165,457.2
          126.308586,37.586426,457.2
          126.309875,37.585018,457.2
          126.311447,37.583267,457.2
          126.312622,37.581947,457.2
          126.314079,37.580338,457.2
          126.315605,37.578594,457.2
          126.319687,37.573929,457.2
          126.324623,37.568401,457.2
          126.330589,37.561745,457.2
          126.334534,37.55732,457.2
          126.338799,37.552551,457.2
          126.344086,37.546661,457.2
          126.347786,37.542473,457.2
          126.351601,37.538223,457.2
          126.358551,37.530396,426.72
          126.362411,37.526047,388.62
          126.366653,37.521336,358.14
          126.370705,37.5168,327.66
          126.378181,37.508347,266.7
          126.383797,37.502064,220.98
          126.390053,37.495056,175.26
          126.395134,37.489288,137.16
          126.431213,37.450668,0
          126.437592,37.448414,0
          126.435196,37.453754,0
          126.432602,37.458538,0
          126.432915,37.458714,0
          126.433586,37.459087,0
          126.434349,37.459526,0
          126.434799,37.459774,0
          126.43541,37.460117,0
          126.437248,37.461216,0
          126.436684,37.462234,0
        </coordinates>
      </LineString>
    </Placemark>
  </Document>
</kml>