<?xml version='1.0' encoding='utf-8'?>
<kml xmlns="http://www.opengis.net/kml/2.2">
  <Document>
    <Placemark>
      <name>KL624-2026-02-14</name>
      <TimeStamp>
        <when>2026-02-14</when>
      </TimeStamp>
      <LineString>
        <altitudeMode>absolute</altitudeMode>
        <coordinates>
          -84.420235,33.63731,0
          -84.420448,33.637321,0
          -84.4207,33.637299,0
          -84.420906,33.637299,0
          -84.42112,33.637367,0
          -84.421333,33.637554,0
          -84.421432,33.63781,0
          -84.421448,33.63802,0
          -84.421455,33.638306,0
          -84.421455,33.638054,0
          -84.421455,33.637814,0
          -84.421455,33.637573,0
          -84.421455,33.637276,0
          -84.421448,33.637028,0
          -84.421448,33.636749,0
          -84.42141,33.636429,0
          -84.42141,33.636211,0
          -84.421555,33.63596,0
          -84.421791,33.63583,0
          -84.422333,33.635799,0
          -84.422546,33.635799,0
          -84.422791,33.635799,0
          -84.423019,33.635807,0
          -84.423264,33.635818,0
          -84.423622,33.635818,0
          -84.423882,33.635807,0
          -84.424126,33.635807,0
          -84.424889,33.635811,0
          -84.425438,33.635807,0
          -84.426414,33.635811,0
          -84.427185,33.635811,0
          -84.427956,33.635807,0
          -84.428658,33.635811,0
          -84.429298,33.635811,0
          -84.43,33.635811,0
          -84.430687,33.635807,0
          -84.431419,33.635807,0
          -84.432144,33.635811,0
          -84.433052,33.635807,0
          -84.433777,33.635807,0
          -84.434593,33.635807,0
          -84.435371,33.635811,0
          -84.436043,33.635807,0
          -84.436867,33.635807,0
          -84.437515,33.635807,0
          -84.438087,33.635807,0
          -84.43869,33.635807,0
          -84.439178,33.635811,0
          -84.439728,33.635807,0
          -84.440178,33.635811,0
          -84.440498,33.635811,0
          -84.440704,33.635811,0
          -84.440948,33.635807,0
          -84.441162,33.635807,0
          -84.441368,33.635811,0
          -84.441589,33.635807,0
          -84.441818,33.635811,0
          -84.442039,33.635811,0
          -84.442291,33.635807,0
          -84.442566,33.635807,0
          -84.442924,33.635811,0
          -84.443306,33.635818,0
          -84.44368,33.635807,0
          -84.444046,33.635811,0
          -84.444283,33.635799,0
          -84.444519,33.635773,0
          -84.444756,33.635651,0
          -84.444878,33.63541,0
          -84.44487,33.635155,0
          -84.444839,33.634953,0
          -84.444771,33.634747,0
          -84.444519,33.634666,0
          -84.444298,33.634678,0
          -84.444054,33.634701,0
          -84.443802,33.634701,0
          -84.443596,33.634712,0
          -84.443367,33.634712,0
          -84.44268,33.634712,0
          -84.442459,33.634712,0
          -84.442047,33.634701,0
          -84.441589,33.634701,0
          -84.440674,33.634701,0
          -84.440262,33.634712,0
          -84.439575,33.634712,0
          -84.43576,33.634689,266.7
          -84.431076,33.634689,266.7
          -84.424271,33.634689,220.98
          -84.416138,33.634735,304.8
          -84.410706,33.634689,365.76
          -84.402519,33.634781,464.82
          -84.394287,33.63483,571.5
          -84.385597,33.634689,647.7
          -84.376404,33.634506,708.66
          -84.367317,33.634323,754.38
          -84.357834,33.634178,777.24
          -84.347649,33.634132,815.34
          -84.338776,33.634087,853.44
          -84.32943,33.634003,906.78
          -84.319565,33.633911,967.74
          -84.307846,33.633728,1051.56
          -84.299332,33.633591,1135.38
          -84.287048,33.63348,1234.44
          -84.275169,33.633408,1341.12
          -84.265755,33.633362,1417.32
          -84.253296,33.633389,1501.14
          -84.240761,33.633434,1577.34
          -84.220108,33.633526,1744.98
          -84.197678,33.633572,1935.48
          -84.177193,33.633682,2080.26
          -84.153595,33.633774,2270.76
          -84.132156,33.633713,2453.64
          -84.111671,33.633713,2606.04
          -84.087128,33.634457,2735.58
          -84.065666,33.635715,2865.12
          -84.043564,33.637024,3040.38
          -84.021477,33.638306,3177.54
          -83.998604,33.639393,3230.88
          -83.974335,33.640411,3261.36
          -83.94619,33.641579,3360.42
          -83.921196,33.6427,3406.14
          -83.890167,33.644325,3520.44
          -83.862015,33.64563,3680.46
          -83.791008,33.64912,3992.88
          -83.719421,33.65266,4297.68
          -83.644859,33.657211,4671.06
          -83.570984,33.668701,5074.92
          -83.49839,33.682434,5524.5
          -83.43029,33.695301,5852.16
          -83.355011,33.709167,6172.2
          -83.278946,33.723186,6400.8
          -83.199234,33.73785,6682.74
          -83.141846,33.752979,6858
          -83.136909,33.754761,6873.24
          -83.13237,33.756454,6888.48
          -83.127426,33.758381,6903.72
          -83.122559,33.760334,6918.96
          -83.118729,33.761871,6934.2
          -83.114151,33.76387,6949.44
          -83.109497,33.76593,6964.68
          -83.103958,33.768528,6987.54
          -83.098396,33.77124,7002.78
          -83.094292,33.773277,7018.02
          -83.089081,33.775974,7033.26
          -83.084839,33.778152,7048.5
          -83.080521,33.780396,7063.74
          -83.013931,33.814728,7307.58
          -82.945923,33.848457,7566.66
          -82.879372,33.881184,7818.12
          -82.805389,33.917774,8046.72
          -82.73317,33.953434,8282.94
          -82.658218,33.990372,8519.16
          -82.588318,34.024796,8709.66
          -82.513901,34.061386,8915.4
          -82.438316,34.098583,9014.46
          -82.363159,34.1353,9189.72
          -82.284103,34.173859,9380.22
          -82.204529,34.212708,9570.72
          -82.129379,34.24918,9715.5
          -82.048363,34.288467,9944.1
          -81.966995,34.327854,10119.36
          -81.884583,34.367661,10264.14
          -81.803528,34.406708,10355.58
          -81.722717,34.445538,10462.26
          -81.640022,34.485123,10645.14
          -81.557007,34.52491,10652.76
          -81.476669,34.563221,10652.76
          -81.394402,34.60231,10652.76
          -81.311478,34.641663,10652.76
          -81.231651,34.679508,10652.76
          -81.148682,34.718845,10652.76
          -81.068054,34.756973,10652.76
          -80.986633,34.795284,10652.76
          -80.906006,34.83313,10652.76
          -80.822159,34.872345,10652.76
          -80.740128,34.910641,10652.76
          -80.658203,34.948746,10652.76
          -80.575958,34.986984,10652.76
          -80.495872,35.024139,10652.76
          -80.412369,35.062679,10652.76
          -80.328995,35.101227,10652.76
          -80.245262,35.139771,10652.76
          -80.162529,35.177811,10652.76
          -80.080299,35.215485,10652.76
          -79.995461,35.254257,10652.76
          -79.910515,35.293022,10652.76
          -79.831581,35.328918,10652.76
          -79.764404,35.354279,10652.76
          -79.75811,35.356007,10652.76
          -79.752441,35.357437,10652.76
          -79.745064,35.359177,10652.76
          -79.73877,35.36055,10652.76
          -79.732361,35.361877,10652.76
          -79.726181,35.363022,10652.76
          -79.720001,35.364075,10652.76
          -79.713478,35.365036,10652.76
          -79.706802,35.365967,10652.76
          -79.70108,35.366665,10652.76
          -79.69278,35.36755,10652.76
          -79.686241,35.368149,10652.76
          -79.679779,35.368652,10660.38
          -79.673767,35.369064,10652.76
          -79.66584,35.369553,10652.76
          -79.659821,35.369877,10652.76
          -79.653336,35.370209,10652.76
          -79.6455,35.370575,10652.76
          -79.639076,35.370857,10652.76
          -79.632454,35.371124,10652.76
          -79.530029,35.375427,10652.76
          -79.432144,35.379978,10652.76
          -79.32959,35.384823,10652.76
          -79.228546,35.390549,10652.76
          -79.129601,35.405365,10652.76
          -79.037704,35.430267,10652.76
          -78.950157,35.465927,10652.76
          -78.870621,35.506393,10660.38
          -78.789215,35.547661,10652.76
          -78.708344,35.588745,10652.76
          -78.626694,35.628941,10652.76
          -78.54097,35.667801,10652.76
          -78.45565,35.705147,10652.76
          -78.371262,35.741913,10645.14
          -78.28624,35.778885,10645.14
          -78.201035,35.815895,10637.52
          -78.118347,35.851646,10645.14
          -78.034515,35.887848,10652.76
          -77.951546,35.923645,10652.76
          -77.86998,35.958717,10652.76
          -77.786064,35.994598,10652.76
          -77.701744,36.03064,10652.76
          -77.624527,36.063446,10645.14
          -77.543259,36.097954,10652.76
          -77.461395,36.13266,10652.76
          -77.380219,36.166992,10652.76
          -77.297859,36.201782,10652.76
          -77.215187,36.236588,10652.76
          -77.132492,36.26889,10652.76
          -77.046829,36.296825,10652.76
          -76.955666,36.321499,10652.76
          -76.865501,36.344193,10652.76
          -76.776184,36.367172,10652.76
          -76.686111,36.390015,10652.76
          -76.595337,36.412556,10652.76
          -76.504211,36.434875,10660.38
          -76.413918,36.456848,10660.38
          -76.321564,36.479095,10652.76
          -76.228867,36.501343,10652.76
          -76.135368,36.523682,10652.76
          -76.044327,36.545368,10652.76
          -75.951294,36.568085,10660.38
          -75.859848,36.590561,10652.76
          -75.773232,36.611752,10652.76
          -75.680298,36.634323,10652.76
          -75.586967,36.656891,10652.76
          -75.499077,36.678085,10652.76
          -75.403351,36.700928,10652.76
          -75.308708,36.723526,10652.76
          -75.214973,36.745823,10652.76
          -75.124222,36.767349,10652.76
          -75.035744,36.788231,10652.76
          -74.939499,36.810902,10652.76
          -74.844826,36.833107,10652.76
          -74.751213,36.854942,10652.76
          -74.655502,36.877193,10652.76
          -74.565201,36.898087,10652.76
          -74.4673,36.918999,10652.76
          -74.368851,36.928802,10652.76
          -74.267456,36.930264,10645.14
          -74.159927,36.931847,10645.14
          -74.061348,36.933197,10652.76
          -73.959541,36.934593,10652.76
          -73.85273,36.935944,10652.76
          -73.749062,36.937088,10652.76
          -73.645653,36.937805,10652.76
          -73.546661,36.937805,10652.76
          -73.441277,36.937759,10652.76
          -73.338531,36.937912,10652.76
          -73.236176,36.938129,10652.76
          -73.133003,36.938316,10652.76
          -73.029404,36.938457,10652.76
          -72.960442,36.941341,10652.76
          -72.952957,36.942673,10652.76
          -72.946953,36.943901,10652.76
          -72.941101,36.945297,10652.76
          -72.934052,36.947208,10652.76
          -72.929459,36.948605,10652.76
          -72.922112,36.951118,10652.76
          -72.916557,36.953213,10652.76
          -72.911758,36.955124,10652.76
          -72.906708,36.957355,10652.76
          -72.901711,36.959656,10652.76
          -72.896797,36.962009,10652.76
          -72.89196,36.964432,10652.76
          -72.887337,36.966797,10652.76
          -72.881989,36.969551,10652.76
          -72.878044,36.971603,10645.14
          -72.872253,36.97467,10645.14
          -72.867241,36.977325,10645.14
          -72.861916,36.980118,10645.14
          -72.857002,36.982727,10645.14
          -72.852325,36.985199,10645.14
          -72.777199,37.022343,10652.76
          -72.707756,37.059677,10652.76
          -72.635986,37.102459,10660.38
          -72.565109,37.144089,10652.76
          -72.496323,37.184143,10652.76
          -72.425636,37.225079,10652.76
          -72.356659,37.264801,10652.76
          -72.28688,37.304901,10645.14
          -72.218216,37.344498,10652.76
          -72.144295,37.386986,10652.76
          -72.072708,37.428085,10652.76
          -72.001587,37.468685,10652.76
          -71.932281,37.50824,10652.76
          -71.861221,37.548752,10652.76
          -71.790688,37.588806,10652.76
          -71.714394,37.632084,10652.76
          -71.642021,37.67305,10652.76
          -71.571487,37.71286,10652.76
          -71.498367,37.754005,10652.76
          -71.425041,37.79525,10652.76
          -71.351471,37.836456,10652.76
          -71.279358,37.876762,10652.76
          -71.202156,37.919823,10652.76
          -71.12764,37.9613,10652.76
          -71.054916,38.001801,10652.76
          -70.978424,38.044212,10652.76
          -70.903893,38.085434,10652.76
          -70.829094,38.126656,10645.14
          -70.754814,38.167557,10652.76
          -70.68428,38.206329,10652.76
          -70.612,38.246063,10652.76
          -70.538376,38.286236,10652.76
          -70.463562,38.327061,10652.76
          -70.393143,38.365402,10652.76
          -70.317291,38.406601,10652.76
          -70.24408,38.446377,10652.76
          -70.16803,38.487389,10652.76
          -70.092041,38.5284,10652.76
          -70.017838,38.568375,10652.76
          -69.943504,38.608383,10652.76
          -69.867859,38.64888,10652.76
          -69.789917,38.690495,10652.76
          -69.719788,38.727879,10645.14
          -69.64209,38.769169,10652.76
          -69.57019,38.807343,10652.76
          -69.49646,38.846493,10652.76
          -69.420227,38.886715,10652.76
          -69.346123,38.925659,10652.76
          -69.272621,38.964386,10652.76
          -69.199478,39.002838,10652.76
          -69.119873,39.044479,10652.76
          -69.042664,39.084885,10652.76
          -68.964417,39.125618,10652.76
          -68.892456,39.16301,10645.14
          -68.817078,39.202011,10652.76
          -68.741814,39.241058,10652.76
          -68.665443,39.280518,10652.76
          -68.589783,39.319416,10660.38
          -68.514465,39.358055,10652.76
          -68.437927,39.397251,10652.76
          -68.363022,39.435425,10645.14
          -68.288147,39.473648,10652.76
          -68.211853,39.512608,10652.76
          -68.135658,39.551331,10652.76
          -68.061096,39.589046,10652.76
          -67.981018,39.629501,10652.76
          -67.906128,39.66716,10652.76
          -67.82505,39.707886,10652.76
          -67.75,39.745556,10652.76
          -67.669983,39.785545,10652.76
          -67.594223,39.82338,10652.76
          -67.511841,39.864311,10660.38
          -67.432068,39.904018,10660.38
          -67.348877,39.94519,10652.76
          -67.267639,39.985245,10652.76
          -67.183411,40.026718,10652.76
          -67.09919,40.068161,10645.14
          -67.015198,40.104813,10652.76
          -67.009857,40.106522,10652.76
          -67.001953,40.108887,10652.76
          -66.995628,40.11071,10645.14
          -66.988762,40.112576,10652.76
          -66.981567,40.11438,10652.76
          -66.976868,40.115524,10652.76
          -66.968506,40.117401,10652.76
          -66.962982,40.11858,10652.76
          -66.954926,40.120113,10652.76
          -66.948853,40.121201,10652.76
          -66.943726,40.12207,10652.76
          -66.93573,40.12326,10652.76
          -66.927979,40.124313,10652.76
          -66.922119,40.125,10652.76
          -66.915833,40.125732,10652.76
          -66.907921,40.126541,10652.76
          -66.900513,40.127335,10652.76
          -66.89238,40.128262,10652.76
          -66.885864,40.129074,10652.76
          -66.878235,40.130173,10652.76
          -66.871826,40.131134,10652.76
          -66.865601,40.132187,10652.76
          -66.859619,40.133194,10652.76
          -66.763245,40.151093,10652.76
          -66.670288,40.167984,10652.76
          -66.575317,40.18396,10652.76
          -66.476463,40.199581,10652.76
          -66.382263,40.213943,10652.76
          -66.285759,40.228397,10652.76
          -66.227905,40.236923,10652.76
          -66.049057,40.263451,10660.38
          -65.954529,40.277344,10652.76
          -65.857605,40.291626,10652.76
          -65.760925,40.305771,10652.76
          -65.651001,40.321793,10652.76
          -65.553238,40.336071,10652.76
          -65.453735,40.350494,10652.76
          -65.356445,40.364502,10652.76
          -65.261536,40.378014,10652.76
          -65.165405,40.391655,10652.76
          -65.094788,40.401627,10652.76
          -64.915833,40.42662,10652.76
          -60.660839,40.935574,10668
          -58.873158,41.275978,10668
          -53.600826,42.394283,10652.76
          -50.615356,42.905365,10652.76
          -47.668465,43.807297,10652.76
          -41.105949,45.725281,10652.76
          -33.652885,47.387386,10660.38
          -21.973713,48.874191,10660.38
          -19.991169,49.000568,10972.8
          -13.991667,49.116428,10957.56
          -13.877251,49.146732,10957.56
          -13.759581,49.177876,10957.56
          -13.740798,49.182816,10957.56
          -13.518184,49.241638,10957.56
          -13.394503,49.274239,10957.56
          -13.277822,49.304901,10957.56
          -13.15479,49.337128,10957.56
          -13.032743,49.36647,10957.56
          -12.86999,49.404007,10957.56
          -12.742285,49.433403,10957.56
          -12.615485,49.462646,10957.56
          -12.491239,49.491302,10957.56
          -12.367859,49.51973,10957.56
          -12.240551,49.548851,10957.56
          -12.118859,49.576492,10957.56
          -11.996328,49.604248,10957.56
          -11.873474,49.631855,10957.56
          -11.754851,49.658295,10957.56
          -11.624836,49.68718,10957.56
          -11.500162,49.714626,10957.56
          -11.371066,49.742844,10957.56
          -11.247253,49.76976,10957.56
          -11.116679,49.797955,10957.56
          -10.989371,49.825325,10957.56
          -10.85813,49.853302,10957.56
          -10.729782,49.880535,10957.56
          -10.607745,49.906281,10957.56
          -10.476982,49.933685,10957.56
          -10.349715,49.960094,10957.56
          -10.219598,49.986969,10957.56
          -10.088485,50.013931,10957.56
          -9.959032,50.040302,10957.56
          -9.828607,50.0667,10957.56
          -9.701578,50.092346,10957.56
          -9.573323,50.118046,10957.56
          -9.445496,50.143478,10957.56
          -9.315738,50.169113,10957.56
          -9.187244,50.194244,10957.56
          -9.059673,50.219055,10957.56
          -8.931365,50.243832,10957.56
          -8.801639,50.268768,10957.56
          -8.671176,50.295959,10965.18
          -8.542593,50.324615,10957.56
          -8.413793,50.353317,10957.56
          -8.285571,50.381287,10957.56
          -8.158759,50.408627,10957.56
          -8.027665,50.436462,10957.56
          -7.904886,50.462254,10957.56
          -7.771936,50.489998,10957.56
          -7.643738,50.516674,10957.56
          -7.523105,50.541504,10957.56
          -7.394467,50.567879,10957.56
          -7.264637,50.594376,10957.56
          -7.134319,50.620834,10957.56
          -7.003351,50.647247,10957.56
          -6.869812,50.674065,10957.56
          -6.740875,50.699764,10949.94
          -6.611252,50.725414,10957.56
          -6.484146,50.750412,10957.56
          -6.355286,50.775597,10957.56
          -6.218338,50.802132,10957.56
          -6.094295,50.825958,10957.56
          -5.966263,50.850452,10949.94
          -5.837479,50.874893,10957.56
          -5.714569,50.898075,10957.56
          -5.58588,50.922272,10957.56
          -5.462036,50.945328,10957.56
          -5.335644,50.968689,10957.56
          -5.210266,50.991714,10957.56
          -5.086288,51.014317,10957.56
          -4.963989,51.036522,10957.56
          -4.840317,51.058727,10957.56
          -4.713516,51.081306,10957.56
          -4.590378,51.103092,10965.18
          -4.467392,51.124786,10957.56
          -4.344647,51.146255,10957.56
          -4.220754,51.16777,10957.56
          -4.102355,51.188278,10957.56
          -3.983002,51.208717,10957.56
          -3.861249,51.229477,10957.56
          -3.739548,51.250011,10957.56
          -3.61824,51.270355,10957.56
          -3.494543,51.291,10957.56
          -3.372955,51.311089,10957.56
          -3.254166,51.330593,10957.56
          -3.130951,51.35075,10957.56
          -3.010625,51.370239,10957.56
          -2.890072,51.389603,10957.56
          -2.768021,51.409081,10957.56
          -2.649709,51.42778,10957.56
          -2.528229,51.44688,10957.56
          -2.407074,51.465733,10957.56
          -2.286864,51.484406,10957.56
          -2.167969,51.502651,10965.18
          -2.039108,51.522434,10957.56
          -1.919341,51.540527,10957.56
          -1.796487,51.558975,10957.56
          -1.674673,51.577103,10957.56
          -1.556931,51.594543,10957.56
          -1.435794,51.61235,10957.56
          -1.317172,51.629654,10957.56
          -1.196823,51.647007,10957.56
          -1.078071,51.664078,10957.56
          -0.956107,51.681381,10957.56
          -0.834045,51.698635,10957.56
          -0.714264,51.715393,10957.56
          -0.593113,51.732193,10957.56
          -0.476495,51.748306,10957.56
          -0.356239,51.76474,10957.56
          -0.235241,51.781174,10965.18
          -0.11528,51.797325,10957.56
          0.005716,51.813492,10957.56
          0.125885,51.829399,10957.56
          0.247935,51.845352,10949.94
          0.369527,51.861145,10957.56
          0.492455,51.878265,10957.56
          0.605087,51.897629,10957.56
          0.721174,51.919617,10949.94
          0.837173,51.942444,10957.56
          0.953598,51.965698,10957.56
          1.068263,51.988609,10896.6
          1.184311,52.011749,10706.1
          1.29715,52.034088,10515.6
          1.412811,52.056931,10309.86
          1.528702,52.079498,10172.7
          1.641279,52.101219,9860.28
          1.752014,52.122711,9509.76
          1.864319,52.144318,9151.62
          1.972752,52.165276,8793.48
          2.079391,52.185608,8427.72
          2.186044,52.205727,8077.2
          2.290179,52.22514,7749.54
          2.392979,52.244366,7437.12
          2.495346,52.263382,7109.46
          2.59758,52.282196,6842.76
          2.696838,52.300735,6576.06
          2.797747,52.31913,6347.46
          2.901535,52.338043,6088.38
          2.998047,52.355209,5859.78
          3.093338,52.372375,5631.18
          3.188629,52.389542,5402.58
          3.279572,52.405792,5189.22
          3.370972,52.422043,4968.24
          3.462982,52.438065,4754.88
          3.552665,52.453712,4533.9
          3.644409,52.469879,4312.92
          3.731035,52.484344,4076.7
          3.817291,52.497025,3810
          3.902435,52.507874,3550.92
          3.935852,52.511948,3451.86
          3.968658,52.515976,3352.8
          4.002762,52.520187,3246.12
          4.034493,52.524143,3147.06
          4.07074,52.528702,3032.76
          4.100647,52.53241,2941.32
          4.129791,52.536118,2849.88
          4.158936,52.53978,2758.44
          4.186707,52.543167,2674.62
          4.215533,52.546768,2598.42
          4.247314,52.550819,2484.12
          4.273834,52.554062,2400.3
          4.305649,52.557953,2308.86
          4.332504,52.561157,2217.42
          4.359846,52.564411,2118.36
          4.385114,52.567532,2049.78
          4.411168,52.570835,1973.58
          4.437221,52.574188,1897.38
          4.464951,52.577545,1805.94
          4.4887,52.580475,1706.88
          4.511614,52.582661,1638.3
          4.535627,52.583591,1577.34
          4.539472,52.583637,1569.72
          4.543632,52.583687,1562.1
          4.547398,52.583687,1546.86
          4.551322,52.583687,1539.24
          4.555435,52.583679,1531.62
          4.558716,52.583633,1524
          4.562683,52.583588,1508.76
          4.565964,52.583588,1501.14
          4.570618,52.583542,1485.9
          4.574432,52.583496,1478.28
          4.578094,52.58345,1463.04
          4.588989,52.583359,1440.18
          4.604291,52.583313,1402.08
          4.619827,52.58345,1348.74
          4.631119,52.583221,1318.26
          4.634975,52.582939,1310.64
          4.639291,52.582474,1295.4
          4.642665,52.582008,1287.78
          4.645961,52.581356,1280.16
          4.649335,52.580612,1272.54
          4.652557,52.579742,1264.92
          4.656555,52.578518,1249.68
          4.659616,52.5774,1234.44
          4.662247,52.576263,1226.82
          4.665527,52.574753,1219.2
          4.66835,52.573288,1211.58
          4.670759,52.571907,1196.34
          4.67327,52.570419,1188.72
          4.675598,52.569122,1188.72
          4.677811,52.567795,1181.1
          4.680634,52.566101,1173.48
          4.683001,52.564693,1165.86
          4.685364,52.563263,1158.24
          4.687788,52.561806,1143
          4.691083,52.559849,1135.38
          4.693359,52.558502,1120.14
          4.695587,52.557129,1112.52
          4.698486,52.555481,1104.9
          4.70047,52.554291,1097.28
          4.703217,52.552643,1089.66
          4.710781,52.548214,1059.18
          4.715096,52.545418,1036.32
          4.717484,52.543625,1021.08
          4.719334,52.542114,1013.46
          4.721296,52.540344,1005.84
          4.722748,52.538727,998.22
          4.724278,52.536762,990.6
          4.725377,52.535038,990.6
          4.726318,52.533268,990.6
          4.72702,52.531494,990.6
          4.727496,52.529545,990.6
          4.727888,52.527729,982.98
          4.728088,52.525497,967.74
          4.728165,52.523849,967.74
          4.728202,52.521679,960.12
          4.728165,52.52005,952.5
          4.728045,52.518234,937.26
          4.727859,52.515884,922.02
          4.727554,52.514191,906.78
          4.727249,52.512726,899.16
          4.726868,52.510849,883.92
          4.72641,52.508743,868.68
          4.726028,52.507004,861.06
          4.72569,52.505199,845.82
          4.725298,52.503288,838.2
          4.724884,52.501419,822.96
          4.724592,52.499798,815.34
          4.724278,52.497749,800.1
          4.724042,52.496075,792.48
          4.723816,52.494232,777.24
          4.72365,52.492397,762
          4.723415,52.490673,746.76
          4.723258,52.488811,739.14
          4.722748,52.483292,708.66
          4.722137,52.476471,670.56
          4.721767,52.47126,640.08
          4.721296,52.464836,609.6
          4.720904,52.460228,579.12
          4.72023,52.453674,556.26
          4.719727,52.449196,548.64
          4.719238,52.44342,510.54
          4.718704,52.438248,472.44
          4.718246,52.433121,419.1
          4.717922,52.429131,381
          4.717484,52.425201,350.52
          4.717059,52.420475,327.66
          4.716721,52.41568,312.42
          4.716415,52.412018,297.18
          4.715958,52.40712,266.7
          4.715576,52.403183,236.22
          4.715096,52.398361,205.74
          4.714813,52.394943,190.5
          4.714469,52.39003,167.64
          4.713998,52.385139,137.16
          4.713605,52.381508,114.3
          4.713058,52.376266,83.82
          4.712585,52.37085,45.72
          4.712296,52.366974,22.86
          4.711879,52.361725,0
          4.71138,52.356537,0
          4.710999,52.352737,0
          4.710617,52.34816,0
          4.710369,52.345581,0
          4.71014,52.343102,0
          4.709918,52.340729,0
          4.709759,52.338947,0
          4.709603,52.337051,0
          4.709486,52.335701,0
          4.709427,52.334793,0
          4.709454,52.334461,0
          4.70953,52.334198,0
          4.709682,52.333942,0
          4.709949,52.333683,0
          4.710312,52.333431,0
          4.710617,52.333271,0
          4.710903,52.333111,0
          4.711246,52.332916,0
          4.711526,52.332767,0
          4.711742,52.332664,0
          4.712048,52.332493,0
          4.712353,52.332333,0
          4.71262,52.332184,0
          4.713688,52.331612,0
          4.714718,52.331051,0
          4.715862,52.330433,0
          4.716882,52.329895,0
          4.718059,52.329254,0
          4.718863,52.328823,0
          4.719452,52.32851,0
          4.719805,52.328403,0
          4.720039,52.328384,0
          4.720364,52.328373,0
          4.720669,52.328384,0
          4.720923,52.328403,0
          4.721127,52.328407,0
          4.721375,52.328419,0
          4.721642,52.32843,0
          4.721865,52.328426,0
          4.7221,52.328392,0
          4.722404,52.328293,0
          4.72261,52.328194,0
          4.722862,52.328075,0
          4.723179,52.327892,0
          4.723454,52.32774,0
          4.723759,52.327583,0
          4.724082,52.327404,0
          4.724827,52.327011,0
          4.725571,52.326565,0
          4.725848,52.326366,0
          4.726181,52.326145,0
          4.726429,52.325958,0
          4.726632,52.325809,0
          4.726963,52.325569,0
          4.727378,52.325287,0
          4.727726,52.325043,0
          4.728005,52.324844,0
          4.728359,52.3246,0
          4.72868,52.324356,0
          4.729023,52.324116,0
          4.729309,52.323921,0
          4.729693,52.323643,0
          4.730778,52.322868,0
          4.731731,52.322205,0
          4.731979,52.322021,0
          4.732189,52.321873,0
          4.73244,52.32169,0
          4.732734,52.32148,0
          4.732969,52.321316,0
          4.733257,52.321106,0
          4.733558,52.320911,0
          4.733813,52.320793,0
          4.734077,52.320705,0
          4.734421,52.320625,0
          4.734735,52.320595,0
          4.734974,52.32058,0
          4.735284,52.32056,0
          4.735539,52.32056,0
          4.73587,52.320545,0
          4.736324,52.320526,0
          4.736557,52.320522,0
          4.7369,52.320511,0
          4.737186,52.320499,0
          4.737568,52.320488,0
          4.737854,52.320477,0
          4.738121,52.320477,0
          4.739532,52.320431,0
          4.740486,52.320396,0
          4.740925,52.320374,0
          4.741248,52.320305,0
          4.741503,52.320198,0
          4.741719,52.320038,0
          4.741879,52.31979,0
          4.741879,52.319572,0
          4.741876,52.319279,0
          4.74184,52.319023,0
          4.741817,52.31879,0
          4.741802,52.318531,0
          4.741764,52.318256,0
          4.741758,52.318047,0
          4.741699,52.317501,0
          4.741641,52.31673,0
          4.741554,52.316013,0
          4.741523,52.315498,0
          4.741592,52.315201,0
          4.741879,52.314938,0
          4.742092,52.314835,0
          4.742366,52.314777,0
          4.74268,52.314754,0
          4.742974,52.314754,0
          4.743252,52.314754,0
          4.743504,52.314766,0
          4.743896,52.314777,0
          4.744167,52.314789,0
          4.744511,52.3148,0
          4.744779,52.314812,0
          4.745121,52.314823,0
          4.745505,52.314835,0
          4.746898,52.31488,0
          4.748173,52.314915,0
          4.749851,52.314972,0
          4.7509,52.31501,0
          4.752083,52.315052,0
          4.753342,52.315098,0
          4.754941,52.315159,0
          4.756241,52.315189,0
          4.757728,52.315243,0
          4.758739,52.315281,0
          4.760317,52.315334,0
          4.761691,52.31538,0
          4.762974,52.31543,0
          4.764496,52.315487,0
          4.766105,52.315533,0
          4.767556,52.31559,0
          4.768929,52.315639,0
          4.770336,52.315681,0
          4.771824,52.315727,0
          4.773045,52.315773,0
          4.773808,52.315762,0
          4.774017,52.315739,0
          4.774364,52.315685,0
          4.774666,52.315601,0
          4.774933,52.315498,0
          4.775345,52.315277,0
          4.775677,52.315075,0
          4.775914,52.314915,0
          4.776149,52.314716,0
          4.776365,52.314484,0
          4.776478,52.314262,0
          4.776561,52.313961,0
          4.776554,52.313644,0
          4.776535,52.313393,0
          4.776497,52.313175,0
          4.776306,52.312962,0
          4.775973,52.312843,0
          4.775753,52.312832,0
          4.775505,52.31282,0
          4.775266,52.312832,0
          4.775012,52.312855,0
          4.774776,52.312866,0
          4.774532,52.312889,0
          4.774325,52.312904,0
          4.773998,52.312923,0
          4.773736,52.312939,0
          4.773422,52.31295,0
          4.773187,52.31295,0
          4.772949,52.312958,0
          4.772637,52.312973,0
          4.772363,52.312984,0
          4.771633,52.313004,0
          4.771382,52.312996,0
          4.771166,52.312962,0
          4.770911,52.312855,0
          4.77066,52.312672,0
          4.770421,52.312519,0
          4.770205,52.312519,0
          4.76995,52.312588,0
          4.769726,52.312672,0
          4.769478,52.312775,0
          4.769244,52.312855,0
        </coordinates>
      </LineString>
    </Placemark>
  </Document>
</kml>