<?xml version='1.0' encoding='utf-8'?>
<kml xmlns="http://www.opengis.net/kml/2.2">
  <Document>
    <Placemark>
      <name>LA8004-2026-06-18</name>
      <TimeStamp>
        <when>2023-06-18</when>
      </TimeStamp>
      <LineString>
        <altitudeMode>absolute</altitudeMode>
        <coordinates>
          -46.473503,-23.423468,0
          -46.473267,-23.423618,0
          -46.473057,-23.42362,0
          -46.472881,-23.423824,0
          -46.472805,-23.424086,0
          -46.47274,-23.424295,0
          -46.472668,-23.4245,0
          -46.472588,-23.424772,0
          -46.472485,-23.425074,0
          -46.472359,-23.425482,0
          -46.472271,-23.42576,0
          -46.472206,-23.42597,0
          -46.472042,-23.426495,0
          -46.471931,-23.426811,0
          -46.471775,-23.427065,0
          -46.471569,-23.42728,0
          -46.471455,-23.427589,0
          -46.471394,-23.427809,0
          -46.471268,-23.428196,0
          -46.471195,-23.428459,0
          -46.471119,-23.428665,0
          -46.471058,-23.428905,0
          -46.471119,-23.429146,0
          -46.471382,-23.429317,0
          -46.47163,-23.429386,0
          -46.471863,-23.429451,0
          -46.472168,-23.429531,0
          -46.472538,-23.429625,0
          -46.472931,-23.429729,0
          -46.473366,-23.429844,0
          -46.473835,-23.429974,0
          -46.474216,-23.430079,0
          -46.474613,-23.430187,0
          -46.47504,-23.4303,0
          -46.47554,-23.430439,0
          -46.475925,-23.430542,0
          -46.476326,-23.430649,0
          -46.476788,-23.430771,0
          -46.47723,-23.430893,0
          -46.477699,-23.431021,0
          -46.478149,-23.431149,0
          -46.478539,-23.431253,0
          -46.478958,-23.431358,0
          -46.47934,-23.431463,0
          -46.479797,-23.431583,0
          -46.480141,-23.431684,0
          -46.480518,-23.431778,0
          -46.480854,-23.431871,0
          -46.481133,-23.431953,0
          -46.481464,-23.432034,0
          -46.481792,-23.432127,0
          -46.482231,-23.432247,0
          -46.482494,-23.432316,0
          -46.482876,-23.432419,0
          -46.483093,-23.432499,0
          -46.483318,-23.432671,0
          -46.483467,-23.432888,0
          -46.48354,-23.433117,0
          -46.48354,-23.433346,0
          -46.483479,-23.433563,0
          -46.48341,-23.433767,0
          -46.483318,-23.434036,0
          -46.483253,-23.434238,0
          -46.483051,-23.434233,0
          -46.482811,-23.43413,0
          -46.481831,-23.433861,0
          -46.481514,-23.433779,0
          -46.481205,-23.433689,0
          -46.480968,-23.433632,0
          -46.480606,-23.433529,0
          -46.480282,-23.433443,0
          -46.479919,-23.433346,0
          -46.479313,-23.433186,0
          -46.478909,-23.433071,0
          -46.478474,-23.432953,0
          -46.477859,-23.432785,0
          -46.477394,-23.432663,0
          -46.472332,-23.431286,0
          -46.46286,-23.428764,662.94
          -46.456806,-23.427134,739.14
          -46.448261,-23.424761,868.68
          -46.441257,-23.422623,998.22
          -46.43565,-23.420897,1051.56
          -46.427975,-23.418457,1120.14
          -46.423492,-23.416986,1143
          -46.415455,-23.414518,1173.48
          -46.406452,-23.411819,1181.1
          -46.398418,-23.409538,1219.2
          -46.388672,-23.406876,1257.3
          -46.380108,-23.404604,1295.4
          -46.373699,-23.402927,1325.88
          -46.362865,-23.400972,1371.6
          -46.35976,-23.400879,1379.22
          -46.355015,-23.401337,1394.46
          -46.351727,-23.40209,1417.32
          -46.346973,-23.403397,1447.8
          -46.343231,-23.404604,1463.04
          -46.342724,-23.404743,1463.04
          -46.337986,-23.406372,1493.52
          -46.333874,-23.407768,1516.38
          -46.329994,-23.409164,1539.24
          -46.326092,-23.410563,1562.1
          -46.322887,-23.411726,1600.2
          -46.318958,-23.413147,1638.3
          -46.300049,-23.419966,1805.94
          -46.284943,-23.425226,1950.72
          -46.266834,-23.433605,2026.92
          -46.263325,-23.436352,2049.78
          -46.261032,-23.438416,2072.64
          -46.258335,-23.441208,2095.5
          -46.256386,-23.443542,2118.36
          -46.25309,-23.448303,2164.08
          -46.251194,-23.451645,2202.18
          -46.249237,-23.456137,2240.28
          -46.247864,-23.460466,2278.38
          -46.247047,-23.46492,2324.1
          -46.246693,-23.468891,2354.58
          -46.246899,-23.473967,2392.68
          -46.247398,-23.477371,2423.16
          -46.248844,-23.482178,2461.26
          -46.251144,-23.487259,2514.6
          -46.253639,-23.491058,2552.7
          -46.255596,-23.49361,2590.8
          -46.258984,-23.497147,2628.9
          -46.26231,-23.499943,2659.38
          -46.266632,-23.502829,2697.48
          -46.27055,-23.504877,2735.58
          -46.275211,-23.506714,2766.06
          -46.278736,-23.507717,2796.54
          -46.283752,-23.508591,2827.02
          -46.287697,-23.509003,2865.12
          -46.292267,-23.508974,2887.98
          -46.296844,-23.508507,2918.46
          -46.30188,-23.507538,2956.56
          -46.306305,-23.506273,2994.66
          -46.31097,-23.504883,3040.38
          -46.315563,-23.503418,3086.1
          -46.31963,-23.502176,3131.82
          -46.323704,-23.5009,3162.3
          -46.328075,-23.499569,3185.16
          -46.332493,-23.498245,3208.02
          -46.336937,-23.496918,3223.26
          -46.354877,-23.491703,3276.6
          -46.375378,-23.485884,3337.56
          -46.394516,-23.480576,3398.52
          -46.416271,-23.474617,3459.48
          -46.442104,-23.467484,3596.64
          -46.464947,-23.461117,3726.18
          -46.52298,-23.444824,4061.46
          -46.578136,-23.429306,4419.6
          -46.630772,-23.414429,4671.06
          -46.68745,-23.398361,4907.28
          -46.746319,-23.381559,5196.84
          -46.800335,-23.366243,5448.3
          -46.859844,-23.349392,5676.9
          -46.920361,-23.332169,5905.5
          -46.979736,-23.315186,6187.44
          -47.041626,-23.297579,6438.9
          -47.102558,-23.280169,6667.5
          -47.162609,-23.263,6858
          -47.22488,-23.245148,7094.22
          -47.286354,-23.227478,7261.86
          -47.347412,-23.209921,7505.7
          -47.410583,-23.191673,7680.96
          -47.471416,-23.174124,7856.22
          -47.534996,-23.155884,7962.9
          -47.59557,-23.138325,8130.54
          -47.658386,-23.120075,8305.8
          -47.721115,-23.101685,8404.86
          -47.789028,-23.081818,8580.12
          -47.849323,-23.0644,8671.56
          -47.910629,-23.04657,8823.96
          -47.974949,-23.027756,8983.98
          -48.039467,-23.00885,9128.76
          -48.103535,-22.990055,9273.54
          -48.169659,-22.970783,9448.8
          -48.228283,-22.953461,9700.26
          -48.291981,-22.934658,9753.6
          -48.35429,-22.916502,9753.6
          -48.416847,-22.897888,9753.6
          -48.479321,-22.879211,9753.6
          -48.541142,-22.860718,9753.6
          -48.598923,-22.843506,9753.6
          -48.661602,-22.824888,9753.6
          -48.722218,-22.806885,9753.6
          -48.778889,-22.789927,9753.6
          -48.843166,-22.770676,9745.98
          -48.905895,-22.75194,9753.6
          -48.967083,-22.733599,9753.6
          -49.030483,-22.714508,9753.6
          -49.087914,-22.697159,9753.6
          -49.147236,-22.679319,9753.6
          -49.20863,-22.660885,9753.6
          -49.27058,-22.64217,9753.6
          -49.331112,-22.623871,9753.6
          -49.397926,-22.603638,9761.22
          -49.463245,-22.583725,9761.22
          -49.523975,-22.56522,9761.22
          -49.590046,-22.545156,9761.22
          -49.65226,-22.526276,9761.22
          -49.716679,-22.506546,9761.22
          -49.777554,-22.487549,9753.6
          -49.839077,-22.468369,9753.6
          -49.900562,-22.449724,9753.6
          -49.9646,-22.430311,9753.6
          -50.026646,-22.411285,9753.6
          -50.091263,-22.391281,9753.6
          -50.152687,-22.372375,9753.6
          -50.212063,-22.353928,9753.6
          -50.275879,-22.334042,9753.6
          -50.335159,-22.315659,9745.98
          -50.396778,-22.29652,9745.98
          -50.461273,-22.276409,9745.98
          -50.522129,-22.257477,9753.6
          -50.584499,-22.238022,9761.22
          -50.646515,-22.218637,9761.22
          -50.705502,-22.200211,9761.22
          -50.768993,-22.180326,9753.6
          -50.831692,-22.160706,9753.6
          -50.892868,-22.141525,9753.6
          -50.956188,-22.121658,9753.6
          -51.017151,-22.102304,9753.6
          -51.078033,-22.083031,9753.6
          -51.142654,-22.062561,9753.6
          -51.202343,-22.043695,9753.6
          -51.263123,-22.024422,9753.6
          -51.323181,-22.005341,9745.98
          -51.382557,-21.986435,9753.6
          -51.44508,-21.966568,9753.6
          -51.507771,-21.946587,9753.6
          -51.565578,-21.928116,9753.6
          -51.628452,-21.90802,9753.6
          -51.690674,-21.888117,9753.6
          -51.748852,-21.869293,9753.6
          -51.814423,-21.848175,9761.22
          -51.872799,-21.829239,9761.22
          -51.93161,-21.810375,9761.22
          -51.993496,-21.790466,9761.22
          -52.055721,-21.770599,9761.22
          -52.116241,-21.750881,9753.6
          -52.179764,-21.730179,9753.6
          -52.245178,-21.708845,9753.6
          -52.308556,-21.688156,9753.6
          -52.370926,-21.66774,9761.22
          -52.43042,-21.64842,9753.6
          -52.491726,-21.628555,9745.98
          -52.550304,-21.609558,9745.98
          -52.614525,-21.588455,9753.6
          -52.676846,-21.567993,9745.98
          -52.739155,-21.547401,9753.6
          -52.79887,-21.52771,9753.6
          -52.861633,-21.507273,9753.6
          -52.92474,-21.486649,9753.6
          -52.98518,-21.466681,9753.6
          -53.042805,-21.447407,9753.6
          -53.106079,-21.426319,9753.6
          -53.165943,-21.406349,9753.6
          -53.223118,-21.387314,9753.6
          -53.282116,-21.367662,9753.6
          -53.343567,-21.347214,9753.6
          -53.402607,-21.327536,9753.6
          -53.463467,-21.307251,9753.6
          -53.524292,-21.286926,9753.6
          -53.586964,-21.266006,9753.6
          -53.649586,-21.245041,9753.6
          -53.710159,-21.22467,9761.22
          -53.76614,-21.205856,9753.6
          -53.826447,-21.185505,9753.6
          -53.88699,-21.16507,9753.6
          -53.946415,-21.14502,9753.6
          -54.00869,-21.124008,9753.6
          -54.067616,-21.104095,9753.6
          -54.130238,-21.082947,9753.6
          -54.188065,-21.0634,9753.6
          -54.249939,-21.042435,9753.6
          -54.308117,-21.022665,9753.6
          -54.367069,-21.002609,9753.6
          -54.42532,-20.982769,9753.6
          -54.485744,-20.962101,9753.6
          -54.546139,-20.941406,9761.22
          -54.605247,-20.921181,9761.22
          -54.662575,-20.901489,9761.22
          -54.719704,-20.881891,9753.6
          -54.780334,-20.86116,9745.98
          -54.838356,-20.841248,9745.98
          -54.893837,-20.822071,9745.98
          -54.950817,-20.80238,9753.6
          -55.011143,-20.78157,9753.6
          -55.066872,-20.762299,9753.6
          -55.123302,-20.742746,9753.6
          -55.184864,-20.721359,9761.22
          -55.242004,-20.701538,9761.22
          -55.300468,-20.681213,9753.6
          -55.357803,-20.661209,9753.6
          -55.412979,-20.641983,9753.6
          -55.474041,-20.620743,9753.6
          -55.532211,-20.600372,9753.6
          -55.590084,-20.580093,9753.6
          -55.646152,-20.560541,9753.6
          -55.707375,-20.539219,9753.6
          -55.7682,-20.517759,9753.6
          -55.827564,-20.496826,9753.6
          -55.891129,-20.47467,9753.6
          -55.951122,-20.453657,9753.6
          -56.013344,-20.431637,9753.6
          -56.071278,-20.411087,9753.6
          -56.133995,-20.388857,9761.22
          -56.191624,-20.36842,9753.6
          -56.249252,-20.347891,9753.6
          -56.309738,-20.326309,9753.6
          -56.365505,-20.306505,9753.6
          -56.422642,-20.286118,9761.22
          -56.482609,-20.264793,9761.22
          -56.542805,-20.243362,9753.6
          -56.601013,-20.222479,9753.6
          -56.658455,-20.201843,9745.98
          -56.717716,-20.180674,9745.98
          -56.776295,-20.159773,9745.98
          -56.838318,-20.13752,9745.98
          -56.896847,-20.116386,9753.6
          -56.954723,-20.095623,9761.22
          -57.014336,-20.074219,9761.22
          -57.073875,-20.052841,9761.22
          -57.130966,-20.032242,9753.6
          -57.189381,-20.011131,9753.6
          -57.249855,-19.989258,9753.6
          -57.307335,-19.968475,9753.6
          -57.36874,-19.946182,9753.6
          -57.427284,-19.924917,9753.6
          -57.483658,-19.904434,9753.6
          -57.544689,-19.882229,9753.6
          -57.605762,-19.860023,9753.6
          -57.666794,-19.837738,9753.6
          -57.728611,-19.815193,9753.6
          -57.782093,-19.795641,9753.6
          -57.838161,-19.775116,9753.6
          -57.899948,-19.752487,9753.6
          -57.958725,-19.730841,9753.6
          -58.017475,-19.709198,9753.6
          -58.075878,-19.687733,9753.6
          -58.133617,-19.666489,9753.6
          -58.192581,-19.644766,9753.6
          -58.250809,-19.622839,9753.6
          -58.311886,-19.598259,9761.22
          -58.371784,-19.574112,9761.22
          -58.430687,-19.550674,9753.6
          -58.491703,-19.526459,9753.6
          -58.548447,-19.503983,9753.6
          -58.602985,-19.482285,9753.6
          -58.658997,-19.4599,9753.6
          -58.716782,-19.436815,9753.6
          -58.770382,-19.415405,9753.6
          -58.826099,-19.393066,9753.6
          -58.881874,-19.370665,9753.6
          -58.94165,-19.346786,9753.6
          -59.000675,-19.32309,9867.9
          -59.058056,-19.29986,9966.96
          -59.111103,-19.278534,10043.16
          -59.171764,-19.254192,10126.98
          -59.228394,-19.23138,10264.14
          -59.284924,-19.208525,10378.44
          -59.338207,-19.187063,10485.12
          -59.394287,-19.164347,10591.8
          -59.451977,-19.140976,10706.1
          -59.505898,-19.119144,10812.78
          -59.560379,-19.096939,10957.56
          -59.615112,-19.074734,10972.8
          -59.672192,-19.05155,10972.8
          -59.725163,-19.029968,10972.8
          -59.785831,-19.005295,10972.8
          -59.839382,-18.98349,10972.8
          -59.900993,-18.958328,10972.8
          -59.954391,-18.93652,10972.8
          -60.014042,-18.912094,10972.8
          -60.07399,-18.887592,10972.8
          -60.127323,-18.865852,10972.8
          -60.184055,-18.842577,10972.8
          -60.239067,-18.819901,10972.8
          -60.294785,-18.796967,10972.8
          -60.349499,-18.774424,10972.8
          -60.405029,-18.751568,10972.8
          -60.461246,-18.728394,10972.8
          -60.514362,-18.706558,10980.42
          -60.571011,-18.683167,10972.8
          -60.626904,-18.66,10972.8
          -60.682491,-18.637024,10972.8
          -60.736717,-18.614517,10972.8
          -60.793045,-18.591148,10972.8
          -60.849674,-18.56764,10972.8
          -60.90416,-18.544968,10972.8
          -60.959652,-18.521896,10972.8
          -61.015858,-18.498459,10972.8
          -61.069271,-18.476212,10972.8
          -61.124535,-18.45326,10972.8
          -61.179867,-18.430077,10972.8
          -61.233524,-18.407639,10972.8
          -61.288948,-18.38443,10980.42
          -61.344715,-18.361084,10972.8
          -61.400185,-18.337967,10972.8
          -61.454479,-18.315948,10972.8
          -61.510605,-18.293354,10972.8
          -61.567139,-18.270401,10972.8
          -61.621235,-18.248337,10972.8
          -61.676708,-18.225723,10972.8
          -61.731148,-18.203476,10972.8
          -61.786339,-18.180954,10972.8
          -61.841255,-18.158539,10972.8
          -61.896923,-18.13582,10972.8
          -61.953129,-18.113197,10972.8
          -62.006886,-18.091597,10972.8
          -62.063583,-18.068739,10972.8
          -62.119495,-18.046051,10980.42
          -62.174282,-18.023712,10972.8
          -62.22979,-18.001236,10972.8
          -62.286743,-17.978148,10972.8
          -62.342213,-17.955664,10972.8
          -62.396656,-17.933578,10972.8
          -62.452118,-17.911011,10972.8
          -62.508968,-17.887836,10972.8
          -62.563362,-17.865679,10972.8
          -62.619911,-17.842634,10972.8
          -62.675434,-17.820011,10972.8
          -62.73267,-17.796549,10972.8
          -62.787109,-17.77425,10972.8
          -62.844444,-17.750834,10972.8
          -62.9007,-17.727791,10972.8
          -62.955273,-17.705383,10972.8
          -63.013096,-17.681625,10972.8
          -63.071304,-17.657639,10980.42
          -63.127056,-17.634705,10972.8
          -63.18502,-17.614855,10972.8
          -63.244148,-17.59726,10972.8
          -63.300526,-17.580139,10972.8
          -63.35907,-17.562378,10972.8
          -63.417599,-17.544701,10972.8
          -63.475765,-17.527058,10972.8
          -63.53315,-17.5096,10972.8
          -63.594604,-17.490932,10972.8
          -63.651604,-17.473572,10972.8
          -63.711163,-17.455399,10972.8
          -63.769947,-17.437538,10972.8
          -63.830181,-17.419144,10972.8
          -63.88781,-17.401428,10972.8
          -63.947609,-17.383118,10972.8
          -64.006302,-17.365128,10972.8
          -64.065758,-17.346954,10972.8
          -64.126282,-17.328369,10972.8
          -64.184685,-17.310379,10972.8
          -64.242752,-17.292526,10972.8
          -64.301994,-17.274233,10972.8
          -64.360214,-17.25631,10972.8
          -64.41964,-17.237961,10972.8
          -64.47876,-17.219719,10972.8
          -64.53801,-17.201656,10972.8
          -64.596909,-17.18399,10972.8
          -64.657288,-17.165771,10972.8
          -64.717667,-17.147516,10972.8
          -64.777992,-17.129196,10972.8
          -64.840179,-17.110321,10972.8
          -64.897491,-17.092941,10972.8
          -64.959312,-17.074127,10972.8
          -65.018486,-17.056091,10972.8
          -65.07737,-17.038166,10972.8
          -65.136925,-17.019974,10972.8
          -65.197258,-17.001526,10972.8
          -65.256927,-16.98328,10972.8
          -65.316566,-16.965033,10972.8
          -65.37738,-16.946411,10972.8
          -65.438522,-16.927597,10972.8
          -65.499313,-16.90889,10972.8
          -65.561989,-16.889618,10972.8
          -65.622353,-16.871017,10972.8
          -65.681572,-16.852753,10972.8
          -65.743019,-16.833801,10972.8
          -65.801888,-16.81572,10972.8
          -65.862022,-16.797501,10972.8
          -65.922546,-16.779053,10972.8
          -65.980469,-16.761292,10972.8
          -66.041077,-16.742792,10972.8
          -66.102432,-16.723938,10972.8
          -66.162659,-16.705364,10972.8
          -66.223969,-16.686556,10972.8
          -66.286491,-16.667358,10972.8
          -66.34639,-16.648911,10972.8
          -66.407104,-16.63028,10972.8
          -66.4664,-16.612398,10972.8
          -66.52829,-16.593567,10972.8
          -66.587547,-16.575529,10972.8
          -66.647545,-16.557266,10972.8
          -66.708939,-16.538544,10972.8
          -66.772057,-16.519201,10972.8
          -66.830276,-16.501371,10972.8
          -66.893646,-16.48196,10965.18
          -66.9543,-16.463333,10972.8
          -67.015015,-16.444702,10965.18
          -67.070114,-16.427818,10965.18
          -67.132004,-16.408827,10972.8
          -67.190262,-16.390961,10972.8
          -67.257225,-16.370327,10972.8
          -67.322014,-16.350309,10972.8
          -67.381256,-16.331968,10972.8
          -67.444008,-16.312592,10972.8
          -67.504143,-16.293961,10980.42
          -67.56881,-16.27387,10980.42
          -67.627716,-16.255575,10980.42
          -67.685097,-16.2377,10972.8
          -67.745071,-16.219254,10972.8
          -67.811806,-16.199066,10972.8
          -67.870598,-16.181259,10965.18
          -67.930138,-16.163124,10972.8
          -67.993744,-16.143711,10972.8
          -68.055595,-16.124857,10972.8
          -68.121979,-16.104538,10972.8
          -68.183945,-16.085541,10972.8
          -68.247742,-16.065948,10972.8
          -68.309761,-16.046951,10972.8
          -68.368309,-16.029007,10972.8
          -68.427956,-16.010696,10972.8
          -68.491859,-15.991252,10972.8
          -68.55204,-15.972864,10972.8
          -68.614571,-15.953871,10972.8
          -68.669945,-15.936879,10972.8
          -68.733215,-15.917542,10980.42
          -68.793495,-15.899172,10972.8
          -68.85305,-15.880966,10972.8
          -68.88842,-15.870117,10972.8
          -68.980217,-15.842102,10972.8
          -69.04464,-15.822327,10972.8
          -69.109451,-15.802322,10972.8
          -69.168571,-15.784195,10972.8
          -69.229218,-15.765474,10972.8
          -69.289467,-15.746933,10972.8
          -69.349991,-15.728165,10972.8
          -69.410805,-15.709305,10972.8
          -69.467995,-15.690674,10972.8
          -69.535217,-15.668655,10972.8
          -69.597908,-15.648193,10972.8
          -69.655052,-15.629608,10972.8
          -69.711441,-15.611293,10972.8
          -69.771965,-15.591648,10972.8
          -69.917183,-15.544327,10972.8
          -69.939995,-15.536902,10972.8
          -70.12973,-15.474838,10972.8
          -71.390991,-14.966675,10965.18
          -73.012634,-14.297263,10363.2
          -73.066994,-14.274582,10363.2
          -73.091125,-14.264584,10363.2
          -73.209671,-14.214981,10363.2
          -73.315323,-14.17067,10363.2
          -74.725388,-13.573888,10363.2
          -74.782326,-13.54953,10363.2
          -74.838913,-13.525288,10363.2
          -74.894127,-13.501602,10355.58
          -74.950996,-13.477245,10363.2
          -75.006882,-13.453308,10355.58
          -75.064522,-13.428552,10363.2
          -75.122948,-13.403549,10363.2
          -75.179634,-13.379207,10363.2
          -75.235512,-13.355164,10370.82
          -75.291763,-13.331025,10363.2
          -75.345924,-13.307702,10363.2
          -75.403221,-13.282983,10363.2
          -75.459785,-13.258621,10355.58
          -75.515007,-13.234755,10363.2
          -75.573433,-13.209503,10363.2
          -75.628098,-13.185875,10363.2
          -75.684433,-13.161438,10363.2
          -75.740128,-13.137268,10363.2
          -75.796173,-13.112974,10363.2
          -75.851929,-13.088882,10363.2
          -75.908234,-13.064484,10363.2
          -75.962845,-13.040818,10355.58
          -76.019943,-13.016006,10363.2
          -76.076057,-12.991608,10363.2
          -76.129196,-12.968491,10264.14
          -76.182091,-12.945419,10020.3
          -76.235146,-12.922342,9700.26
          -76.284096,-12.901114,9403.08
          -76.336189,-12.878397,9098.28
          -76.386063,-12.85675,8793.48
          -76.433823,-12.835968,8488.68
          -76.484161,-12.813995,8183.88
          -76.532257,-12.792928,7894.32
          -76.578682,-12.772476,7597.14
          -76.625946,-12.749817,7307.58
          -76.671928,-12.725327,7010.4
          -76.717049,-12.701591,6728.46
          -76.760994,-12.678409,6446.52
          -76.805466,-12.65476,6172.2
          -76.844978,-12.633765,5913.12
          -76.894638,-12.607544,5615.94
          -76.943413,-12.580078,5311.14
          -76.947624,-12.576462,5280.66
          -76.951759,-12.572177,5250.18
          -76.9543,-12.569183,5227.32
          -76.957901,-12.564102,5204.46
          -76.960747,-12.559296,5173.98
          -76.962746,-12.555511,5151.12
          -76.965248,-12.550437,5128.26
          -76.967514,-12.545654,5097.78
          -76.969971,-12.540567,5067.3
          -76.971542,-12.537277,5044.44
          -76.973831,-12.532468,5013.96
          -76.97599,-12.527939,4991.1
          -76.999413,-12.480515,4716.78
          -77.022591,-12.434372,4495.8
          -77.044708,-12.39025,4213.86
          -77.067101,-12.345291,3947.16
          -77.089218,-12.300934,3695.7
          -77.111305,-12.256459,3436.62
          -77.121231,-12.236535,3322.32
          -77.128708,-12.221466,3223.26
          -77.142067,-12.194504,3070.86
          -77.152863,-12.172577,2933.7
          -77.163284,-12.15152,2811.78
          -77.174522,-12.128813,2712.72
          -77.183578,-12.110658,2667
          -77.193169,-12.091338,2598.42
          -77.20372,-12.069946,2484.12
          -77.214996,-12.047114,2407.92
          -77.222992,-12.031036,2362.2
          -77.232368,-12.012131,2293.62
          -77.241936,-11.992322,2232.66
          -77.249985,-11.974548,2179.32
          -77.256531,-11.959782,2133.6
          -77.263954,-11.943116,2087.88
          -77.269402,-11.931013,2057.4
          -77.276077,-11.915909,2049.78
          -77.277641,-11.909454,2042.16
          -77.277786,-11.907551,2026.92
          -77.277786,-11.904556,2004.06
          -77.277267,-11.901398,1981.2
          -77.276604,-11.898926,1958.34
          -77.275414,-11.896042,1920.24
          -77.273689,-11.893212,1889.76
          -77.272011,-11.891006,1851.66
          -77.270538,-11.889359,1828.8
          -77.268196,-11.886974,1790.7
          -77.266518,-11.88533,1760.22
          -77.264343,-11.883343,1722.12
          -77.262169,-11.881388,1684.02
          -77.259857,-11.879293,1638.3
          -77.257545,-11.877245,1607.82
          -77.256332,-11.876129,1584.96
          -77.254158,-11.874161,1554.48
          -77.245354,-11.865886,1455.42
          -77.238762,-11.860291,1386.84
          -77.237503,-11.859368,1363.98
          -77.236778,-11.858871,1356.36
          -77.233017,-11.856855,1310.64
          -77.228012,-11.855438,1264.92
          -77.224205,-11.855226,1226.82
          -77.221359,-11.855644,1203.96
          -77.218399,-11.856445,1181.1
          -77.216827,-11.856995,1165.86
          -77.214561,-11.857972,1143
          -77.212105,-11.859323,1112.52
          -77.209984,-11.860859,1089.66
          -77.208031,-11.862488,1066.8
          -77.206322,-11.864163,1036.32
          -77.20462,-11.866013,1013.46
          -77.203438,-11.867432,990.6
          -77.202019,-11.869125,975.36
          -77.200302,-11.871286,960.12
          -77.198616,-11.873335,937.26
          -77.197075,-11.875196,914.4
          -77.19548,-11.876999,899.16
          -77.193893,-11.878828,876.3
          -77.192215,-11.880753,861.06
          -77.189423,-11.884003,830.58
          -77.184975,-11.889162,792.48
          -77.18071,-11.894302,754.38
          -77.177063,-11.898972,723.9
          -77.174377,-11.902616,693.42
          -77.173271,-11.904327,678.18
          -77.172043,-11.906296,662.94
          -77.17086,-11.908264,647.7
          -77.170242,-11.909317,640.08
          -77.169296,-11.911057,624.84
          -77.168304,-11.91281,617.22
          -77.167152,-11.914999,601.98
          -77.166092,-11.917001,594.36
          -77.165222,-11.918747,579.12
          -77.16423,-11.920761,563.88
          -77.163391,-11.9224,556.26
          -77.16172,-11.925797,533.4
          -77.158913,-11.931571,495.3
          -77.156418,-11.936646,457.2
          -77.153717,-11.942139,426.72
          -77.151016,-11.947586,396.24
          -77.148651,-11.952438,365.76
          -77.145996,-11.957794,335.28
          -77.14325,-11.963379,312.42
          -77.140938,-11.968021,274.32
          -77.138229,-11.973404,236.22
          -77.13662,-11.9767,213.36
          -77.133965,-11.982193,182.88
          -77.131317,-11.987686,152.4
          -77.126045,-11.998141,83.82
          -77.123299,-12.003774,53.34
          -77.120895,-12.008606,15.24
          -77.118767,-12.012863,0
          -77.117264,-12.015919,0
          -77.116081,-12.018287,0
          -77.115204,-12.020073,0
          -77.114243,-12.021534,0
          -77.113266,-12.022476,0
          -77.113014,-12.022697,0
          -77.111038,-12.02425,0
          -77.110832,-12.024582,0
          -77.11042,-12.024834,0
          -77.110138,-12.024994,0
          -77.10936,-12.025409,0
          -77.108704,-12.025153,0
        </coordinates>
      </LineString>
    </Placemark>
  </Document>
</kml>