<?xml version='1.0' encoding='utf-8'?>
<kml xmlns="http://www.opengis.net/kml/2.2">
  <Document>
    <Placemark>
      <name>LA8181-2023-06-16</name>
      <TimeStamp>
        <when>2023-06-16</when>
      </TimeStamp>
      <LineString>
        <altitudeMode>absolute</altitudeMode>
        <coordinates>
          -73.782303,40.639904,0
          -73.782516,40.639812,0
          -73.78273,40.639709,0
          -73.783035,40.639503,0
          -73.783325,40.639465,0
          -73.783569,40.639671,0
          -73.783691,40.639904,0
          -73.783867,40.640125,0
          -73.784042,40.640369,0
          -73.783882,40.640163,0
          -73.783737,40.639961,0
          -73.783585,40.639755,0
          -73.783386,40.639477,0
          -73.782898,40.63829,0
          -73.783356,40.639446,0
          -73.782761,40.637474,0
          -73.782616,40.636635,0
          -73.782547,40.636093,0
          -73.782555,40.635891,0
          -73.782639,40.635681,0
          -73.782898,40.635315,0
          -73.783051,40.635109,0
          -73.783279,40.634811,0
          -73.78334,40.634605,0
          -73.783127,40.634411,0
          -73.782913,40.634308,0
          -73.782623,40.634171,0
          -73.782288,40.634022,0
          -73.781929,40.633854,0
          -73.781708,40.633759,0
          -73.781494,40.633667,0
          -73.781197,40.63353,0
          -73.780991,40.63345,0
          -73.780777,40.633389,0
          -73.780548,40.633335,0
          -73.780304,40.633301,0
          -73.780045,40.633278,0
          -73.779793,40.63327,0
          -73.779526,40.633289,0
          -73.779297,40.633331,0
          -73.779053,40.633392,0
          -73.778809,40.633469,0
          -73.77858,40.633575,0
          -73.778313,40.633713,0
          -73.777985,40.633984,0
          -73.777702,40.634296,0
          -73.777481,40.634583,0
          -73.777298,40.634808,0
          -73.777145,40.635017,0
          -73.77697,40.635239,0
          -73.776794,40.635448,0
          -73.776596,40.635715,0
          -73.776405,40.63596,0
          -73.776138,40.636299,0
          -73.775848,40.636681,0
          -73.775528,40.637089,0
          -73.775116,40.637615,0
          -73.774796,40.638004,0
          -73.774506,40.638382,0
          -73.774185,40.638783,0
          -73.773895,40.639149,0
          -73.773613,40.639534,0
          -73.7733,40.639942,0
          -73.772995,40.640316,0
          -73.772736,40.640671,0
          -73.77243,40.641048,0
          -73.772156,40.641403,0
          -73.771851,40.641781,0
          -73.771576,40.642147,0
          -73.771271,40.642525,0
          -73.770981,40.642891,0
          -73.770683,40.643269,0
          -73.77037,40.643658,0
          -73.770103,40.644051,0
          -73.769997,40.644306,0
          -73.769943,40.644562,0
          -73.769913,40.644806,0
          -73.769897,40.645008,0
          -73.769821,40.645237,0
          -73.769653,40.645443,0
          -73.769478,40.645657,0
          -73.769257,40.645912,0
          -73.769058,40.646152,0
          -73.768822,40.646469,0
          -73.7686,40.646759,0
          -73.768402,40.647003,0
          -73.768173,40.647297,0
          -73.768013,40.647507,0
          -73.767838,40.647717,0
          -73.76767,40.647926,0
          -73.767464,40.648193,0
          -73.76722,40.648529,0
          -73.766983,40.64883,0
          -73.766762,40.649101,0
          -73.766579,40.649334,0
          -73.766373,40.649597,0
          -73.766205,40.649822,0
          -73.766037,40.650032,0
          -73.765831,40.650299,0
          -73.76564,40.650543,0
          -73.765472,40.650764,0
          -73.765282,40.650974,0
          -73.765045,40.651051,0
          -73.764816,40.65102,0
          -73.76461,40.650928,0
          -73.764389,40.650822,0
          -73.764145,40.650719,0
          -73.763924,40.650612,0
          -73.763641,40.650497,0
          -73.763428,40.65033,0
          -73.763641,40.650124,0
          -73.763817,40.649914,0
          -73.764015,40.649635,0
          -73.764267,40.649311,0
          -73.764626,40.648869,0
          -73.765457,40.6478,0
          -73.765671,40.647526,0
          -73.767502,40.64518,0
          -73.769012,40.643269,76.2
          -73.770447,40.641453,76.2
          -73.771698,40.63987,76.2
          -73.772881,40.638287,76.2
          -73.774353,40.636368,76.2
          -73.775314,40.63517,76.2
          -73.777374,40.632515,76.2
          -73.778992,40.630463,76.2
          -73.78064,40.628357,83.82
          -73.786301,40.621109,137.16
          -73.791733,40.61422,228.6
          -73.797104,40.60733,350.52
          -73.802841,40.600067,464.82
          -73.808334,40.59304,556.26
          -73.813583,40.584705,655.32
          -73.814026,40.583405,670.56
          -73.81427,40.582489,678.18
          -73.814697,40.580704,701.04
          -73.814888,40.578094,716.28
          -73.814888,40.577213,731.52
          -73.814644,40.575024,746.76
          -73.814331,40.5737,754.38
          -73.814079,40.572884,769.62
          -73.812958,40.570137,800.1
          -73.811958,40.568508,830.58
          -73.808647,40.564594,861.06
          -73.806213,40.562595,891.54
          -73.807091,40.563248,906.78
          -73.803345,40.560837,937.26
          -73.797974,40.558502,967.74
          -73.794731,40.557472,998.22
          -73.791199,40.556534,1028.7
          -73.787613,40.555706,1051.56
          -73.783936,40.554886,1074.42
          -73.781433,40.554356,1089.66
          -73.776749,40.553425,1104.9
          -73.773438,40.55278,1120.14
          -73.769104,40.551956,1135.38
          -73.765503,40.55127,1150.62
          -73.761902,40.550537,1165.86
          -73.75769,40.549713,1181.1
          -73.745537,40.547325,1203.96
          -73.73468,40.54509,1264.92
          -73.720032,40.542023,1310.64
          -73.705338,40.538898,1363.98
          -73.691467,40.535934,1440.18
          -73.677124,40.532867,1516.38
          -73.662582,40.529728,1592.58
          -73.637878,40.524353,1767.84
          -73.616028,40.51973,1912.62
          -73.591171,40.514458,2095.5
          -73.564705,40.508873,2247.9
          -73.538483,40.503101,2392.68
          -73.524506,40.498676,2461.26
          -73.518257,40.496162,2491.74
          -73.513245,40.494003,2522.22
          -73.508644,40.491837,2545.08
          -73.504028,40.48946,2575.56
          -73.499786,40.487133,2606.04
          -73.495483,40.484573,2636.52
          -73.490982,40.481781,2667
          -73.488281,40.480042,2705.1
          -73.482056,40.476101,2735.58
          -73.479309,40.474365,2766.06
          -73.473816,40.470886,2804.16
          -73.470947,40.469055,2842.26
          -73.447021,40.454178,3017.52
          -73.425186,40.440628,3185.16
          -73.402779,40.426567,3268.98
          -73.379944,40.412247,3337.56
          -73.355713,40.397095,3413.76
          -73.330116,40.38118,3497.58
          -73.303963,40.364841,3573.78
          -73.278992,40.349258,3649.98
          -73.25016,40.332207,3726.18
          -73.186462,40.299088,3962.4
          -73.117249,40.264664,4267.2
          -73.052406,40.232258,4526.28
          -72.984558,40.198288,4808.22
          -72.914513,40.163315,5090.16
          -72.84259,40.128113,5318.76
          -72.79847,40.101868,5486.4
          -72.792725,40.097488,5509.26
          -72.787483,40.093254,5532.12
          -72.782677,40.089066,5554.98
          -72.777435,40.084129,5577.84
          -72.773628,40.08036,5600.7
          -72.768631,40.074821,5623.56
          -72.764709,40.069977,5654.04
          -72.7612,40.064999,5669.28
          -72.758453,40.060806,5692.14
          -72.754822,40.054596,5715
          -72.751465,40.048332,5737.86
          -72.748718,40.042694,5760.72
          -72.746277,40.037613,5783.58
          -72.743538,40.031574,5806.44
          -72.741516,40.026993,5829.3
          -72.740234,40.024017,5852.16
          -72.736145,40.01445,5875.02
          -72.704651,39.958065,6164.58
          -72.700806,39.95311,6187.44
          -72.696045,39.947433,6210.3
          -72.690353,39.940983,6240.78
          -72.686356,39.936745,6256.02
          -72.681618,39.931904,6278.88
          -72.675995,39.926552,6309.36
          -72.671265,39.922222,6332.22
          -72.665649,39.917381,6362.7
          -72.66095,39.913284,6393.18
          -72.655518,39.908627,6431.28
          -72.649719,39.903671,6469.38
          -72.644646,39.899551,6492.24
          -72.639282,39.895359,6515.1
          -72.633186,39.891129,6545.58
          -72.626892,39.887028,6560.82
          -72.621124,39.883667,6583.68
          -72.613655,39.879593,6606.54
          -72.607803,39.876617,6621.78
          -72.604584,39.875015,6644.64
          -72.593056,39.869522,6659.88
          -72.586304,39.86636,6682.74
          -72.58046,39.863708,6697.98
          -72.572403,39.860092,6720.84
          -72.564873,39.85675,6743.7
          -72.560097,39.854645,6751.32
          -72.480751,39.819534,7002.78
          -72.40033,39.784382,7170.42
          -72.369331,39.77449,7231.38
          -72.360138,39.772202,7246.62
          -72.355721,39.771194,7261.86
          -72.346619,39.769344,7284.72
          -72.342941,39.768631,7292.34
          -72.335121,39.767258,7299.96
          -72.326637,39.765884,7315.2
          -72.319519,39.764782,7330.44
          -72.310638,39.76355,7345.68
          -72.305504,39.762863,7368.54
          -72.294037,39.761307,7383.78
          -72.283997,39.760033,7399.02
          -72.192383,39.747559,7589.52
          -72.16465,39.740799,7635.24
          -72.159058,39.739132,7642.86
          -72.149536,39.736057,7658.1
          -72.141785,39.733311,7673.34
          -72.133842,39.730316,7680.96
          -72.126381,39.727203,7688.58
          -72.118774,39.72377,7703.82
          -72.111336,39.7202,7719.06
          -72.104706,39.716858,7726.68
          -72.097778,39.71315,7741.92
          -72.091393,39.709534,7749.54
          -72.084702,39.705597,7764.78
          -72.077301,39.700974,7780.02
          -72.071266,39.697083,7787.64
          -72.065186,39.692905,7795.26
          -72.058014,39.68779,7810.5
          -72.052246,39.683456,7818.12
          -72.046249,39.67868,7840.98
          -72.041138,39.674469,7863.84
          -72.036934,39.670807,7886.7
          -72.03009,39.664555,7940.04
          -72.025528,39.660141,7970.52
          -72.020576,39.655197,8008.62
          -72.015686,39.650078,8046.72
          -72.011047,39.64505,8077.2
          -72.008812,39.642517,8100.06
          -72.001945,39.634735,8130.54
          -71.952805,39.585434,8252.46
          -71.947014,39.580948,8260.08
          -71.941048,39.576553,8260.08
          -71.935974,39.572941,8267.7
          -71.930176,39.568985,8267.7
          -71.92701,39.56694,8275.32
          -71.913399,39.558609,8282.94
          -71.905396,39.55418,8290.56
          -71.8974,39.550037,8305.8
          -71.890198,39.546543,8328.66
          -71.885513,39.544418,8343.9
          -71.879128,39.541534,8366.76
          -71.867798,39.536861,8374.38
          -71.859306,39.533615,8389.62
          -71.851685,39.530949,8389.62
          -71.843689,39.528297,8397.24
          -71.836372,39.526062,8404.86
          -71.827599,39.523544,8404.86
          -71.817932,39.520943,8420.1
          -71.809326,39.518738,8427.72
          -71.803719,39.517365,8435.34
          -71.796371,39.515625,8435.34
          -71.789917,39.514053,8450.58
          -71.699768,39.491428,8633.46
          -71.684059,39.485229,8656.32
          -71.676598,39.481842,8671.56
          -71.670105,39.47858,8686.8
          -71.661911,39.474152,8694.42
          -71.655334,39.470291,8702.04
          -71.649658,39.466614,8702.04
          -71.642738,39.461792,8709.66
          -71.636169,39.456699,8717.28
          -71.630737,39.452042,8724.9
          -71.625725,39.447418,8740.14
          -71.620232,39.441971,8747.76
          -71.617126,39.438637,8747.76
          -71.611328,39.431889,8755.38
          -71.607056,39.426346,8763
          -71.602318,39.419861,8763
          -71.598259,39.414276,8770.62
          -71.594673,39.40947,8778.24
          -71.591797,39.405537,8785.86
          -71.588348,39.400909,8801.1
          -71.584045,39.395111,8816.34
          -71.539063,39.334358,8907.78
          -71.519623,39.315033,8930.64
          -71.513412,39.310272,8930.64
          -71.507141,39.305916,8930.64
          -71.499756,39.301399,8938.26
          -71.492493,39.297443,8953.5
          -71.487488,39.294975,8976.36
          -71.476814,39.290314,8968.74
          -71.468811,39.287201,8976.36
          -71.460632,39.284225,8983.98
          -71.452087,39.281292,8983.98
          -71.444824,39.278915,8999.22
          -71.436211,39.276123,9006.84
          -71.428329,39.273651,9014.46
          -71.418716,39.270721,9022.08
          -71.41024,39.268158,9022.08
          -71.401695,39.265549,9029.7
          -71.352921,39.246506,9067.8
          -71.346741,39.243118,9067.8
          -71.340675,39.239639,9075.42
          -71.330887,39.233368,9075.42
          -71.324196,39.228653,9083.04
          -71.318169,39.224121,9090.66
          -71.314049,39.220734,9090.66
          -71.306885,39.214462,9090.66
          -71.302917,39.210716,9090.66
          -71.295715,39.203316,9098.28
          -71.294167,39.201599,9098.28
          -71.286682,39.192471,9105.9
          -71.281372,39.185253,9105.9
          -71.277344,39.179108,9105.9
          -71.273804,39.173336,9105.9
          -71.269043,39.165421,9113.52
          -71.264771,39.158344,9121.14
          -71.262268,39.154156,9121.14
          -71.25769,39.14666,9136.38
          -71.255432,39.142891,9144
          -71.213081,39.071686,9273.54
          -71.175049,39.007645,9464.04
          -71.13208,38.935127,9608.82
          -71.092346,38.868233,9776.46
          -71.049835,38.79689,9951.72
          -71.009216,38.728436,10134.6
          -70.971313,38.664333,10279.38
          -70.933105,38.5993,10462.26
          -70.895508,38.535244,10584.18
          -70.85437,38.465137,10660.38
          -70.814888,38.397774,10660.38
          -70.778824,38.336002,10660.38
          -70.739891,38.269337,10668
          -70.704269,38.208115,10668
          -70.663124,38.137207,10668
          -70.625076,38.071678,10668
          -70.588448,38.008484,10660.38
          -70.542976,37.934021,10668
          -70.522911,37.902412,10668
          -70.450294,37.787704,10660.38
          -70.41066,37.724396,10660.38
          -70.370834,37.660576,10668
          -70.331551,37.597588,10668
          -70.291641,37.533371,10668
          -70.253746,37.472225,10668
          -70.213448,37.407303,10668
          -70.184547,37.3605,10660.38
          -69.600372,36.402267,10668
          -69.538193,36.298645,10668
          -69.498825,36.233002,10660.38
          -69.480171,36.201874,10660.38
          -69.291534,35.988884,10668
          -67.627136,33.302158,10668
          -67.581169,33.173683,10668
          -67.530342,33.045738,10668
          -67.491615,32.924858,10668
          -67.452461,32.779926,10668
          -67.428047,32.657841,10668
          -67.391594,32.515121,10668
          -67.356155,32.367233,10668
          -67.323586,32.226379,10668
          -67.261223,31.964716,10668
          -67.219574,31.810684,10668
          -67.198372,31.733078,10660.38
          -67.179619,31.664566,10660.38
          -67.161568,31.598448,10668
          -67.142891,31.529938,10668
          -67.125587,31.466705,10668
          -67.106583,31.396832,10660.38
          -67.084564,31.315659,10668
          -67.0634,31.237389,10668
          -67.045113,31.169889,10660.38
          -67.027046,31.103073,10668
          -67.006477,31.026993,10660.38
          -66.988541,30.960205,10660.38
          -66.970398,30.892731,10668
          -66.952782,30.827179,10698.48
          -66.934906,30.760437,10789.92
          -66.914276,30.683578,10911.84
          -66.89608,30.61573,11010.9
          -66.87793,30.547806,11102.34
          -66.857353,30.470675,11193.78
          -66.839584,30.403885,11269.98
          -66.821701,30.33651,11269.98
          -66.803711,30.26857,11277.6
          -66.786057,30.202021,11277.6
          -66.764938,30.122406,11277.6
          -66.759903,30.103424,11277.6
          -66.726784,29.977453,11277.6
          -66.716507,29.913862,11269.98
          -66.709412,29.830023,11277.6
          -66.700478,29.767828,11277.6
          -66.698158,29.754608,11269.98
          -66.698158,29.754608,11277.6
          -66.660568,29.559927,11269.98
          -66.652596,29.518402,11277.6
          -66.652596,29.518402,11269.98
          -66.607887,29.286026,11269.98
          -66.603539,29.263762,11269.98
          -66.603539,29.263762,11277.6
          -66.531212,28.884825,11269.98
          -66.531212,28.884825,11277.6
          -66.488731,28.661133,11269.98
          -66.476898,28.598831,11277.6
          -66.444359,28.4263,11277.6
          -66.10096,26.574039,11276.3808
          -65.479874,23.218254,11277.6
          -65.418335,22.993113,11277.6
          -65.378845,22.870153,11277.6
          -65.342819,22.750977,11277.6
          -65.306137,22.630409,11277.6
          -65.265228,22.490158,11269.98
          -65.245209,22.419662,11277.6
          -65.225929,22.351824,11277.6
          -65.205894,22.281576,11277.6
          -65.186081,22.211929,11269.98
          -65.163704,22.14267,11269.98
          -65.160469,22.135962,11269.98
          -65.156868,22.128937,11269.98
          -65.153404,22.122322,11269.98
          -65.149483,22.115152,11269.98
          -65.145721,22.10845,11269.98
          -65.110878,22.047234,11269.98
          -65.074158,21.979452,11277.6
          -65.039726,21.912651,11277.6
          -65.005554,21.844894,11269.98
          -64.971313,21.776299,11269.98
          -64.940338,21.714384,11269.98
          -64.906227,21.646179,11277.6
          -64.872971,21.579895,11277.6
          -64.839226,21.51272,11269.98
          -64.804855,21.444443,11277.6
          -64.771149,21.377518,11277.6
          -64.740547,21.316734,11277.6
          -64.708725,21.253281,11277.6
          -64.675117,21.18631,11277.6
          -64.642281,21.120796,11277.6
          -64.609245,21.054886,11269.98
          -64.578484,20.993338,11269.98
          -64.546028,20.92835,11277.6
          -64.512703,20.861664,11269.98
          -64.480057,20.796049,11277.6
          -64.446701,20.729107,11269.98
          -64.413338,20.662117,11277.6
          -64.38047,20.596115,11277.6
          -64.349869,20.534426,11277.6
          -64.314651,20.463409,11277.6
          -64.282181,20.397903,11277.6
          -64.251282,20.335648,11269.98
          -64.215637,20.264515,11269.98
          -64.1838,20.201065,11277.6
          -64.150688,20.134918,11277.6
          -64.118073,20.069641,11277.6
          -64.087044,20.007315,11277.6
          -64.054955,19.942932,11277.6
          -64.021378,19.875479,11277.6
          -63.990063,19.812515,11269.98
          -63.956459,19.7449,11277.6
          -63.922653,19.676792,11277.6
          -63.888893,19.608734,11277.6
          -63.858719,19.547791,11277.6
          -63.823208,19.476105,11269.98
          -63.789616,19.408279,11269.98
          -63.756947,19.342072,11277.6
          -63.725216,19.277756,11277.6
          -63.692745,19.212021,11269.98
          -63.661114,19.147888,11277.6
          -63.626221,19.077013,11269.98
          -63.594311,19.01207,11277.6
          -63.563511,18.949448,11277.6
          -63.53006,18.881332,11277.6
          -63.496956,18.813858,11269.98
          -63.462574,18.743774,11277.6
          -63.430645,18.678589,11277.6
          -63.399109,18.614136,11277.6
          -63.367043,18.548599,11277.6
          -63.334072,18.481155,11277.6
          -63.300926,18.413319,11277.6
          -63.269333,18.348587,11269.98
          -63.235058,18.278225,11277.6
          -63.20145,18.209141,11277.6
          -63.168541,18.1415,11277.6
          -63.136597,18.075668,11277.6
          -63.104748,18.010941,11277.6
          -63.069027,17.940254,11269.98
          -63.036999,17.877037,11277.6
          -63.003124,17.810165,11277.6
          -62.967304,17.739336,11277.6
          -62.933445,17.672287,11277.6
          -62.8988,17.603668,11269.98
          -62.8647,17.535948,11277.6
          -62.833267,17.470734,11277.6
          -62.802952,17.399969,11269.98
          -62.774723,17.331436,11269.98
          -62.745811,17.261307,11277.6
          -62.71632,17.189713,11269.98
          -62.687553,17.119766,11269.98
          -62.658932,17.050232,11269.98
          -62.62925,16.977997,11269.98
          -62.599804,16.906282,11269.98
          -62.570866,16.835663,11277.6
          -62.543335,16.768387,11277.6
          -62.514759,16.698521,11269.98
          -62.485992,16.62822,11277.6
          -62.457718,16.559097,11277.6
          -62.430004,16.491074,11277.6
          -62.401234,16.42067,11269.98
          -62.372036,16.34903,11277.6
          -62.343365,16.278671,11277.6
          -62.313732,16.205887,11277.6
          -62.284634,16.134354,11277.6
          -62.255039,16.061508,11269.98
          -62.225262,15.988312,11277.6
          -62.196842,15.918165,11277.6
          -62.16761,15.846056,11269.98
          -62.138573,15.774459,11277.6
          -62.109539,15.702768,11269.98
          -62.080559,15.631165,11277.6
          -62.052757,15.562408,11277.6
          -62.024738,15.493051,11277.6
          -61.996525,15.423157,11269.98
          -61.968334,15.353027,11269.98
          -61.939907,15.282349,11269.98
          -61.911098,15.210897,11269.98
          -61.882854,15.140808,11269.98
          -61.854107,15.069471,11269.98
          -61.825661,14.998758,11269.98
          -61.798,14.929916,11277.6
          -61.76952,14.859055,11277.6
          -61.741383,14.788948,11269.98
          -61.713379,14.71907,11277.6
          -61.685486,14.649384,11277.6
          -61.658215,14.581185,11277.6
          -61.629494,14.509309,11277.6
          -61.601337,14.438873,11277.6
          -61.57196,14.365369,11269.98
          -61.543869,14.294982,11277.6
          -61.517609,14.229111,11269.98
          -61.489468,14.15863,11277.6
          -61.461357,14.087952,11277.6
          -61.43391,14.019114,11277.6
          -61.406567,13.950302,11269.98
          -61.379364,13.881924,11277.6
          -61.351414,13.81163,11269.98
          -61.324093,13.742826,11277.6
          -61.296967,13.674487,11277.6
          -61.268383,13.602448,11269.98
          -61.241535,13.534607,11277.6
          -61.213989,13.465002,11277.6
          -61.186764,13.396198,11269.98
          -61.160038,13.328613,11277.6
          -61.133423,13.261322,11277.6
          -61.105957,13.191648,11269.98
          -61.0783,13.121613,11277.6
          -61.051689,13.054184,11277.6
          -61.023796,12.983505,11277.6
          -60.997231,12.915985,11277.6
          -60.969349,12.845391,11277.6
          -60.942463,12.776867,11277.6
          -60.914455,12.70578,11269.98
          -60.887745,12.637756,11277.6
          -60.860016,12.567288,11269.98
          -60.83234,12.496857,11277.6
          -60.805759,12.429029,11277.6
          -60.778545,12.359665,11277.6
          -60.750889,12.289078,11277.6
          -60.723846,12.220056,11269.98
          -60.697052,12.151624,11269.98
          -60.67001,12.082626,11269.98
          -60.64381,12.015598,11269.98
          -60.616875,11.946625,11277.6
          -60.59066,11.879573,11269.98
          -60.564014,11.811374,11277.6
          -60.536987,11.74205,11277.6
          -60.509853,11.672424,11269.98
          -60.483383,11.604584,11277.6
          -60.457088,11.537041,11277.6
          -60.431435,11.471283,11269.98
          -60.405338,11.404227,11269.98
          -60.378307,11.334632,11277.6
          -60.351215,11.264969,11277.6
          -60.32394,11.194885,11277.6
          -60.296852,11.125031,11269.98
          -60.270466,11.057088,11277.6
          -60.244205,10.989401,11277.6
          -60.216259,10.917337,11269.98
          -60.190044,10.849744,11277.6
          -60.161713,10.77661,11277.6
          -60.136124,10.710552,11277.6
          -60.105961,10.632625,11277.6
          -60.078735,10.562098,11269.98
          -60.052738,10.494827,11277.6
          -60.026642,10.42749,11277.6
          -59.999783,10.358002,11269.98
          -59.973892,10.290977,11269.98
          -59.947319,10.222092,11277.6
          -59.921108,10.154068,11277.6
          -59.895473,10.08759,11269.98
          -59.867573,10.015137,11277.6
          -59.84182,9.948306,11277.6
          -59.816788,9.883255,11269.98
          -59.789253,9.811722,11277.6
          -59.762974,9.743337,11269.98
          -59.735878,9.672958,11277.6
          -59.708752,9.602377,11277.6
          -59.681458,9.531372,11269.98
          -59.655003,9.462487,11277.6
          -59.626621,9.388458,11277.6
          -59.60154,9.323063,11277.6
          -59.575211,9.254445,11277.6
          -59.549355,9.187037,11277.6
          -59.523026,9.118326,11277.6
          -59.496086,9.047974,11277.6
          -59.468437,8.975784,11269.98
          -59.444183,8.904099,11269.98
          -59.423187,8.83136,11277.6
          -59.404472,8.759903,11269.98
          -59.384655,8.683948,11300.46
          -59.366299,8.613419,11384.28
          -59.347385,8.540566,11490.96
          -59.328453,8.467575,11574.78
          -59.309219,8.392996,11658.6
          -59.289757,8.317675,11750.04
          -59.270588,8.243591,11841.48
          -59.249874,8.163437,11879.58
          -59.230366,8.087906,11879.58
          -59.211384,8.014433,11879.58
          -59.191681,7.938171,11887.2
          -59.172783,7.864929,11887.2
          -59.153648,7.790771,11879.58
          -59.134098,7.714874,11887.2
          -59.114872,7.640259,11887.2
          -59.095791,7.566275,11887.2
          -59.076847,7.492862,11879.58
          -59.057518,7.417831,11879.58
          -59.037971,7.341753,11887.2
          -59.019028,7.268248,11879.58
          -58.99966,7.193019,11879.58
          -58.980671,7.119141,11879.58
          -58.96154,7.04489,11887.2
          -58.942207,6.969543,11887.2
          -58.922844,6.894287,11879.58
          -58.904289,6.821905,11887.2
          -58.884636,6.745326,11887.2
          -58.86549,6.670715,11887.2
          -58.846466,6.596592,11887.2
          -58.82885,6.52802,11887.2
          -58.810574,6.456842,11879.58
          -58.791611,6.382736,11879.58
          -58.772991,6.310181,11879.58
          -58.755024,6.239909,11887.2
          -58.737381,6.171021,11879.58
          -58.718201,6.09613,11887.2
          -58.69902,6.021286,11887.2
          -58.680634,5.949554,11879.58
          -58.661453,5.874664,11887.2
          -58.641895,5.798174,11887.2
          -58.623142,5.724669,11879.58
          -58.604053,5.650177,11887.2
          -58.584877,5.575049,11887.2
          -58.566067,5.501358,11879.58
          -58.546902,5.426222,11887.2
          -58.527939,5.352173,11879.58
          -58.51067,5.284424,11887.2
          -58.491444,5.209167,11887.2
          -58.47287,5.136475,11887.2
          -58.455837,5.087229,11879.58
          -58.453365,5.082138,11879.58
          -58.450245,5.076141,11879.58
          -58.44545,5.06749,11879.58
          -58.441772,5.061264,11887.2
          -58.440495,5.059111,11879.58
          -58.438282,5.05545,11887.2
          -58.434277,5.04895,11879.58
          -58.432369,5.045929,11879.58
          -58.428135,5.03928,11879.58
          -58.388496,4.978296,11879.58
          -58.347691,4.916245,11887.2
          -58.307888,4.855499,11887.2
          -58.268074,4.794182,11879.58
          -58.23024,4.735245,11887.2
          -58.19067,4.674042,11879.58
          -58.149612,4.61142,11887.2
          -58.111992,4.552855,11887.2
          -58.080807,4.49025,11887.2
          -58.049618,4.424515,11887.2
          -58.01717,4.356674,11879.58
          -57.98542,4.288467,11879.58
          -57.956528,4.219309,11879.58
          -57.929184,4.154343,11887.2
          -57.903488,4.08609,11887.2
          -57.896244,4.057307,11879.58
          -57.892788,4.039524,11879.58
          -57.890324,4.023463,11887.2
          -57.881516,3.951462,11887.2
          -57.872616,3.87971,11879.58
          -57.863949,3.810906,11887.2
          -57.853306,3.726151,11879.58
          -57.844509,3.656204,11887.2
          -57.835663,3.585526,11879.58
          -57.82616,3.509759,11879.58
          -57.817043,3.437302,11887.2
          -57.80801,3.364792,11887.2
          -57.798607,3.289536,11887.2
          -57.790455,3.224348,11879.58
          -57.780651,3.145302,11879.58
          -57.771374,3.071274,11879.58
          -57.762466,3.000571,11887.2
          -57.754242,2.934677,11887.2
          -57.74535,2.863083,11887.2
          -57.726856,2.752308,11879.58
          -57.722973,2.741229,11879.58
          -57.696007,2.675262,11879.58
          -57.668705,2.608787,11887.2
          -57.641354,2.542099,11887.2
          -57.61412,2.475449,11887.2
          -57.586563,2.407928,11887.2
          -57.559002,2.34082,11879.58
          -57.531025,2.272385,11887.2
          -57.510113,2.221147,11879.58
          -57.45755,2.092523,11887.2
          -57.429913,2.025833,11879.58
          -57.402958,1.959778,11879.58
          -57.375633,1.894547,11887.2
          -57.348064,1.82927,11887.2
          -57.322304,1.76824,11887.2
          -57.292137,1.695991,11879.58
          -57.263821,1.62849,11879.58
          -57.258461,1.615677,11887.2
          -57.217541,1.524399,11887.2
          -57.072979,1.237312,11887.2
          -56.510216,0.119872,11887.2
          -56.476894,0.053696,11887.2
          -56.474846,0.049622,11887.2
          -56.389843,-0.119202,11887.2
          -56.353565,-0.191237,11879.58
          -56.32346,-0.250946,11887.2
          -56.286449,-0.324509,11887.2
          -56.253304,-0.390381,11887.2
          -56.219456,-0.457562,11887.2
          -56.187634,-0.52078,11887.2
          -56.151928,-0.591632,11887.2
          -56.120388,-0.654245,11887.2
          -56.086674,-0.72128,11887.2
          -56.051868,-0.790364,11887.2
          -56.01733,-0.858948,11879.58
          -55.983257,-0.926514,11887.2
          -55.948917,-0.994728,11879.58
          -55.917011,-1.058075,11887.2
          -55.88517,-1.121246,11887.2
          -55.850609,-1.190015,11879.58
          -55.816513,-1.257655,11879.58
          -55.783745,-1.322689,11887.2
          -55.749317,-1.391027,11887.2
          -55.716072,-1.456945,11879.58
          -55.682064,-1.524445,11887.2
          -55.646824,-1.594391,11887.2
          -55.61393,-1.659634,11887.2
          -55.582069,-1.722885,11887.2
          -55.548058,-1.790352,11879.58
          -55.512798,-1.860306,11887.2
          -55.479374,-1.926636,11879.58
          -55.446434,-1.991924,11879.58
          -55.413132,-2.058014,11879.58
          -55.380043,-2.12362,11887.2
          -55.347397,-2.188293,11887.2
          -55.313747,-2.25499,11879.58
          -55.280266,-2.32142,11887.2
          -55.248589,-2.384173,11879.58
          -55.214958,-2.450867,11879.58
          -55.182384,-2.515497,11879.58
          -55.14904,-2.581467,11887.2
          -55.115803,-2.647247,11887.2
          -55.082939,-2.712366,11879.58
          -55.048748,-2.7801,11879.58
          -55.014984,-2.847042,11887.2
          -54.981079,-2.914215,11879.58
          -54.947598,-2.980507,11879.58
          -54.913174,-3.048613,11887.2
          -54.879456,-3.115402,11887.2
          -54.844868,-3.183975,11879.58
          -54.811115,-3.250763,11879.58
          -54.777218,-3.317778,11887.2
          -54.744919,-3.381546,11887.2
          -54.711727,-3.447189,11887.2
          -54.676907,-3.515991,11879.58
          -54.643806,-3.581497,11887.2
          -54.609684,-3.649063,11879.58
          -54.57547,-3.716583,11887.2
          -54.543095,-3.7806,11887.2
          -54.510418,-3.845122,11879.58
          -54.474098,-3.916998,11887.2
          -54.44038,-3.983568,11887.2
          -54.408699,-4.046088,11887.2
          -54.373707,-4.115264,11887.2
          -54.34013,-4.181555,11887.2
          -54.306026,-4.248962,11879.58
          -54.271343,-4.31749,11879.58
          -54.238895,-4.381439,11879.58
          -54.20517,-4.44788,11887.2
          -54.172562,-4.512177,11879.58
          -54.138588,-4.579111,11887.2
          -54.104588,-4.646193,11887.2
          -54.069118,-4.716114,11887.2
          -54.037838,-4.777725,11879.58
          -54.004787,-4.842865,11887.2
          -53.978245,-4.895201,11887.2
          -53.904655,-5.039978,11887.2
          -53.870949,-5.1064,11887.2
          -53.837524,-5.172089,11879.58
          -53.153206,-6.515167,11887.2
          -53.119595,-6.580994,11887.2
          -53.07877,-6.660828,11887.2
          -53.044506,-6.727798,11887.2
          -53.011307,-6.792717,11879.58
          -52.977146,-6.859543,11879.58
          -52.94482,-6.922597,11887.2
          -52.910534,-6.989586,11887.2
          -52.874733,-7.059461,11887.2
          -52.840214,-7.126822,11887.2
          -52.8083,-7.189087,11887.2
          -52.773254,-7.257447,11887.2
          -52.739216,-7.323853,11887.2
          -52.704922,-7.39068,11887.2
          -52.670181,-7.458435,11887.2
          -52.634975,-7.526985,11879.58
          -52.600582,-7.593887,11887.2
          -52.565392,-7.662369,11879.58
          -52.529659,-7.731954,11879.58
          -52.495232,-7.798896,11879.58
          -52.460144,-7.867095,11887.2
          -52.425407,-7.934647,11887.2
          -52.389423,-8.004593,11887.2
          -52.353451,-8.074346,11879.58
          -52.318756,-8.141785,11887.2
          -52.284542,-8.208115,11887.2
          -52.249462,-8.276336,11887.2
          -52.215366,-8.342441,11887.2
          -52.176819,-8.417175,11879.58
          -52.140648,-8.487213,11887.2
          -52.105362,-8.555464,11887.2
          -52.071331,-8.621338,11887.2
          -52.035439,-8.690781,11879.58
          -52.000526,-8.758255,11879.58
          -51.966091,-8.824862,11887.2
          -51.931664,-8.891337,11879.58
          -51.896667,-8.958984,11879.58
          -51.862003,-9.025874,11879.58
          -51.827305,-9.09288,11887.2
          -51.792904,-9.159256,11879.58
          -51.758316,-9.225998,11879.58
          -51.723309,-9.293472,11887.2
          -51.689556,-9.358475,11887.2
          -51.654591,-9.425897,11887.2
          -51.620068,-9.492281,11887.2
          -51.584301,-9.561127,11887.2
          -51.549934,-9.627235,11887.2
          -51.515175,-9.694038,11879.58
          -51.480656,-9.760375,11887.2
          -51.445564,-9.827829,11879.58
          -51.410988,-9.89415,11887.2
          -51.375004,-9.963272,11879.58
          -51.340508,-10.029465,11887.2
          -51.3055,-10.096619,11887.2
          -51.269073,-10.166543,11887.2
          -51.232738,-10.236145,11887.2
          -51.199127,-10.303207,11887.2
          -51.166542,-10.370819,11887.2
          -51.136005,-10.434079,11879.58
          -51.10223,-10.503442,11887.2
          -51.06971,-10.569992,11879.58
          -51.035,-10.641037,11879.58
          -51.00185,-10.708694,11887.2
          -50.967987,-10.777867,11887.2
          -50.935074,-10.845042,11887.2
          -50.903305,-10.909882,11887.2
          -50.865231,-10.987656,11887.2
          -50.830608,-11.058345,11879.58
          -50.797703,-11.125534,11879.58
          -50.76228,-11.197721,11887.2
          -50.72913,-11.265269,11887.2
          -50.696362,-11.332211,11879.58
          -50.664871,-11.396347,11879.58
          -50.632519,-11.462232,11887.2
          -50.59758,-11.533264,11887.2
          -50.564045,-11.601423,11887.2
          -50.530479,-11.669586,11879.58
          -50.49567,-11.740288,11887.2
          -50.462372,-11.807929,11887.2
          -50.428982,-11.875709,11879.58
          -50.396656,-11.941315,11887.2
          -50.363354,-12.008708,11887.2
          -50.328705,-12.078862,11879.58
          -50.294159,-12.148738,11879.58
          -50.261314,-12.215332,11879.58
          -50.228355,-12.281982,11887.2
          -50.195728,-12.348038,11887.2
          -50.163239,-12.413667,11879.58
          -50.130615,-12.479445,11887.2
          -50.098179,-12.544876,11887.2
          -50.065407,-12.610931,11887.2
          -50.031689,-12.678735,11879.58
          -49.996365,-12.75,11887.2
          -49.965,-12.813038,11887.2
          -49.931206,-12.881012,11887.2
          -49.898811,-12.946198,11887.2
          -49.865162,-13.013818,11887.2
          -49.829842,-13.084764,11879.58
          -49.796448,-13.151752,11887.2
          -49.762383,-13.219986,11887.2
          -49.727493,-13.289919,11879.58
          -49.692963,-13.359055,11887.2
          -49.657383,-13.430274,11887.2
          -49.623173,-13.498753,11887.2
          -49.590675,-13.563675,11887.2
          -49.558285,-13.628403,11879.58
          -49.52523,-13.694504,11879.58
          -49.491337,-13.762145,11887.2
          -49.457134,-13.830322,11879.58
          -49.423229,-13.897797,11887.2
          -49.388218,-13.967533,11879.58
          -49.352718,-14.038101,11879.58
          -49.318108,-14.107004,11879.58
          -49.282963,-14.176804,11887.2
          -49.250053,-14.242264,11879.58
          -49.216808,-14.308319,11879.58
          -49.181953,-14.377487,11887.2
          -49.146618,-14.447394,11879.58
          -49.111633,-14.516664,11887.2
          -49.079445,-14.580394,11887.2
          -49.046101,-14.646218,11887.2
          -49.008827,-14.71994,11887.2
          -48.971703,-14.79323,11887.2
          -48.938404,-14.85887,11879.58
          -48.903374,-14.92804,11887.2
          -48.866032,-15.001648,11887.2
          -48.829472,-15.073754,11887.2
          -48.794796,-15.141907,11887.2
          -48.758915,-15.212494,11887.2
          -48.72287,-15.283264,11887.2
          -48.68914,-15.349411,11887.2
          -48.654621,-15.417171,11879.58
          -48.621418,-15.482203,11887.2
          -48.587616,-15.548492,11879.58
          -48.551281,-15.619673,11887.2
          -48.516155,-15.688339,11879.58
          -48.481831,-15.755325,11879.58
          -48.447491,-15.822418,11879.58
          -48.412121,-15.891541,11887.2
          -48.374325,-15.965276,11887.2
          -48.340038,-16.03212,11887.2
          -48.305584,-16.099045,11879.58
          -48.268677,-16.170897,11887.2
          -48.233807,-16.238771,11879.58
          -48.196922,-16.310322,11879.58
          -48.16156,-16.378986,11879.58
          -48.12257,-16.454634,11887.2
          -48.087448,-16.522568,11879.58
          -48.053188,-16.588943,11887.2
          -48.015942,-16.661041,11887.2
          -47.981415,-16.727755,11879.58
          -47.944237,-16.799725,11887.2
          -47.906864,-16.871834,11887.2
          -47.871574,-16.939865,11887.2
          -47.837368,-17.005718,11887.2
          -47.801414,-17.074942,11887.2
          -47.765614,-17.143793,11887.2
          -47.729954,-17.212318,11879.58
          -47.69381,-17.281773,11887.2
          -47.656715,-17.352768,11887.2
          -47.618866,-17.425201,11879.58
          -47.583138,-17.493896,11887.2
          -47.546619,-17.563601,11879.58
          -47.510571,-17.632599,11879.58
          -47.474335,-17.70195,11887.2
          -47.436119,-17.774761,11879.58
          -47.397961,-17.847477,11879.58
          -47.362011,-17.915955,11879.58
          -47.326061,-17.984432,11879.58
          -47.28751,-18.057707,11887.2
          -47.249355,-18.130096,11887.2
          -47.211796,-18.201412,11879.58
          -47.176174,-18.269028,11879.58
          -47.14003,-18.337555,11879.58
          -47.102703,-18.408188,11887.2
          -47.066677,-18.476351,11887.2
          -47.02948,-18.546707,11887.2
          -46.993038,-18.615509,11887.2
          -46.954685,-18.68779,11879.58
          -46.921757,-18.755478,11887.2
          -46.899311,-18.832581,11887.2
          -46.896614,-18.848145,11887.2
          -46.884155,-18.921478,11887.2
          -46.871647,-18.993896,11887.2
          -46.858986,-19.067144,11887.2
          -46.84634,-19.140335,11879.58
          -46.833618,-19.213924,11879.58
          -46.820641,-19.288971,11887.2
          -46.8074,-19.365326,11879.58
          -46.793819,-19.443426,11887.2
          -46.780136,-19.52224,11887.2
          -46.766701,-19.599609,11879.58
          -46.753792,-19.673859,11887.2
          -46.741085,-19.746855,11887.2
          -46.728092,-19.821121,11887.2
          -46.714169,-19.900663,11879.58
          -46.700783,-19.977102,11887.2
          -46.687237,-20.054764,11887.2
          -46.674534,-20.127365,11879.58
          -46.660435,-20.207907,11879.58
          -46.647457,-20.281723,11887.2
          -46.634266,-20.356613,11887.2
          -46.621384,-20.429031,11887.2
          -46.606949,-20.507982,11879.58
          -46.593716,-20.584654,11879.58
          -46.580902,-20.663269,11887.2
          -46.568798,-20.737673,11879.58
          -46.555813,-20.817183,11879.58
          -46.54248,-20.898184,11887.2
          -46.530396,-20.971457,11887.2
          -46.517944,-21.046732,11887.2
          -46.505375,-21.121353,11879.58
          -46.490147,-21.195831,11704.32
          -46.472267,-21.270081,11384.28
          -46.452179,-21.351418,11064.24
          -46.431519,-21.435608,10728.96
          -46.41098,-21.518959,10386.06
          -46.392365,-21.594978,9959.34
          -46.373951,-21.669508,9692.64
          -46.354664,-21.747528,9319.26
          -46.337891,-21.815216,8823.96
          -46.320358,-21.886505,8267.7
          -46.304272,-21.95208,7932.42
          -46.286747,-22.022919,7680.96
          -46.270855,-22.086617,7444.74
          -46.253662,-22.15556,7178.04
          -46.23711,-22.222458,6903.72
          -46.221924,-22.28409,6652.26
          -46.217754,-22.317142,6515.1
          -46.217499,-22.32408,6492.24
          -46.217484,-22.329163,6469.38
          -46.217533,-22.334839,6446.52
          -46.217854,-22.342281,6408.42
          -46.218159,-22.347122,6385.56
          -46.218933,-22.354935,6355.08
          -46.219738,-22.361088,6324.6
          -46.2206,-22.367001,6301.74
          -46.221619,-22.372911,6271.26
          -46.222378,-22.377411,6248.4
          -46.223526,-22.384506,6217.92
          -46.232815,-22.44397,5943.6
          -46.243134,-22.509403,5646.42
          -46.25209,-22.567703,5410.2
          -46.260632,-22.623968,5250.18
          -46.269684,-22.682671,5082.54
          -46.27771,-22.733688,4930.14
          -46.287949,-22.778091,4800.6
          -46.289795,-22.782944,4785.36
          -46.291691,-22.78743,4770.12
          -46.293743,-22.792023,4762.5
          -46.295727,-22.79612,4747.26
          -46.298233,-22.800888,4739.64
          -46.300861,-22.805569,4724.4
          -46.303078,-22.809311,4716.78
          -46.305725,-22.813477,4701.54
          -46.308773,-22.8181,4693.92
          -46.311466,-22.822128,4678.68
          -46.313816,-22.825607,4671.06
          -46.31691,-22.830093,4663.44
          -46.319809,-22.833939,4655.82
          -46.322704,-22.837326,4640.58
          -46.326099,-22.840668,4632.96
          -46.329803,-22.843882,4625.34
          -46.333618,-22.846674,4617.72
          -46.336517,-22.848537,4610.1
          -46.341198,-22.851143,4602.48
          -46.346676,-22.853668,4587.24
          -46.350769,-22.855225,4579.62
          -46.355465,-22.856689,4572
          -46.359814,-22.857754,4572
          -46.364151,-22.858521,4572
          -46.368866,-22.859104,4572
          -46.373699,-22.859383,4572
          -46.378136,-22.85939,4572
          -46.382679,-22.859161,4572
          -46.387222,-22.858612,4564.38
          -46.391296,-22.857941,4564.38
          -46.396282,-22.85673,4564.38
          -46.400349,-22.855473,4564.38
          -46.405251,-22.853668,4564.38
          -46.409302,-22.851982,4564.38
          -46.413422,-22.850212,4564.38
          -46.417187,-22.848679,4564.38
          -46.422119,-22.846861,4564.38
          -46.426575,-22.845383,4564.38
          -46.448597,-22.83989,4564.38
          -46.452026,-22.839273,4564.38
          -46.457584,-22.838333,4564.38
          -46.46233,-22.837601,4564.38
          -46.466824,-22.837006,4572
          -46.514015,-22.830185,4572
          -46.551716,-22.828194,4572
          -46.560707,-22.828537,4572
          -46.565754,-22.828844,4572
          -46.570026,-22.82917,4572
          -46.617176,-22.833267,4572
          -46.64735,-22.839432,4564.38
          -46.651745,-22.840714,4564.38
          -46.65609,-22.842178,4564.38
          -46.660156,-22.843834,4556.76
          -46.664928,-22.846069,4556.76
          -46.669056,-22.848305,4556.76
          -46.672668,-22.850538,4549.14
          -46.676464,-22.853256,4541.52
          -46.680557,-22.856735,4526.28
          -46.683807,-22.860035,4503.42
          -46.6866,-22.863327,4480.56
          -46.689301,-22.867018,4457.7
          -46.691647,-22.870972,4434.84
          -46.69347,-22.874838,4419.6
          -46.695141,-22.879395,4396.74
          -46.695709,-22.881542,4389.12
          -46.696789,-22.886856,4366.26
          -46.697285,-22.891365,4343.4
          -46.697338,-22.895874,4320.54
          -46.697086,-22.899719,4305.3
          -46.696339,-22.904388,4282.44
          -46.69519,-22.908966,4259.58
          -46.693691,-22.913177,4236.72
          -46.691845,-22.917435,4213.86
          -46.689861,-22.921484,4198.62
          -46.68803,-22.925255,4175.76
          -46.685993,-22.929258,4145.28
          -46.683758,-22.933867,4122.42
          -46.681824,-22.93787,4099.56
          -46.679993,-22.941689,4076.7
          -46.677906,-22.945971,4053.84
          -46.675865,-22.950165,4030.98
          -46.655781,-22.990986,3825.24
          -46.634315,-23.034805,3589.02
          -46.625774,-23.052202,3550.92
          -46.616238,-23.071701,3505.2
          -46.608784,-23.087023,3467.1
          -46.59956,-23.106079,3375.66
          -46.590778,-23.124172,3261.36
          -46.581524,-23.143305,3154.68
          -46.574192,-23.158401,3063.24
          -46.564636,-23.178034,2956.56
          -46.554916,-23.196396,2865.12
          -46.55217,-23.200287,2842.26
          -46.549473,-23.203583,2827.02
          -46.546478,-23.20685,2804.16
          -46.543278,-23.2099,2788.92
          -46.539867,-23.212809,2766.06
          -46.536407,-23.215462,2743.2
          -46.532593,-23.218115,2727.96
          -46.528748,-23.220474,2705.1
          -46.524902,-23.22258,2689.86
          -46.521008,-23.224686,2674.62
          -46.517162,-23.226746,2651.76
          -46.513615,-23.228714,2636.52
          -46.510071,-23.230728,2621.28
          -46.505688,-23.233244,2606.04
          -46.502281,-23.235168,2590.8
          -46.483505,-23.245972,2529.84
          -46.464947,-23.256567,2423.16
          -46.448948,-23.264374,2331.72
          -46.444851,-23.265701,2316.48
          -46.440479,-23.266855,2293.62
          -46.436111,-23.267761,2270.76
          -46.431683,-23.268438,2247.9
          -46.427967,-23.26881,2232.66
          -46.423035,-23.269043,2217.42
          -46.418884,-23.269089,2194.56
          -46.414589,-23.269043,2179.32
          -46.410419,-23.269043,2164.08
          -46.406002,-23.269089,2141.22
          -46.40152,-23.269136,2118.36
          -46.397247,-23.269182,2103.12
          -46.392925,-23.269276,2087.88
          -46.370899,-23.269695,1988.82
          -46.353317,-23.270004,1912.62
          -46.332142,-23.270254,1828.8
          -46.310528,-23.271744,1760.22
          -46.306458,-23.272581,1752.6
          -46.301929,-23.273838,1752.6
          -46.297935,-23.275131,1752.6
          -46.294338,-23.276505,1752.6
          -46.291092,-23.277878,1752.6
          -46.286621,-23.280029,1752.6
          -46.282902,-23.28186,1744.98
          -46.279499,-23.283613,1744.98
          -46.275787,-23.285522,1744.98
          -46.27243,-23.287432,1744.98
          -46.26902,-23.289734,1744.98
          -46.266224,-23.292114,1752.6
          -46.264496,-23.293949,1760.22
          -46.261547,-23.297672,1760.22
          -46.259716,-23.300699,1760.22
          -46.258038,-23.30405,1752.6
          -46.256817,-23.307308,1737.36
          -46.255985,-23.310562,1729.74
          -46.255444,-23.313826,1722.12
          -46.255238,-23.317225,1714.5
          -46.255337,-23.320679,1699.26
          -46.255798,-23.324486,1684.02
          -46.256611,-23.327885,1668.78
          -46.257584,-23.331116,1653.54
          -46.258583,-23.334183,1638.3
          -46.25951,-23.337149,1623.06
          -46.260326,-23.340221,1607.82
          -46.26088,-23.343246,1592.58
          -46.260426,-23.353582,1539.24
          -46.259533,-23.356705,1524
          -46.258545,-23.359774,1516.38
          -46.257633,-23.36261,1508.76
          -46.256969,-23.365593,1493.52
          -46.256638,-23.368561,1478.28
          -46.257385,-23.374374,1447.8
          -46.258495,-23.376951,1432.56
          -46.259781,-23.378952,1417.32
          -46.26173,-23.380966,1409.7
          -46.263927,-23.382614,1402.08
          -46.266022,-23.383608,1394.46
          -46.267597,-23.384121,1386.84
          -46.271313,-23.384678,1379.22
          -46.273956,-23.384678,1379.22
          -46.276501,-23.384678,1371.6
          -46.278992,-23.384726,1363.98
          -46.281635,-23.384865,1363.98
          -46.2845,-23.385178,1356.36
          -46.286747,-23.385498,1348.74
          -46.289345,-23.385956,1341.12
          -46.291859,-23.386448,1333.5
          -46.29414,-23.386963,1325.88
          -46.296589,-23.387518,1325.88
          -46.298931,-23.388077,1318.26
          -46.301182,-23.388657,1318.26
          -46.303528,-23.389206,1318.26
          -46.30595,-23.389847,1325.88
          -46.308372,-23.390488,1325.88
          -46.31078,-23.391104,1318.26
          -46.313122,-23.391754,1325.88
          -46.320007,-23.3936,1325.88
          -46.326801,-23.395479,1325.88
          -46.33329,-23.397217,1325.88
          -46.339771,-23.39897,1325.88
          -46.346485,-23.400785,1318.26
          -46.353199,-23.402601,1280.16
          -46.360065,-23.404463,1242.06
          -46.364288,-23.405626,1219.2
          -46.37085,-23.407396,1173.48
          -46.378529,-23.409491,1135.38
          -46.385296,-23.411306,1097.28
          -46.392216,-23.413193,1059.18
          -46.399208,-23.41507,1021.08
          -46.403606,-23.416241,990.6
          -46.410496,-23.418137,952.5
          -46.417286,-23.419922,914.4
          -46.423828,-23.421707,876.3
          -46.430462,-23.42355,838.2
          -46.43726,-23.425369,800.1
          -46.441906,-23.426622,777.24
          -46.447899,-23.428253,739.14
          -46.453045,-23.429647,701.04
          -46.460674,-23.431696,670.56
          -46.466923,-23.43338,662.94
          -46.471943,-23.434731,0
          -46.472359,-23.434839,0
          -46.472843,-23.434971,0
          -46.473236,-23.435072,0
          -46.473667,-23.435188,0
          -46.474064,-23.435291,0
          -46.474442,-23.435394,0
          -46.475128,-23.435577,0
          -46.475452,-23.435669,0
          -46.47578,-23.435759,0
          -46.476021,-23.435827,0
          -46.476299,-23.435898,0
          -46.476612,-23.435989,0
          -46.476849,-23.436047,0
          -46.477074,-23.436104,0
          -46.477276,-23.436161,0
          -46.478409,-23.43647,0
          -46.479351,-23.436724,0
          -46.480232,-23.436962,0
          -46.48103,-23.437178,0
          -46.481449,-23.437294,0
          -46.481731,-23.437305,0
          -46.481998,-23.437237,0
          -46.482204,-23.437099,0
          -46.482391,-23.436888,0
          -46.482506,-23.436644,0
          -46.482594,-23.436367,0
          -46.482658,-23.436119,0
          -46.482731,-23.435898,0
          -46.482803,-23.43568,0
          -46.482887,-23.435421,0
          -46.483078,-23.434799,0
          -46.483253,-23.43425,0
          -46.483383,-23.433861,0
          -46.483471,-23.433571,0
          -46.483547,-23.433338,0
          -46.483562,-23.433092,0
          -46.483479,-23.432865,0
          -46.48328,-23.43264,0
          -46.483067,-23.432499,0
          -46.482838,-23.432419,0
          -46.482632,-23.432348,0
          -46.482403,-23.432289,0
          -46.482174,-23.43222,0
          -46.481918,-23.432156,0
          -46.48167,-23.432087,0
          -46.481419,-23.432018,0
          -46.480877,-23.431871,0
          -46.48037,-23.431732,0
          -46.479885,-23.431602,0
          -46.479385,-23.431469,0
          -46.478909,-23.431343,0
          -46.478359,-23.431196,0
          -46.47781,-23.431046,0
          -46.477211,-23.430885,0
          -46.47665,-23.430725,0
          -46.476223,-23.430614,0
          -46.475792,-23.430498,0
          -46.475376,-23.430382,0
          -46.474979,-23.430277,0
          -46.474701,-23.430187,0
          -46.474514,-23.42997,0
          -46.474514,-23.429764,0
          -46.474579,-23.429558,0
          -46.474659,-23.429335,0
          -46.474751,-23.429102,0
          -46.474865,-23.428791,0
          -46.474964,-23.428577,0
          -46.475189,-23.427933,0
          -46.475361,-23.427391,0
          -46.47554,-23.426846,0
          -46.475613,-23.4266,0
        </coordinates>
      </LineString>
    </Placemark>
  </Document>
</kml>