<?xml version='1.0' encoding='utf-8'?>
<kml xmlns="http://www.opengis.net/kml/2.2">
  <Document>
    <Placemark>
      <name>LF3002-2025-01-28</name>
      <TimeStamp>
        <when>2025-01-28</when>
      </TimeStamp>
      <LineString>
        <altitudeMode>absolute</altitudeMode>
        <coordinates>
          -86.673233,36.128098,0
          -86.673698,36.127701,0
          -86.674057,36.127384,0
          -86.674301,36.127144,0
          -86.674622,36.126709,0
          -86.67598,36.125233,0
          -86.676239,36.125004,0
          -86.676888,36.124069,0
          -86.677002,36.123768,0
          -86.677521,36.123562,0
          -86.677795,36.123631,0
          -86.678246,36.123745,0
          -86.678452,36.123814,0
          -86.678696,36.123871,0
          -86.679062,36.123978,0
          -86.679741,36.12394,0
          -86.680038,36.123165,0
          -86.68103,36.120663,0
          -86.682243,36.117691,160.02
          -86.683731,36.113937,152.4
          -86.68573,36.109039,228.6
          -86.687965,36.103912,327.66
          -86.688614,36.102703,350.52
          -86.689781,36.10075,396.24
          -86.690659,36.099564,419.1
          -86.691597,36.098419,449.58
          -86.693001,36.096836,480.06
          -86.693878,36.095905,510.54
          -86.695236,36.094391,548.64
          -86.696503,36.093021,586.74
          -86.697792,36.091579,624.84
          -86.698669,36.090599,640.08
          -86.700012,36.089016,678.18
          -86.701187,36.087662,701.04
          -86.702232,36.086456,723.9
          -86.7033,36.08519,746.76
          -86.704727,36.083405,769.62
          -86.70948,36.07761,853.44
          -86.715202,36.071182,960.12
          -86.719833,36.066284,1051.56
          -86.721695,36.064438,1089.66
          -86.72316,36.06308,1120.14
          -86.724701,36.061661,1150.62
          -86.72654,36.060017,1181.1
          -86.728134,36.058685,1203.96
          -86.730225,36.056942,1242.06
          -86.731857,36.055664,1272.54
          -86.734024,36.053917,1310.64
          -86.735428,36.052799,1341.12
          -86.737648,36.050983,1379.22
          -86.739464,36.049484,1417.32
          -86.740746,36.048424,1440.18
          -86.742722,36.046783,1478.28
          -86.744949,36.044979,1524
          -86.756111,36.03548,1699.26
          -86.768852,36.024914,1828.8
          -86.783005,36.013321,2103.12
          -86.795326,36.002941,2324.1
          -86.807953,35.99231,2545.08
          -86.820717,35.981415,2758.44
          -86.832962,35.971069,2948.94
          -86.845207,35.960678,3093.72
          -86.859314,35.948616,3223.26
          -86.874222,35.936096,3352.8
          -86.88887,35.923737,3474.72
          -86.903549,35.911236,3589.02
          -86.919792,35.897549,3710.94
          -86.957932,35.865143,3992.88
          -86.997223,35.831585,4267.2
          -87.039642,35.794922,4556.76
          -87.08313,35.757706,4853.94
          -87.124268,35.722603,5120.64
          -87.168274,35.684711,5410.2
          -87.212921,35.646118,5707.38
          -87.258514,35.606735,5935.98
          -87.304962,35.566654,6080.76
          -87.354416,35.523788,6096
          -87.400246,35.483917,6096
          -87.448013,35.44236,6096
          -87.494652,35.401535,6096
          -87.541046,35.361267,6096
          -87.587624,35.320671,6096
          -87.633385,35.280636,6096
          -87.680191,35.239346,6096
          -87.726913,35.198425,6096
          -87.772469,35.15863,6096
          -87.820526,35.116402,6096
          -87.867142,35.075409,6096
          -87.911697,35.03595,6096
          -87.957886,34.995071,6096
          -88.002281,34.955704,5875.02
          -88.046097,34.916878,5593.08
          -88.091927,34.876331,5288.28
          -88.135406,34.83783,4998.72
          -88.176895,34.800777,4716.78
          -88.218872,34.76358,4419.6
          -88.261642,34.725594,4122.42
          -88.303345,34.688232,3825.24
          -88.341965,34.653534,3558.54
          -88.358101,34.63916,3467.1
          -88.373222,34.625603,3383.28
          -88.388145,34.612061,3291.84
          -88.402222,34.599701,3208.02
          -88.416023,34.587521,3124.2
          -88.429413,34.575371,3040.38
          -88.442802,34.563446,2956.56
          -88.455338,34.552189,2872.74
          -88.467743,34.54097,2788.92
          -88.480301,34.5298,2689.86
          -88.493866,34.517761,2552.7
          -88.506248,34.5065,2430.78
          -88.518585,34.495422,2316.48
          -88.53138,34.485153,2186.94
          -88.536186,34.481941,2148.84
          -88.53904,34.480179,2118.36
          -88.541008,34.479034,2103.12
          -88.543739,34.47747,2080.26
          -88.545975,34.476307,2065.02
          -88.548141,34.475098,2042.16
          -88.550835,34.473747,2019.3
          -88.553581,34.472397,1996.44
          -88.555687,34.471344,1981.2
          -88.557991,34.470291,1965.96
          -88.560455,34.469055,1943.1
          -88.57486,34.461685,1821.18
          -88.590088,34.453869,1691.64
          -88.604736,34.446609,1577.34
          -88.618637,34.439484,1470.66
          -88.625809,34.435822,1417.32
          -88.634834,34.431385,1363.98
          -88.641876,34.427895,1318.26
          -88.650589,34.423645,1249.68
          -88.659096,34.419468,1188.72
          -88.666451,34.415771,1127.76
          -88.672371,34.412766,1074.42
          -88.679283,34.40918,1021.08
          -88.687706,34.404804,952.5
          -88.693771,34.401779,899.16
          -88.701897,34.397728,838.2
          -88.708649,34.394329,792.48
          -88.714821,34.391144,754.38
          -88.721046,34.388031,716.28
          -88.727715,34.384598,678.18
          -88.735313,34.380692,632.46
          -88.741112,34.377823,594.36
          -88.748962,34.373886,563.88
          -88.754654,34.371101,563.88
          -88.759613,34.368576,556.26
          -88.763123,34.366489,556.26
          -88.764725,34.36528,548.64
          -88.766098,34.363979,548.64
          -88.767235,34.362717,541.02
          -88.768127,34.361481,533.4
          -88.768913,34.360153,525.78
          -88.769592,34.358765,518.16
          -88.770203,34.356949,502.92
          -88.770538,34.355576,487.68
          -88.770821,34.353928,480.06
          -88.770988,34.35228,472.44
          -88.771042,34.350815,472.44
          -88.771019,34.349361,464.82
          -88.770988,34.348114,457.2
          -88.770935,34.346512,449.58
          -88.770905,34.345123,441.96
          -88.770844,34.343773,441.96
          -88.770737,34.342472,434.34
          -88.770653,34.34111,426.72
          -88.770561,34.339863,419.1
          -88.770508,34.338326,403.86
          -88.770447,34.337025,403.86
          -88.770432,34.335709,396.24
          -88.770386,34.334743,388.62
          -88.770317,34.332916,381
          -88.770149,34.32843,358.14
          -88.77005,34.324314,327.66
          -88.770035,34.320053,304.8
          -88.769989,34.314213,266.7
          -88.769981,34.310074,243.84
          -88.769989,34.304718,205.74
          -88.769981,34.299179,182.88
          -88.76992,34.29483,152.4
          -88.76992,34.290482,129.54
          -88.769928,34.286236,106.68
          -88.76992,34.281967,83.82
          -88.76992,34.277847,60.96
          -88.76992,34.273819,60.96
          -88.76992,34.269608,60.96
          -88.769897,34.267101,0
          -88.769897,34.265545,0
          -88.769897,34.264355,0
          -88.76973,34.263405,0
          -88.769478,34.263302,0
          -88.769257,34.263309,0
          -88.769012,34.263313,0
          -88.76873,34.263332,0
          -88.76857,34.263588,0
          -88.76857,34.263798,0
          -88.768562,34.264023,0
          -88.768562,34.264332,0
          -88.768562,34.264618,0
          -88.768562,34.264847,0
          -88.768562,34.26511,0
          -88.768562,34.265339,0
          -88.768562,34.2659,0
          -88.768562,34.266346,0
          -88.768578,34.266861,0
          -88.768311,34.267067,0
          -88.768021,34.267067,0
          -88.767731,34.267067,0
          -88.767456,34.267067,0
          -88.767242,34.267067,0
          -88.766983,34.267067,0
          -88.766769,34.266861,0
          -88.766754,34.266647,0
          -88.766754,34.266438,0
        </coordinates>
      </LineString>
    </Placemark>
  </Document>
</kml>