<?xml version='1.0' encoding='utf-8'?>
<kml xmlns="http://www.opengis.net/kml/2.2">
  <Document>
    <Placemark>
      <name>NK541-2025-09-27</name>
      <TimeStamp>
        <when>2025-09-27</when>
      </TimeStamp>
      <LineString>
        <altitudeMode>absolute</altitudeMode>
        <coordinates>
          -84.433037,33.638275,0
          -84.43325,33.638275,0
          -84.433464,33.638271,0
          -84.433685,33.638283,0
          -84.433899,33.638191,0
          -84.433922,33.637985,0
          -84.433922,33.637768,0
          -84.433922,33.63747,0
          -84.433922,33.637264,0
          -84.433891,33.637054,0
          -84.433784,33.636852,0
          -84.43351,33.636681,0
          -84.43325,33.636635,0
          -84.432983,33.636635,0
          -84.432777,33.636635,0
          -84.432495,33.636646,0
          -84.432251,33.636635,0
          -84.431992,33.636635,0
          -84.43145,33.636635,0
          -84.430862,33.636635,0
          -84.430321,33.636635,0
          -84.429863,33.636635,0
          -84.42939,33.636635,0
          -84.428856,33.636635,0
          -84.428162,33.636635,0
          -84.427551,33.6366,0
          -84.427338,33.636589,0
          -84.427132,33.636566,0
          -84.426468,33.636539,0
          -84.425827,33.636543,0
          -84.425552,33.636539,0
          -84.425255,33.636539,0
          -84.424713,33.636539,0
          -84.424118,33.636543,0
          -84.423607,33.636539,0
          -84.42305,33.636551,0
          -84.422562,33.636555,0
          -84.422096,33.636543,0
          -84.421822,33.636463,0
          -84.421593,33.636337,0
          -84.421219,33.636147,0
          -84.420822,33.635979,0
          -84.420547,33.635841,0
          -84.420341,33.635799,0
          -84.420052,33.635811,0
          -84.419701,33.635811,0
          -84.419319,33.635818,0
          -84.41906,33.635811,0
          -84.418594,33.635822,0
          -84.418259,33.635822,0
          -84.417961,33.635811,0
          -84.417244,33.635818,0
          -84.416641,33.635807,0
          -84.415916,33.635811,0
          -84.415298,33.635822,0
          -84.414665,33.635818,0
          -84.413971,33.635822,0
          -84.413383,33.635807,0
          -84.412811,33.635822,0
          -84.412163,33.635811,0
          -84.411659,33.635811,0
          -84.411057,33.635811,0
          -84.410461,33.635818,0
          -84.409889,33.635818,0
          -84.409531,33.635818,0
          -84.409317,33.635811,0
          -84.409081,33.635639,0
          -84.409042,33.63533,0
          -84.409073,33.635109,0
          -84.409073,33.634731,0
          -84.409286,33.634651,0
          -84.4095,33.634701,0
          -84.409752,33.634701,0
          -84.410248,33.634701,0
          -84.410469,33.634701,0
          -84.410774,33.634701,0
          -84.411423,33.634701,0
          -84.412865,33.634712,0
          -84.417572,33.634689,312.42
          -84.423065,33.634689,297.18
          -84.429985,33.634689,358.14
          -84.43634,33.634644,449.58
          -84.441833,33.634552,541.02
          -84.448586,33.634411,647.7
          -84.454994,33.634319,731.52
          -84.462204,33.63427,792.48
          -84.470154,33.634224,845.82
          -84.476509,33.633713,899.16
          -84.478516,33.633247,914.4
          -84.480347,33.632736,929.64
          -84.482407,33.632038,944.88
          -84.484413,33.63121,960.12
          -84.486374,33.630341,967.74
          -84.488731,33.629288,982.98
          -84.490524,33.628452,998.22
          -84.492821,33.627411,1013.46
          -84.494896,33.626495,1028.7
          -84.497055,33.625473,1043.94
          -84.499115,33.624542,1059.18
          -84.501343,33.623474,1082.04
          -84.503746,33.622402,1104.9
          -84.505997,33.621323,1120.14
          -84.508095,33.620399,1143
          -84.510841,33.619095,1165.86
          -84.519821,33.615044,1249.68
          -84.527496,33.611649,1310.64
          -84.538788,33.606766,1409.7
          -84.546799,33.603378,1508.76
          -84.55835,33.59848,1653.54
          -84.568924,33.59256,1775.46
          -84.571152,33.590839,1805.94
          -84.573425,33.588867,1836.42
          -84.575615,33.586697,1874.52
          -84.577629,33.584427,1905
          -84.579422,33.581863,1943.1
          -84.580826,33.57962,1973.58
          -84.582062,33.57724,2004.06
          -84.583221,33.574406,2042.16
          -84.583908,33.57217,2080.26
          -84.584717,33.568913,2118.36
          -84.584915,33.566986,2148.84
          -84.585144,33.564285,2186.94
          -84.585228,33.561275,2232.66
          -84.585228,33.558483,2270.76
          -84.585175,33.556015,2301.24
          -84.585083,33.553116,2346.96
          -84.585052,33.550571,2385.06
          -84.584946,33.548008,2415.54
          -84.584885,33.545448,2446.02
          -84.584808,33.543091,2476.5
          -84.584747,33.540207,2514.6
          -84.584641,33.536976,2552.7
          -84.584579,33.534462,2583.18
          -84.584511,33.531876,2621.28
          -84.584244,33.51519,2827.02
          -84.583633,33.496811,2979.42
          -84.582619,33.491402,3002.28
          -84.581833,33.48875,3017.52
          -84.580658,33.48563,3025.14
          -84.579483,33.483116,3032.76
          -84.578079,33.480648,3040.38
          -84.576622,33.478367,3055.62
          -84.574783,33.476028,3063.24
          -84.572807,33.473785,3078.48
          -84.570343,33.471432,3101.34
          -84.568306,33.469711,3124.2
          -84.565445,33.46756,3147.06
          -84.563057,33.46603,3169.92
          -84.560287,33.464355,3192.78
          -84.557426,33.462845,3208.02
          -84.55397,33.461288,3230.88
          -84.551514,33.460304,3238.5
          -84.547928,33.459091,3253.74
          -84.544388,33.458073,3276.6
          -84.540863,33.457279,3284.22
          -84.53743,33.456665,3299.46
          -84.533684,33.456207,3314.7
          -84.530266,33.455975,3329.94
          -84.526779,33.455841,3337.56
          -84.522987,33.455795,3352.8
          -84.519196,33.45575,3368.04
          -84.514519,33.455742,3383.28
          -84.511208,33.455791,3398.52
          -84.506508,33.455795,3413.76
          -84.502884,33.455841,3421.38
          -84.497925,33.455883,3436.62
          -84.494781,33.455929,3444.24
          -84.490959,33.455933,3451.86
          -84.486267,33.455975,3474.72
          -84.482613,33.456024,3489.96
          -84.456902,33.456253,3642.36
          -84.428421,33.456394,3848.1
          -84.364685,33.457047,4282.44
          -84.355606,33.458256,4335.78
          -84.351181,33.459049,4358.64
          -84.347206,33.459961,4381.5
          -84.342491,33.461189,4404.36
          -84.339348,33.462166,4427.22
          -84.334473,33.46389,4457.7
          -84.330605,33.465427,4488.18
          -84.326935,33.467102,4511.04
          -84.322594,33.469254,4541.52
          -84.319847,33.47081,4564.38
          -84.31617,33.473007,4594.86
          -84.312614,33.475342,4625.34
          -84.30941,33.477631,4655.82
          -84.305328,33.480789,4693.92
          -84.302765,33.482803,4716.78
          -84.299637,33.485367,4739.64
          -84.295792,33.48848,4770.12
          -84.29277,33.490936,4792.98
          -84.290024,33.493263,4815.84
          -84.286888,33.495823,4838.7
          -84.283859,33.498337,4869.18
          -84.279991,33.501553,4899.66
          -84.277115,33.503952,4922.52
          -84.273827,33.506718,4945.38
          -84.223824,33.548309,5227.32
          -84.17215,33.59079,5631.18
          -84.12088,33.632736,5974.08
          -84.066353,33.677238,6248.4
          -84.013077,33.720627,6568.44
          -83.959518,33.764244,6835.14
          -83.902138,33.810974,7155.18
          -83.842613,33.85936,7391.4
          -83.784935,33.906143,7612.38
          -83.725296,33.95343,7825.74
          -83.657639,33.995499,8145.78
          -83.589424,34.037247,8427.72
          -83.521271,34.07917,8732.52
          -83.455345,34.119598,9052.56
          -83.388695,34.160294,9281.16
          -83.321342,34.201229,9448.8
          -83.250916,34.244156,9448.8
          -83.181137,34.286591,9448.8
          -83.114029,34.327339,9448.8
          -83.04969,34.366745,9448.8
          -82.980354,34.409134,9441.18
          -82.912331,34.450657,9433.56
          -82.847229,34.490524,9448.8
          -82.779068,34.531891,9448.8
          -82.709366,34.57402,9448.8
          -82.639381,34.616272,9448.8
          -82.568535,34.659073,9448.8
          -82.499313,34.700459,9441.18
          -82.430305,34.740692,9433.56
          -82.359634,34.78183,9433.56
          -82.289429,34.822891,9448.8
          -82.218147,34.864563,9448.8
          -82.149063,34.904961,9448.8
          -82.077179,34.946686,9601.2
          -82.004082,34.989029,9784.08
          -81.931458,35.031212,10043.16
          -81.860794,35.073387,10058.4
          -81.789909,35.118164,10058.4
          -81.718941,35.162613,10058.4
          -81.646637,35.207336,10058.4
          -81.574341,35.251785,10058.4
          -81.50322,35.295502,10058.4
          -81.431641,35.339401,10066.02
          -81.361656,35.382339,10058.4
          -81.289276,35.426559,10058.4
          -81.218552,35.469727,10058.4
          -81.149483,35.511749,10058.4
          -81.075958,35.556381,10066.02
          -81.006775,35.598358,10073.64
          -80.938965,35.639374,10073.64
          -80.86618,35.683228,10066.02
          -80.7948,35.72633,10050.78
          -80.724617,35.768551,10050.78
          -80.656418,35.809433,10050.78
          -80.583603,35.853043,10050.78
          -80.511307,35.896271,10050.78
          -80.438171,35.939941,10058.4
          -80.366302,35.982742,10066.02
          -80.291534,36.027241,10073.64
          -80.218658,36.070629,10073.64
          -80.144501,36.114716,10066.02
          -80.074905,36.155865,10066.02
          -80.001068,36.199356,10058.4
          -79.932289,36.239822,10058.4
          -79.859222,36.282944,10058.4
          -79.784256,36.327118,10058.4
          -79.716507,36.36684,10050.78
          -79.643158,36.409698,10050.78
          -79.573685,36.450264,10058.4
          -79.502098,36.492065,10058.4
          -79.42823,36.534943,10058.4
          -79.354774,36.577442,10058.4
          -79.279114,36.62114,10058.4
          -79.204704,36.664078,10058.4
          -79.127594,36.708527,10058.4
          -79.05098,36.752609,10058.4
          -78.973877,36.796844,10058.4
          -78.897148,36.840744,10050.78
          -78.82457,36.881927,10058.4
          -78.746719,36.925888,10058.4
          -78.670227,36.96904,10050.78
          -78.592628,37.012711,10050.78
          -78.513618,37.057072,10043.16
          -78.43605,37.100552,10050.78
          -78.358734,37.143753,10066.02
          -78.280975,37.187027,10066.02
          -78.200325,37.225868,10073.64
          -78.118286,37.262009,10073.64
          -78.035477,37.298767,10066.02
          -77.953972,37.335732,10058.4
          -77.873726,37.38176,10050.78
          -77.802666,37.434631,10050.78
          -77.741524,37.492985,10050.78
          -77.685783,37.559967,10058.4
          -77.632553,37.626022,10066.02
          -77.579781,37.691162,10066.02
          -77.526314,37.757172,10073.64
          -77.472778,37.822906,10073.64
          -77.419876,37.887794,10073.64
          -77.367126,37.952408,10066.02
          -77.314789,38.016514,10058.4
          -77.26165,38.081451,10050.78
          -77.20887,38.145836,10043.16
          -77.157043,38.208866,10043.16
          -77.104561,38.27243,10043.16
          -77.048012,38.334278,10050.78
          -76.98938,38.395077,10050.78
          -76.930267,38.456406,10066.02
          -76.894447,38.49353,10073.64
          -76.806854,38.58403,10073.64
          -76.750488,38.642212,10058.4
          -76.695618,38.6987,10058.4
          -76.639954,38.755714,10058.4
          -76.584084,38.812912,10058.4
          -76.527954,38.870132,10058.4
          -76.471649,38.927582,10058.4
          -76.415344,38.984985,10027.92
          -76.3573,39.041874,9685.02
          -76.295631,39.09462,9334.5
          -76.235146,39.146347,9014.46
          -76.175232,39.197727,8686.8
          -76.120148,39.244812,8366.76
          -76.064796,39.291916,8221.98
          -76.011238,39.337463,8176.26
          -75.958519,39.382141,7978.14
          -75.905823,39.426674,7711.44
          -75.854187,39.470432,7421.88
          -75.80304,39.513657,7147.56
          -75.75312,39.556,6873.24
          -75.703613,39.597706,6652.26
          -75.654358,39.638905,6400.8
          -75.607315,39.678131,6202.68
          -75.593628,39.68718,6103.62
          -75.589966,39.689133,6080.76
          -75.586113,39.690903,6050.28
          -75.582474,39.692459,6027.42
          -75.578117,39.694061,6004.56
          -75.574036,39.695374,5981.7
          -75.568604,39.696861,5958.84
          -75.564621,39.697815,5943.6
          -75.560791,39.698677,5928.36
          -75.556274,39.699608,5920.74
          -75.550827,39.700699,5897.88
          -75.54718,39.701378,5882.64
          -75.542542,39.702263,5867.4
          -75.537636,39.703171,5852.16
          -75.533386,39.703938,5829.3
          -75.529297,39.704681,5814.06
          -75.524963,39.705475,5798.82
          -75.520447,39.706264,5775.96
          -75.516418,39.706963,5760.72
          -75.449707,39.718975,5448.3
          -75.407043,39.7281,5257.8
          -75.403114,39.729584,5250.18
          -75.39917,39.731266,5242.56
          -75.394691,39.733383,5234.94
          -75.391945,39.734848,5227.32
          -75.387939,39.737225,5212.08
          -75.385139,39.739014,5204.46
          -75.381531,39.7416,5189.22
          -75.378662,39.743832,5173.98
          -75.375824,39.746292,5158.74
          -75.373138,39.748901,5135.88
          -75.370728,39.751469,5120.64
          -75.368225,39.754448,5105.4
          -75.36573,39.757828,5090.16
          -75.363892,39.760731,5067.3
          -75.362152,39.763687,5052.06
          -75.360596,39.766571,5036.82
          -75.35881,39.770096,5013.96
          -75.357437,39.772934,4991.1
          -75.355759,39.776321,4960.62
          -75.35421,39.779434,4937.76
          -75.352661,39.782658,4907.28
          -75.351196,39.785545,4884.42
          -75.34967,39.788773,4853.94
          -75.348122,39.791885,4831.08
          -75.346687,39.794907,4808.22
          -75.345131,39.797974,4785.36
          -75.321426,39.845261,4511.04
          -75.297066,39.892639,4267.2
          -75.27417,39.93782,4046.22
          -75.257156,39.966679,3870.96
          -75.254913,39.969147,3863.34
          -75.252502,39.971558,3848.1
          -75.249977,39.973896,3840.48
          -75.247192,39.976273,3825.24
          -75.244301,39.978642,3817.62
          -75.241806,39.98069,3810
          -75.238808,39.983112,3802.38
          -75.235939,39.985439,3794.76
          -75.232628,39.988094,3779.52
          -75.229919,39.990234,3764.28
          -75.227943,39.991863,3749.04
          -75.224731,39.994446,3733.8
          -75.222229,39.99646,3718.56
          -75.219543,39.998657,3703.32
          -75.177368,40.033173,3421.38
          -75.161026,40.046562,3314.7
          -75.142517,40.061783,3223.26
          -75.123573,40.077286,3147.06
          -75.107658,40.090275,3055.62
          -75.091736,40.103348,2948.94
          -75.076355,40.115936,2834.64
          -75.057594,40.131382,2712.72
          -75.03949,40.146183,2659.38
          -75.023804,40.159058,2628.9
          -75.007385,40.172653,2598.42
          -74.992485,40.184868,2567.94
          -74.976624,40.197876,2529.84
          -74.960594,40.210938,2499.36
          -74.94249,40.22551,2468.88
          -74.926697,40.238113,2438.4
          -74.912025,40.249855,2423.16
          -74.893799,40.263382,2415.54
          -74.877502,40.274918,2415.54
          -74.860779,40.286819,2415.54
          -74.845215,40.297897,2385.06
          -74.828308,40.309982,2316.48
          -74.812088,40.321594,2217.42
          -74.79364,40.334747,2087.88
          -74.777008,40.346546,1981.2
          -74.760803,40.358047,1882.14
          -74.744797,40.369404,1821.18
          -74.726196,40.382629,1805.94
          -74.710213,40.394028,1805.94
          -74.691223,40.407532,1805.94
          -74.675819,40.419353,1805.94
          -74.673767,40.421448,1805.94
          -74.671997,40.423553,1805.94
          -74.669891,40.42643,1805.94
          -74.668335,40.428955,1805.94
          -74.667397,40.430851,1805.94
          -74.666321,40.433487,1805.94
          -74.665207,40.436577,1805.94
          -74.664398,40.439323,1805.94
          -74.663574,40.441956,1805.94
          -74.662842,40.444794,1805.94
          -74.662148,40.447144,1805.94
          -74.66156,40.449509,1805.94
          -74.660904,40.452171,1805.94
          -74.660217,40.454639,1805.94
          -74.659592,40.457245,1805.94
          -74.658875,40.46022,1805.94
          -74.658203,40.462738,1805.94
          -74.657593,40.465439,1805.94
          -74.656921,40.46814,1805.94
          -74.652725,40.484993,1805.94
          -74.648232,40.503006,1805.94
          -74.643295,40.521816,1805.94
          -74.639053,40.537827,1805.94
          -74.634682,40.55389,1805.94
          -74.629128,40.572601,1798.32
          -74.621635,40.590618,1737.36
          -74.614624,40.60611,1630.68
          -74.607788,40.621124,1546.86
          -74.599854,40.638752,1508.76
          -74.596481,40.646248,1501.14
          -74.592102,40.65596,1501.14
          -74.587494,40.666035,1501.14
          -74.584106,40.67363,1501.14
          -74.579651,40.683472,1501.14
          -74.575256,40.693172,1501.14
          -74.571655,40.70105,1501.14
          -74.567078,40.711143,1501.14
          -74.562584,40.721058,1501.14
          -74.55909,40.728691,1501.14
          -74.554596,40.738655,1501.14
          -74.550049,40.748611,1501.14
          -74.545479,40.758579,1501.14
          -74.541077,40.768204,1501.14
          -74.536621,40.778038,1501.14
          -74.531982,40.788116,1501.14
          -74.527321,40.798195,1501.14
          -74.524719,40.802948,1501.14
          -74.523193,40.805328,1501.14
          -74.521202,40.808018,1501.14
          -74.519386,40.810207,1501.14
          -74.517517,40.812286,1501.14
          -74.515648,40.814255,1501.14
          -74.51371,40.816257,1501.14
          -74.511475,40.818512,1501.14
          -74.509277,40.820663,1501.14
          -74.507095,40.822727,1501.14
          -74.505432,40.824326,1501.14
          -74.502411,40.827198,1501.14
          -74.499977,40.829384,1501.14
          -74.497681,40.831512,1501.14
          -74.496033,40.833115,1501.14
          -74.493347,40.835541,1501.14
          -74.491089,40.837646,1501.14
          -74.489075,40.839478,1501.14
          -74.486931,40.841488,1501.14
          -74.480286,40.847626,1501.14
          -74.471252,40.855957,1501.14
          -74.461975,40.864563,1501.14
          -74.455383,40.870743,1501.14
          -74.446602,40.878872,1501.14
          -74.437744,40.887085,1501.14
          -74.428406,40.895737,1501.14
          -74.419678,40.903702,1501.14
          -74.417236,40.90567,1501.14
          -74.414612,40.907547,1501.14
          -74.411743,40.909424,1501.14
          -74.409027,40.910992,1501.14
          -74.40609,40.912575,1501.14
          -74.403038,40.914017,1501.14
          -74.399414,40.915512,1501.14
          -74.39624,40.916656,1501.14
          -74.392609,40.917835,1501.14
          -74.389343,40.918716,1501.14
          -74.385742,40.91951,1501.14
          -74.382385,40.92009,1501.14
          -74.379692,40.920486,1501.14
          -74.375191,40.921001,1501.14
          -74.372009,40.921326,1501.14
          -74.368637,40.92165,1501.14
          -74.365112,40.921967,1501.14
          -74.360901,40.922333,1501.14
          -74.357407,40.922676,1501.14
          -74.354843,40.922909,1501.14
          -74.349724,40.923374,1501.14
          -74.346863,40.923615,1501.14
          -74.342735,40.924026,1501.14
          -74.339737,40.924305,1501.14
          -74.335434,40.924679,1501.14
          -74.332275,40.924988,1493.52
          -74.318077,40.926353,1463.04
          -74.303772,40.927689,1440.18
          -74.289368,40.929016,1409.7
          -74.274963,40.930344,1379.22
          -74.260902,40.931614,1348.74
          -74.249786,40.93259,1325.88
          -74.236115,40.933804,1295.4
          -74.225006,40.934826,1272.54
          -74.21106,40.93602,1242.06
          -74.197227,40.937294,1219.2
          -74.186707,40.938217,1203.96
          -74.176689,40.938782,1196.34
          -74.173256,40.938736,1196.34
          -74.16951,40.938503,1196.34
          -74.166206,40.938084,1196.34
          -74.162148,40.93734,1196.34
          -74.159363,40.936707,1196.34
          -74.156067,40.935699,1196.34
          -74.152283,40.93428,1196.34
          -74.149414,40.932953,1196.34
          -74.146606,40.931473,1196.34
          -74.143921,40.929749,1196.34
          -74.141426,40.927937,1196.34
          -74.139114,40.92598,1196.34
          -74.137024,40.923935,1196.34
          -74.135315,40.921967,1196.34
          -74.133621,40.919788,1196.34
          -74.13208,40.917618,1196.34
          -74.13031,40.915043,1196.34
          -74.128815,40.912762,1196.34
          -74.127808,40.911163,1196.34
          -74.12632,40.908989,1196.34
          -74.124947,40.906895,1196.34
          -74.12323,40.904297,1196.34
          -74.121948,40.902424,1196.34
          -74.120445,40.900284,1196.34
          -74.119263,40.898529,1196.34
          -74.117554,40.896103,1196.34
          -74.116516,40.894604,1196.34
          -74.115082,40.892605,1196.34
          -74.109085,40.884315,1196.34
          -74.103279,40.876541,1196.34
          -74.097168,40.868408,1196.34
          -74.091431,40.860855,1196.34
          -74.085739,40.853359,1196.34
          -74.081116,40.847305,1196.34
          -74.075317,40.839439,1196.34
          -74.074097,40.83728,1196.34
          -74.07312,40.83522,1196.34
          -74.072449,40.833252,1196.34
          -74.071777,40.830688,1196.34
          -74.071449,40.828781,1196.34
          -74.071198,40.826637,1196.34
          -74.070984,40.824417,1196.34
          -74.070824,40.822124,1196.34
          -74.07074,40.819839,1196.34
          -74.070679,40.81778,1196.34
          -74.070618,40.815811,1196.34
          -74.070572,40.813789,1196.34
          -74.070511,40.811695,1196.34
          -74.070496,40.809265,1196.34
          -74.070496,40.807159,1196.34
          -74.07045,40.80518,1188.72
          -74.070435,40.803131,1188.72
          -74.070435,40.801025,1181.1
          -74.070435,40.799149,1173.48
          -74.070374,40.791504,1135.38
          -74.07032,40.783672,1104.9
          -74.070251,40.778229,1051.56
          -74.070137,40.771381,975.36
          -74.070007,40.764175,876.3
          -74.070259,40.760441,822.96
          -74.070557,40.75882,800.1
          -74.071136,40.757229,777.24
          -74.072006,40.755226,754.38
          -74.072937,40.753555,739.14
          -74.073822,40.752014,731.52
          -74.074821,40.750431,716.28
          -74.075684,40.748978,701.04
          -74.076569,40.747639,685.8
          -74.077629,40.745918,678.18
          -74.078499,40.744568,670.56
          -74.079376,40.743172,662.94
          -74.080261,40.741882,655.32
          -74.081116,40.740509,647.7
          -74.082214,40.738907,632.46
          -74.082947,40.737808,624.84
          -74.083748,40.736561,617.22
          -74.084717,40.735153,601.98
          -74.085632,40.733871,594.36
          -74.089294,40.72879,548.64
          -74.092484,40.724224,502.92
          -74.095291,40.720173,449.58
          -74.098473,40.715054,388.62
          -74.101868,40.709885,327.66
          -74.104721,40.706348,281.94
          -74.105965,40.704952,266.7
          -74.107025,40.703926,259.08
          -74.108215,40.702927,251.46
          -74.109802,40.701736,236.22
          -74.111214,40.700855,228.6
          -74.113403,40.699768,213.36
          -74.115021,40.699177,205.74
          -74.116638,40.698761,190.5
          -74.125122,40.698624,144.78
          -74.134995,40.699596,99.06
          -74.139343,40.699951,83.82
          -74.148315,40.700638,38.1
          -74.155907,40.701134,0
          -74.1651,40.70179,0
          -74.170692,40.70219,0
          -74.173943,40.702351,0
          -74.176201,40.702412,0
          -74.17662,40.70237,0
          -74.176964,40.702271,0
          -74.17733,40.702171,0
          -74.17775,40.701988,0
          -74.177979,40.7019,0
          -74.178192,40.701859,0
          -74.178452,40.701778,0
          -74.178658,40.70171,0
          -74.178917,40.701599,0
          -74.179169,40.70142,0
          -74.179237,40.70116,0
          -74.179176,40.700932,0
          -74.178871,40.700771,0
          -74.178589,40.700748,0
          -74.178329,40.700748,0
          -74.177994,40.70071,0
          -74.177788,40.700691,0
          -74.177567,40.700691,0
          -74.177254,40.700668,0
          -74.17704,40.700649,0
          -74.176804,40.70063,0
          -74.176559,40.700619,0
          -74.176208,40.7006,0
          -74.175972,40.700581,0
          -74.175591,40.700562,0
          -74.174713,40.700489,0
          -74.174072,40.700451,0
          -74.173813,40.70026,0
          -74.173729,40.699951,0
          -74.17379,40.699711,0
          -74.173798,40.699509,0
          -74.173531,40.699329,0
          -74.173286,40.699261,0
          -74.172852,40.699009,0
          -74.172569,40.698849,0
          -74.172287,40.698639,0
          -74.17202,40.69846,0
          -74.17173,40.698231,0
          -74.171463,40.698002,0
          -74.171249,40.697811,0
          -74.171028,40.697578,0
          -74.170761,40.697269,0
          -74.170624,40.69706,0
          -74.170471,40.696838,0
          -74.170341,40.696571,0
          -74.170181,40.696251,0
          -74.170036,40.695919,0
          -74.169952,40.69566,0
          -74.169884,40.695431,0
          -74.16983,40.695229,0
          -74.169792,40.695,0
          -74.169838,40.694778,0
          -74.170113,40.69453,0
          -74.170219,40.694321,0
          -74.170349,40.694099,0
          -74.170532,40.693829,0
          -74.170692,40.693569,0
          -74.170891,40.693241,0
          -74.171112,40.692902,0
          -74.171478,40.692379,0
          -74.171768,40.691891,0
          -74.172043,40.691448,0
          -74.172379,40.690941,0
          -74.172707,40.690411,0
          -74.173012,40.68993,0
          -74.173317,40.689449,0
          -74.173569,40.68906,0
          -74.173752,40.68877,0
          -74.173897,40.688519,0
          -74.174057,40.68829,0
          -74.174263,40.688179,0
          -74.174522,40.688259,0
          -74.174759,40.68837,0
          -74.174973,40.688461,0
          -74.175194,40.68853,0
          -74.175461,40.68866,0
          -74.17572,40.688751,0
          -74.176605,40.688885,0
          -74.176674,40.688683,0
          -74.176834,40.688473,0
        </coordinates>
      </LineString>
    </Placemark>
  </Document>
</kml>