<?xml version='1.0' encoding='utf-8'?>
<kml xmlns="http://www.opengis.net/kml/2.2">
  <Document>
    <Placemark>
      <name>NZ952-2025-12-11</name>
      <TimeStamp>
        <when>2025-12-11</when>
      </TimeStamp>
      <LineString>
        <altitudeMode>absolute</altitudeMode>
        <coordinates>
          174.776932,-37.00526,0
          174.777023,-37.005478,0
          174.777115,-37.005684,0
          174.777206,-37.00589,0
          174.777313,-37.006096,0
          174.777283,-37.006306,0
          174.777161,-37.006508,0
          174.776947,-37.006622,0
          174.777161,-37.006542,0
          174.77739,-37.00647,0
          174.777664,-37.006393,0
          174.777908,-37.006325,0
          174.778275,-37.006226,0
          174.778641,-37.006119,0
          174.779053,-37.006016,0
          174.779449,-37.005924,0
          174.779709,-37.005932,0
          174.779938,-37.005993,0
          174.780167,-37.006119,0
          174.780365,-37.006382,0
          174.780426,-37.006645,0
          174.780396,-37.006851,0
          174.780289,-37.007057,0
          174.780151,-37.007286,0
          174.780075,-37.007561,0
          174.78009,-37.007801,0
          174.780151,-37.008018,0
          174.780243,-37.008224,0
          174.780319,-37.008453,0
          174.780441,-37.008682,0
          174.78067,-37.008888,0
          174.780914,-37.009014,0
          174.781128,-37.009098,0
          174.781372,-37.009205,0
          174.781631,-37.009319,0
          174.781937,-37.00946,0
          174.782166,-37.009598,0
          174.78241,-37.009781,0
          174.782608,-37.009987,0
          174.782745,-37.010227,0
          174.782913,-37.010437,0
          174.783127,-37.010578,0
          174.783401,-37.010704,0
          174.783615,-37.010738,0
          174.78389,-37.010731,0
          174.784134,-37.010685,0
          174.784348,-37.010624,0
          174.784607,-37.010559,0
          174.784882,-37.010483,0
          174.785095,-37.010426,0
          174.785355,-37.010345,0
          174.785629,-37.010273,0
          174.786301,-37.01009,0
          174.786987,-37.009903,0
          174.787811,-37.009678,0
          174.788437,-37.009495,0
          174.789215,-37.009285,0
          174.790009,-37.00906,0
          174.790863,-37.008831,0
          174.791611,-37.008621,0
          174.792404,-37.008408,0
          174.792664,-37.008331,0
          174.792969,-37.008247,0
          174.793213,-37.008179,0
          174.793442,-37.008121,0
          174.793762,-37.00803,0
          174.793976,-37.007973,0
          174.794189,-37.007904,0
          174.794876,-37.007725,0
          174.7957,-37.007492,0
          174.796448,-37.007282,0
          174.797195,-37.00708,0
          174.798172,-37.006805,0
          174.798996,-37.006573,0
          174.799866,-37.006336,0
          174.800781,-37.006084,0
          174.80162,-37.005852,0
          174.802338,-37.005661,0
          174.802948,-37.005489,0
          174.803436,-37.005352,0
          174.803787,-37.005268,0
          174.804016,-37.005329,0
          174.80426,-37.005478,0
          174.804504,-37.00565,0
          174.804718,-37.005798,0
          174.804947,-37.005947,0
          174.805222,-37.006165,0
          174.80542,-37.006374,0
          174.805496,-37.006588,0
          174.805283,-37.006805,0
          174.805038,-37.006851,0
          174.804825,-37.006901,0
          174.804596,-37.006966,0
          174.804382,-37.007023,0
          174.804138,-37.007084,0
          174.803818,-37.007172,0
          174.802002,-37.007679,0
          174.798553,-37.008636,0
          174.798141,-37.008728,0
          174.797623,-37.008865,0
          174.796295,-37.009262,22.86
          174.794754,-37.009682,22.86
          174.79361,-37.010006,22.86
          174.79213,-37.010426,22.86
          174.790512,-37.010845,22.86
          174.788834,-37.011311,22.86
          174.787048,-37.011795,22.86
          174.785309,-37.012287,22.86
          174.783722,-37.012756,22.86
          174.781372,-37.013397,22.86
          174.779739,-37.013855,22.86
          174.777969,-37.014336,22.86
          174.773788,-37.015453,53.34
          174.771942,-37.01601,68.58
          174.76358,-37.018291,152.4
          174.757065,-37.020081,213.36
          174.748703,-37.022324,320.04
          174.742569,-37.023972,403.86
          174.734634,-37.026077,487.68
          174.728256,-37.027817,525.78
          174.72142,-37.029694,548.64
          174.712189,-37.032257,556.26
          174.701904,-37.035141,609.6
          174.693085,-37.037613,670.56
          174.682617,-37.040546,754.38
          174.674316,-37.042923,822.96
          174.663391,-37.04599,914.4
          174.654449,-37.048508,998.22
          174.642731,-37.05167,1127.76
          174.631088,-37.054836,1242.06
          174.622314,-37.057251,1333.5
          174.610428,-37.060471,1455.42
          174.598648,-37.063248,1562.1
          174.595032,-37.063774,1592.58
          174.592209,-37.06398,1615.44
          174.589233,-37.064117,1638.3
          174.586075,-37.064053,1661.16
          174.582336,-37.063843,1699.26
          174.578903,-37.063354,1729.74
          174.575623,-37.062752,1760.22
          174.572525,-37.061966,1783.08
          174.569595,-37.061096,1813.56
          174.567032,-37.060181,1836.42
          174.56369,-37.058807,1866.9
          174.561417,-37.057674,1889.76
          174.558304,-37.055954,1927.86
          174.555283,-37.053909,1965.96
          174.55246,-37.05167,2004.06
          174.550064,-37.049576,2042.16
          174.547729,-37.047153,2080.26
          174.545807,-37.044937,2110.74
          174.544113,-37.04274,2141.22
          174.542664,-37.040592,2164.08
          174.541321,-37.038345,2186.94
          174.539917,-37.035416,2217.42
          174.539017,-37.033283,2240.28
          174.53801,-37.030258,2263.14
          174.537399,-37.027649,2293.62
          174.536926,-37.024158,2324.1
          174.536743,-37.022064,2346.96
          174.53688,-37.018158,2385.06
          174.537216,-37.015182,2415.54
          174.537766,-37.0121,2446.02
          174.538513,-37.009277,2476.5
          174.539322,-37.006748,2491.74
          174.54039,-37.004143,2514.6
          174.541962,-37.000946,2545.08
          174.543381,-36.998554,2567.94
          174.544983,-36.996086,2590.8
          174.547379,-36.993015,2621.28
          174.549408,-36.990688,2644.14
          174.551498,-36.988453,2667
          174.554306,-36.985565,2705.1
          174.557144,-36.982864,2735.58
          174.559326,-36.98082,2766.06
          174.562363,-36.978073,2796.54
          174.564575,-36.976044,2819.4
          174.567383,-36.97348,2849.88
          174.569717,-36.971375,2872.74
          174.572174,-36.968948,2903.22
          174.574432,-36.966572,2926.08
          174.576324,-36.964371,2948.94
          174.57872,-36.961258,2979.42
          174.580124,-36.959335,3002.28
          174.582123,-36.956192,3025.14
          174.583862,-36.953293,3055.62
          174.585205,-36.950684,3078.48
          174.586838,-36.947296,3108.96
          174.587921,-36.944786,3131.82
          174.588882,-36.942215,3154.68
          174.590103,-36.93869,3169.92
          174.59111,-36.93512,3185.16
          174.591919,-36.931892,3200.4
          174.59256,-36.92894,3208.02
          174.593094,-36.926376,3223.26
          174.593704,-36.923092,3230.88
          174.594498,-36.91951,3246.12
          174.595139,-36.916157,3253.74
          174.595779,-36.913376,3261.36
          174.596512,-36.910011,3276.6
          174.597412,-36.905869,3284.22
          174.597946,-36.903496,3291.84
          174.602661,-36.882545,3360.42
          174.607819,-36.860733,3429
          174.613373,-36.837021,3505.2
          174.618866,-36.814068,3566.16
          174.624252,-36.791473,3634.74
          174.629959,-36.767654,3733.8
          174.643707,-36.710266,4053.84
          174.657318,-36.6516,4373.88
          174.671173,-36.592804,4686.3
          174.685074,-36.533112,5097.78
          174.698578,-36.475662,5478.78
          174.712433,-36.416107,5852.16
          174.725769,-36.358978,6111.24
          174.738693,-36.302353,6370.32
          174.751755,-36.24506,6606.54
          174.765533,-36.184525,6835.14
          174.779266,-36.126446,7056.12
          174.79306,-36.067184,7261.86
          174.807251,-36.006134,7421.88
          174.822403,-35.939583,7520.94
          174.838348,-35.869942,7604.76
          174.853485,-35.803253,7741.92
          174.868469,-35.738342,7901.94
          174.884644,-35.668324,8061.96
          174.900589,-35.598774,8244.84
          174.915848,-35.531975,8450.58
          174.931335,-35.462704,8625.84
          174.947495,-35.390717,8801.1
          174.963058,-35.321556,8976.36
          174.978836,-35.252522,9144
          174.994492,-35.183258,9296.4
          175.009583,-35.116261,9464.04
          175.024933,-35.04744,9723.12
          175.040405,-34.978363,9974.58
          175.055313,-34.911209,10195.56
          175.070679,-34.844025,10416.54
          175.086029,-34.775547,10591.8
          175.101013,-34.707535,10751.82
          175.115891,-34.640404,10904.22
          175.131088,-34.571594,11033.76
          175.14595,-34.504761,11178.54
          175.160858,-34.438065,11308.08
          175.174942,-34.374729,11376.66
          175.190567,-34.303226,11452.86
          175.205261,-34.236099,11544.3
          175.219803,-34.169994,11582.4
          175.234451,-34.103054,11574.78
          175.250092,-34.032166,11574.78
          175.265015,-33.963909,11574.78
          175.279312,-33.899014,11582.4
          175.295273,-33.825787,11582.4
          175.309631,-33.759869,11582.4
          175.326263,-33.682159,11582.4
          175.339569,-33.612812,11582.4
          175.351929,-33.54694,11574.78
          175.364807,-33.478775,11582.4
          175.398407,-33.301285,11582.4
          175.411621,-33.2314,11582.4
          175.429581,-33.135742,11574.78
          175.442764,-33.065735,11582.4
          175.455994,-32.995193,11574.78
          175.468033,-32.931107,11574.78
          175.482315,-32.855301,11574.78
          175.493408,-32.795929,11582.4
          175.537247,-32.560684,11582.4
          175.547409,-32.506165,11574.78
          175.588547,-32.283649,11582.4
          175.999603,-29.994564,11581.1808
          176.232986,-27.810516,11574.78
          176.519394,-24.992867,11581.1808
          176.6772,-23.734566,11582.4
          176.962616,-21.392784,11581.1808
          177.163376,-19.252981,6957.06
          177.168228,-19.197863,6728.46
          177.173325,-19.143448,6507.48
          177.176559,-19.108763,6355.08
          177.194031,-18.920334,5570.22
          177.199234,-18.863991,5311.14
          177.203583,-18.815344,5082.54
          177.207169,-18.777079,4899.66
          177.215714,-18.684626,4457.7
          177.21991,-18.637653,4221.48
          177.223999,-18.594406,4008.12
          177.228058,-18.550644,3825.24
          177.23204,-18.505829,3596.64
          177.233795,-18.486603,3489.96
          177.235443,-18.468018,3398.52
          177.237137,-18.450375,3299.46
          177.239395,-18.426682,3192.78
          177.241013,-18.408966,3162.3
          177.24263,-18.391022,3131.82
          177.24408,-18.375519,3101.34
          177.245728,-18.357363,3017.52
          177.24733,-18.338333,2926.08
          177.248825,-18.321657,2842.26
          177.250427,-18.304386,2758.44
          177.252136,-18.287292,2667
          177.253754,-18.270126,2583.18
          177.255386,-18.252502,2499.36
          177.256912,-18.234837,2407.92
          177.258957,-18.211807,2293.62
          177.260483,-18.195145,2209.8
          177.262054,-18.177671,2125.98
          177.263474,-18.16189,2042.16
          177.265076,-18.144562,1950.72
          177.266663,-18.128036,1874.52
          177.268372,-18.110031,1783.08
          177.26976,-18.094391,1699.26
          177.271194,-18.078003,1615.44
          177.272736,-18.061523,1531.62
          177.274094,-18.046783,1455.42
          177.275101,-18.036118,1402.08
          177.275726,-18.029068,1363.98
          177.276611,-18.019579,1310.64
          177.277313,-18.011902,1272.54
          177.278046,-18.003799,1226.82
          177.278763,-17.995514,1188.72
          177.279602,-17.98597,1150.62
          177.280289,-17.978241,1143
          177.280975,-17.970699,1127.76
          177.282379,-17.961182,1104.9
          177.282898,-17.959248,1097.28
          177.284164,-17.955734,1089.66
          177.285294,-17.953243,1089.66
          177.286224,-17.951567,1082.04
          177.288116,-17.94841,1074.42
          177.289169,-17.946808,1074.42
          177.294525,-17.939556,1059.18
          177.295776,-17.938019,1051.56
          177.297028,-17.936438,1051.56
          177.309937,-17.920715,1013.46
          177.315292,-17.914032,998.22
          177.321167,-17.906799,975.36
          177.326904,-17.899704,960.12
          177.33403,-17.890823,937.26
          177.399765,-17.809258,335.28
          177.416199,-17.788774,190.5
          177.422119,-17.781509,137.16
          177.426651,-17.775879,99.06
          177.429779,-17.772034,76.2
          177.433472,-17.767406,68.58
          177.436661,-17.763449,68.58
          177.439316,-17.760132,68.58
          177.440079,-17.759224,0
          177.440338,-17.758875,0
          177.44072,-17.758421,0
          177.441299,-17.7577,0
          177.441864,-17.757002,0
          177.442047,-17.75679,0
          177.442276,-17.756477,0
          177.442474,-17.756245,0
          177.442749,-17.755909,0
          177.443192,-17.755348,0
          177.443359,-17.755142,0
          177.444397,-17.753847,0
          177.44516,-17.752905,0
          177.445709,-17.752195,0
          177.446106,-17.751719,0
          177.446396,-17.751347,0
          177.446625,-17.75116,0
          177.446869,-17.751137,0
          177.447098,-17.751205,0
          177.447357,-17.751276,0
          177.447571,-17.75132,0
          177.447784,-17.751377,0
          177.448151,-17.751463,0
          177.448563,-17.751554,0
          177.448822,-17.751614,0
          177.449081,-17.751684,0
          177.449326,-17.751753,0
          177.449646,-17.751812,0
          177.44989,-17.751881,0
          177.450104,-17.751928,0
          177.450317,-17.751984,0
        </coordinates>
      </LineString>
    </Placemark>
  </Document>
</kml>