<?xml version='1.0' encoding='utf-8'?>
<kml xmlns="http://www.opengis.net/kml/2.2">
  <Document>
    <Placemark>
      <name>QF125-2025-12-10</name>
      <TimeStamp>
        <when>2025-12-10</when>
      </TimeStamp>
      <LineString>
        <altitudeMode>absolute</altitudeMode>
        <coordinates>
          153.108505,-27.406448,0
          153.108643,-27.406664,0
          153.10878,-27.406872,0
          153.108826,-27.407089,0
          153.109573,-27.406769,0
          153.11142,-27.40543,0
          153.111954,-27.405636,0
          153.112427,-27.405849,0
          153.112701,-27.405842,0
          153.112976,-27.405594,0
          153.11348,-27.404697,0
          153.1138,-27.40415,0
          153.114258,-27.40337,0
          153.115067,-27.402473,0
          153.115448,-27.402615,0
          153.115784,-27.402775,0
          153.11615,-27.402935,0
          153.116409,-27.403049,0
          153.116806,-27.403198,0
          153.117218,-27.403233,0
          153.117538,-27.403185,0
          153.117981,-27.403069,0
          153.118759,-27.401882,0
          153.120361,-27.399076,0
          153.123383,-27.39378,0
          153.125824,-27.389521,0
          153.128998,-27.383949,0
          153.132416,-27.377838,91.44
          153.135895,-27.371429,205.74
          153.136688,-27.37011,220.98
          153.137527,-27.368805,243.84
          153.138794,-27.367176,266.7
          153.139984,-27.365891,289.56
          153.141068,-27.364708,304.8
          153.142212,-27.363602,327.66
          153.143616,-27.362366,350.52
          153.145035,-27.361217,365.76
          153.146408,-27.360077,381
          153.147827,-27.358936,396.24
          153.149521,-27.357559,403.86
          153.150909,-27.356415,411.48
          153.152313,-27.355225,426.72
          153.15387,-27.353897,434.34
          153.155167,-27.352798,449.58
          153.156876,-27.351379,464.82
          153.1586,-27.349953,480.06
          153.16008,-27.348696,487.68
          153.161621,-27.347439,495.3
          153.163193,-27.346182,502.92
          153.164856,-27.344833,518.16
          153.166824,-27.343231,533.4
          153.168381,-27.341991,541.02
          153.174179,-27.337336,586.74
          153.180038,-27.332657,647.7
          153.18782,-27.326443,716.28
          153.194519,-27.320997,800.1
          153.202682,-27.314392,906.78
          153.208649,-27.309448,975.36
          153.215332,-27.303818,1051.56
          153.221619,-27.298512,1127.76
          153.227982,-27.293655,1203.96
          153.230804,-27.291948,1234.44
          153.232635,-27.291,1257.3
          153.235229,-27.28981,1280.16
          153.238235,-27.288712,1318.26
          153.240631,-27.288038,1341.12
          153.243378,-27.287386,1371.6
          153.246063,-27.28688,1402.08
          153.249405,-27.286501,1432.56
          153.252045,-27.286362,1463.04
          153.254471,-27.286222,1485.9
          153.256943,-27.286194,1516.38
          153.25943,-27.286175,1539.24
          153.262451,-27.286129,1569.72
          153.265701,-27.286011,1607.82
          153.269104,-27.285896,1645.92
          153.271149,-27.285782,1661.16
          153.273911,-27.285664,1699.26
          153.276917,-27.285524,1729.74
          153.27977,-27.285383,1760.22
          153.283005,-27.285187,1798.32
          153.285599,-27.285049,1828.8
          153.30307,-27.284081,2019.3
          153.320007,-27.283173,2186.94
          153.337891,-27.282303,2339.34
          153.356247,-27.281521,2491.74
          153.374313,-27.280682,2636.52
          153.391953,-27.280636,2788.92
          153.395462,-27.281204,2819.4
          153.397537,-27.281708,2834.64
          153.401169,-27.282715,2872.74
          153.403946,-27.283754,2895.6
          153.40686,-27.285011,2926.08
          153.409088,-27.286148,2948.94
          153.411118,-27.287338,2964.18
          153.414139,-27.289248,2994.66
          153.416351,-27.290863,3009.9
          153.418839,-27.292786,3032.76
          153.420898,-27.294415,3048
          153.423294,-27.29631,3070.86
          153.425781,-27.298279,3086.1
          153.428223,-27.300156,3101.34
          153.430252,-27.301723,3108.96
          153.432526,-27.303452,3124.2
          153.435471,-27.30574,3139.44
          153.437439,-27.307217,3147.06
          153.440231,-27.309359,3162.3
          153.442459,-27.311033,3169.92
          153.457977,-27.322811,3246.12
          153.473557,-27.334579,3307.08
          153.489685,-27.346848,3368.04
          153.507034,-27.360077,3429
          153.524551,-27.373489,3505.2
          153.542389,-27.387268,3627.12
          153.555588,-27.400274,3718.56
          153.557541,-27.402836,3733.8
          153.559982,-27.406374,3756.66
          153.561554,-27.408979,3771.9
          153.563248,-27.411913,3787.14
          153.56488,-27.4151,3810
          153.566788,-27.419455,3832.86
          153.567902,-27.422295,3848.1
          153.569122,-27.425995,3863.34
          153.570114,-27.429417,3886.2
          153.570938,-27.432907,3901.44
          153.571655,-27.436771,3924.3
          153.572067,-27.439472,3939.54
          153.572708,-27.44408,3962.4
          153.573212,-27.447968,3985.26
          153.573685,-27.451355,4000.5
          153.574402,-27.456463,4030.98
          153.574921,-27.459908,4053.84
          153.575455,-27.463306,4076.7
          153.576019,-27.467239,4099.56
          153.576721,-27.471685,4122.42
          153.577255,-27.475296,4145.28
          153.585587,-27.529318,4495.8
          153.596954,-27.583551,4823.46
          153.599228,-27.59024,4853.94
          153.60054,-27.593885,4876.8
          153.602127,-27.597977,4899.66
          153.60376,-27.601892,4922.52
          153.605194,-27.605291,4945.38
          153.60672,-27.608643,4960.62
          153.608566,-27.612692,4991.1
          153.610199,-27.616045,5006.34
          153.611877,-27.619583,5029.2
          153.636444,-27.672455,5379.72
          153.661621,-27.726471,5852.16
          153.681625,-27.761353,6149.34
          153.684204,-27.764778,6172.2
          153.686401,-27.767578,6195.06
          153.688644,-27.770319,6217.92
          153.692017,-27.774323,6248.4
          153.69487,-27.777534,6278.88
          153.697586,-27.780441,6294.12
          153.700363,-27.783306,6316.98
          153.703064,-27.785959,6339.84
          153.706497,-27.789265,6362.7
          153.709717,-27.792206,6385.56
          153.712616,-27.794724,6408.42
          153.715683,-27.797365,6423.66
          153.718521,-27.799713,6446.52
          153.722229,-27.802765,6469.38
          153.726089,-27.80603,6492.24
          153.729202,-27.808632,6507.48
          153.732162,-27.811098,6530.34
          153.779419,-27.84993,6758.94
          153.807953,-27.868357,6880.86
          153.812485,-27.870895,6903.72
          153.81636,-27.872967,6918.96
          153.819321,-27.87455,6934.2
          153.82399,-27.876892,6957.06
          153.827774,-27.878769,6972.3
          153.832535,-27.881012,6995.16
          153.836365,-27.882751,7010.4
          153.840439,-27.884512,7033.26
          153.845139,-27.886513,7056.12
          153.848083,-27.887695,7063.74
          153.853653,-27.889912,7094.22
          153.858185,-27.891769,7109.46
          153.862122,-27.893372,7132.32
          153.927231,-27.920076,7414.26
          153.993149,-27.946983,7703.82
          154.058792,-27.973709,7955.28
          154.124069,-28.000193,8214.36
          154.190582,-28.027193,8481.06
          154.2556,-28.053497,8595.36
          154.320694,-28.079659,8839.2
          154.386078,-28.106007,9006.84
          154.457581,-28.13475,9144
          154.525665,-28.162149,9288.78
          154.596222,-28.190323,9441.18
          154.666641,-28.21843,9624.06
          154.738663,-28.247152,9837.42
          154.809647,-28.275642,10027.92
          154.882935,-28.305267,10241.28
          154.952621,-28.332994,10454.64
          155.02124,-28.360275,10652.76
          155.09198,-28.388214,10668
          155.164078,-28.416641,10668
          155.235184,-28.444839,10660.38
          155.305908,-28.472746,10668
          155.378723,-28.501236,10668
          155.450516,-28.529213,10660.38
          155.521606,-28.557005,10660.38
          155.592453,-28.584595,10668
          155.663544,-28.612152,10668
          155.734634,-28.639755,10668
          155.803848,-28.666775,10668
          155.875259,-28.694473,10668
          155.946777,-28.722172,10660.38
          156.01796,-28.749664,10668
          156.088638,-28.77701,10668
          156.161041,-28.805054,10668
          156.232407,-28.832291,10660.38
          156.304428,-28.859781,10759.44
          156.375839,-28.887293,10980.42
          156.446686,-28.914459,11155.68
          156.51741,-28.941513,11231.88
          156.588715,-28.968613,11277.6
          156.66095,-28.996038,11269.98
          156.729156,-29.02803,11269.98
          156.793549,-29.063095,11277.6
          156.857254,-29.097656,11277.6
          156.924057,-29.134048,11277.6
          156.987839,-29.168701,11277.6
          157.053253,-29.204178,11277.6
          157.075974,-29.216492,11277.6
          157.195023,-29.281124,11269.98
          157.259354,-29.315872,11269.98
          157.327759,-29.352814,11277.6
          157.408066,-29.396109,11269.98
          157.475128,-29.432053,11277.6
          157.542343,-29.468164,11277.6
          157.624512,-29.512211,11269.98
          157.695221,-29.550064,11269.98
          157.777939,-29.594282,11277.6
          157.840744,-29.627659,11277.6
          157.939835,-29.680317,11277.6
          158.023849,-29.724768,11277.6
          158.093735,-29.76178,11277.6
          158.158386,-29.796021,11277.6
          158.22467,-29.831093,11277.6
          158.289795,-29.865417,11269.98
          158.372681,-29.909077,11277.6
          158.465622,-29.957787,11277.6
          158.527237,-29.99008,11277.6
          158.589005,-30.022394,11277.6
          158.712448,-30.086876,11277.6
          158.774033,-30.118977,11277.6
          158.866653,-30.167126,11277.6
          158.959579,-30.215149,11277.6
          159.021515,-30.247208,11277.6
          159.114563,-30.295229,11277.6
          159.17688,-30.327351,11277.6
          159.207703,-30.343273,11277.6
          159.332016,-30.407173,11277.6
          159.394241,-30.439081,11277.6
          159.487961,-30.486996,11277.6
          159.581696,-30.534847,11277.6
          159.675491,-30.582611,11277.6
          159.769455,-30.630226,11277.6
          159.832275,-30.662025,11277.6
          159.95813,-30.725735,11277.6
          160.021271,-30.75762,11277.6
          160.116028,-30.805342,11277.6
          160.211029,-30.853043,11277.6
          160.306335,-30.9007,11277.6
          160.401566,-30.948229,11277.6
          160.464874,-30.979794,11277.6
          160.591614,-31.042879,11277.6
          160.65477,-31.074272,11277.6
          160.749771,-31.121349,11277.6
          160.844711,-31.168213,11277.6
          160.939896,-31.214926,11277.6
          161.003647,-31.246298,11277.6
          161.196091,-31.340754,11277.6
          161.260452,-31.372232,11277.6
          161.357529,-31.419353,11277.6
          161.454712,-31.466496,11277.6
          161.552063,-31.513767,11277.6
          161.617004,-31.545288,11277.6
          161.657379,-31.564816,11277.6
          161.94902,-31.70496,11277.6
          168.154663,-34.436142,11269.98
          169.329865,-34.90004,11269.98
          169.405487,-34.929245,11277.6
          169.514984,-34.971298,11277.6
          169.628067,-35.014893,11277.6
          169.705231,-35.044662,11269.98
          169.784836,-35.075249,11277.6
          169.883087,-35.112862,11269.98
          169.963196,-35.143261,11277.6
          170.002609,-35.158112,11277.6
          170.148788,-35.213425,11277.6
          170.235504,-35.246246,11277.6
          170.316925,-35.276962,11277.6
          170.429596,-35.31926,11277.6
          170.509506,-35.349209,11277.6
          170.58548,-35.37756,11277.6
          170.662323,-35.406048,11277.6
          170.735489,-35.433243,11277.6
          170.811829,-35.461533,11269.98
          170.891937,-35.491287,11277.6
          170.966614,-35.51889,11277.6
          171.044571,-35.547569,11277.6
          171.118729,-35.57457,11269.98
          171.196869,-35.600464,11277.6
          171.274048,-35.62545,11269.98
          171.351776,-35.650867,11277.6
          171.432098,-35.677368,11269.98
          171.50856,-35.702633,11277.6
          171.586426,-35.728363,11277.6
          171.66098,-35.752853,11277.6
          171.73616,-35.777435,11277.6
          171.813904,-35.802769,11277.6
          171.890198,-35.827652,11277.6
          171.966248,-35.852253,11269.98
          172.042679,-35.877018,11277.6
          172.12384,-35.903275,11277.6
          172.20433,-35.929157,11277.6
          172.280411,-35.953503,11269.98
          172.360962,-35.979218,11277.6
          172.437454,-36.003662,11277.6
          172.512756,-36.02766,11277.6
          172.589081,-36.051868,11269.98
          172.670074,-36.077518,11277.6
          172.751129,-36.103123,11277.6
          172.831757,-36.128494,11277.6
          172.907272,-36.152187,11277.6
          172.983917,-36.176193,11102.34
          173.063538,-36.201115,10660.38
          173.141098,-36.225586,10203.18
          173.219208,-36.249763,9806.94
          173.300674,-36.274666,9456.42
          173.375122,-36.297546,9136.38
          173.449631,-36.320572,8808.72
          173.522629,-36.343147,8481.06
          173.594559,-36.365353,8161.02
          173.665695,-36.387177,7840.98
          173.735626,-36.406082,7520.94
          173.805527,-36.423077,7216.14
          173.874542,-36.440022,6903.72
          173.945312,-36.457664,6576.06
          174.013245,-36.474335,6271.26
          174.078888,-36.490067,5966.46
          174.143036,-36.5056,5669.28
          174.207916,-36.521393,5372.1
          174.27005,-36.536339,5074.92
          174.331924,-36.55114,4785.36
          174.39325,-36.566025,4495.8
          174.454651,-36.580811,4221.48
          174.515488,-36.595505,3947.16
          174.570648,-36.608448,3649.98
          174.594498,-36.614079,3512.82
          174.616577,-36.619263,3390.9
          174.639587,-36.624573,3261.36
          174.662811,-36.630093,3177.54
          174.684845,-36.635376,3147.06
          174.705276,-36.640274,3108.96
          174.726166,-36.645264,2994.66
          174.746933,-36.650253,2910.84
          174.767242,-36.655094,2796.54
          174.78775,-36.659935,2720.34
          174.808609,-36.664867,2651.76
          174.827896,-36.6712,2583.18
          174.830994,-36.672821,2567.94
          174.83345,-36.674271,2560.32
          174.83609,-36.67598,2552.7
          174.838715,-36.677902,2537.46
          174.840942,-36.679733,2529.84
          174.843124,-36.681656,2514.6
          174.845245,-36.683769,2506.98
          174.847992,-36.686794,2491.74
          174.84993,-36.689026,2476.5
          174.851624,-36.691032,2468.88
          174.853485,-36.693264,2453.64
          174.855713,-36.695778,2446.02
          174.857697,-36.698105,2430.78
          174.859512,-36.700153,2423.16
          174.861374,-36.702251,2407.92
          174.863724,-36.70491,2392.68
          174.865707,-36.707092,2377.44
          174.867783,-36.709442,2362.2
          174.879898,-36.722919,2270.76
          174.892288,-36.736744,2179.32
          174.904053,-36.749863,2095.5
          174.915207,-36.762489,2004.06
          174.926941,-36.775909,1912.62
          174.938278,-36.788929,1828.8
          174.949799,-36.801872,1737.36
          174.960892,-36.814301,1668.78
          174.972702,-36.827614,1623.06
          174.983032,-36.839218,1592.58
          174.993271,-36.850662,1577.34
          175.002472,-36.862156,1539.24
          175.006012,-36.867828,1531.62
          175.007004,-36.869659,1524
          175.007828,-36.871262,1524
          175.008942,-36.87355,1516.38
          175.009766,-36.875237,1508.76
          175.010712,-36.877426,1501.14
          175.01149,-36.879242,1493.52
          175.012268,-36.881012,1493.52
          175.013077,-36.882889,1485.9
          175.01384,-36.884628,1478.28
          175.014648,-36.886456,1463.04
          175.01561,-36.888645,1455.42
          175.016571,-36.890739,1440.18
          175.017349,-36.892548,1424.94
          175.018112,-36.894287,1417.32
          175.020691,-36.900143,1379.22
          175.023666,-36.907173,1341.12
          175.026703,-36.9142,1295.4
          175.028915,-36.91951,1264.92
          175.030212,-36.923309,1242.06
          175.030502,-36.925049,1234.44
          175.030655,-36.92691,1219.2
          175.030594,-36.928726,1211.58
          175.03038,-36.930405,1203.96
          175.0298,-36.932602,1188.72
          175.029221,-36.934265,1181.1
          175.028214,-36.936455,1165.86
          175.027313,-36.937943,1150.62
          175.026001,-36.939854,1143
          175.024506,-36.941437,1127.76
          175.023193,-36.942783,1120.14
          175.021469,-36.944183,1112.52
          175.019333,-36.94574,1097.28
          175.017868,-36.946609,1089.66
          175.015305,-36.948044,1074.42
          175.013275,-36.949024,1059.18
          175.011276,-36.949814,1043.94
          175.008438,-36.95079,1028.7
          175.006241,-36.951492,1013.46
          175.003906,-36.952194,998.22
          175.001755,-36.952793,982.98
          174.999496,-36.953354,975.36
          174.996567,-36.954144,952.5
          174.99501,-36.954517,944.88
          174.992081,-36.955261,929.64
          174.990005,-36.955811,914.4
          174.987778,-36.95636,906.78
          174.985794,-36.956863,891.54
          174.98349,-36.957451,883.92
          174.981171,-36.958054,868.68
          174.978348,-36.958752,861.06
          174.975784,-36.959404,845.82
          174.973694,-36.959965,838.2
          174.964645,-36.962494,792.48
          174.958054,-36.96434,762
          174.94986,-36.96666,723.9
          174.944183,-36.968262,693.42
          174.93602,-36.970577,655.32
          174.930161,-36.972206,624.84
          174.922852,-36.974258,594.36
          174.915665,-36.976227,556.26
          174.909363,-36.977966,525.78
          174.907837,-36.978352,518.16
          174.906021,-36.978882,502.92
          174.903915,-36.979431,495.3
          174.90181,-36.980026,487.68
          174.90007,-36.980537,480.06
          174.892883,-36.982544,441.96
          174.887054,-36.984169,411.48
          174.879471,-36.986263,373.38
          174.873703,-36.987854,342.9
          174.866226,-36.989944,304.8
          174.860428,-36.991524,274.32
          174.853424,-36.993439,243.84
          174.84671,-36.995407,213.36
          174.839951,-36.997204,175.26
          174.832687,-36.999161,144.78
          174.827957,-37.000443,121.92
          174.820465,-37.002548,91.44
          174.815506,-37.003922,68.58
          174.808243,-37.005909,38.1
          174.806686,-37.006348,30.48
          174.801544,-37.007767,0
          174.7939,-37.009907,0
          174.789749,-37.011063,0
          174.787125,-37.011776,0
          174.786835,-37.011852,0
          174.786469,-37.011967,0
          174.786011,-37.012081,0
          174.785721,-37.01215,0
          174.785431,-37.012218,0
          174.785095,-37.012287,0
          174.784851,-37.012333,0
          174.784546,-37.01239,0
          174.784256,-37.012428,0
          174.783997,-37.012436,0
          174.783646,-37.012447,0
          174.783417,-37.012451,0
          174.783142,-37.012447,0
          174.782913,-37.012424,0
          174.782669,-37.012405,0
          174.78241,-37.012379,0
          174.782135,-37.012333,0
          174.78183,-37.012287,0
          174.781601,-37.012253,0
          174.781326,-37.012207,0
          174.781067,-37.012161,0
          174.78064,-37.012104,0
          174.780151,-37.012058,0
          174.779892,-37.012054,0
          174.779602,-37.012058,0
          174.779312,-37.012081,0
          174.779099,-37.0121,0
          174.778793,-37.012161,0
          174.77858,-37.012207,0
          174.778259,-37.012299,0
          174.77803,-37.012367,0
          174.77774,-37.012367,0
          174.777512,-37.012241,0
          174.777359,-37.01199,0
          174.777252,-37.01173,0
          174.777176,-37.01152,0
          174.777069,-37.011299,0
          174.776978,-37.011074,0
          174.776855,-37.010811,0
          174.776672,-37.010387,0
          174.776505,-37.009995,0
          174.776337,-37.009598,0
          174.776199,-37.009239,0
          174.776016,-37.008831,0
          174.775833,-37.008419,0
          174.775665,-37.007992,0
          174.775482,-37.007595,0
          174.775391,-37.007366,0
          174.775452,-37.007122,0
          174.775711,-37.006931,0
          174.775925,-37.006863,0
          174.776215,-37.006794,0
          174.77652,-37.006702,0
          174.776749,-37.006641,0
          174.777222,-37.006504,0
          174.77774,-37.006371,0
          174.778061,-37.006279,0
          174.778458,-37.006165,0
          174.778854,-37.00605,0
          174.779129,-37.00597,0
          174.779388,-37.00589,0
          174.779465,-37.005676,0
          174.779358,-37.005455,0
          174.779266,-37.005249,0
          174.779114,-37.005024,0
          174.778931,-37.004814,0
          174.779144,-37.00478,0
          174.778915,-37.004791,0
          174.779144,-37.004829,0
          174.7789,-37.004791,0
          174.779144,-37.004631,0
          174.7789,-37.004803,0
          174.779144,-37.004654,0
          174.778915,-37.004803,0
          174.779205,-37.004631,0
          174.778915,-37.004803,0
          174.778992,-37.005009,0
          174.778915,-37.004791,0
          174.779053,-37.005001,0
          174.778915,-37.004791,0
          174.779053,-37.005009,0
          174.778931,-37.004803,0
          174.779053,-37.005375,0
          174.778946,-37.004803,0
          174.779099,-37.005455,0
          174.778931,-37.004803,0
          174.779083,-37.005489,0
          174.778931,-37.004803,0
          174.779114,-37.005505,0
          174.778931,-37.004803,0
          174.779114,-37.005512,0
          174.779068,-37.004944,0
          174.77919,-37.004711,0
          174.779037,-37.004986,0
          174.779007,-37.004768,0
        </coordinates>
      </LineString>
    </Placemark>
  </Document>
</kml>