<?xml version='1.0' encoding='utf-8'?>
<kml xmlns="http://www.opengis.net/kml/2.2">
  <Document>
    <Placemark>
      <name>SK806-2025-10-24</name>
      <TimeStamp>
        <when>2025-10-24</when>
      </TimeStamp>
      <LineString>
        <altitudeMode>absolute</altitudeMode>
        <coordinates>
          -0.45042,51.468166,0
          -0.450421,51.467926,0
          -0.450153,51.467827,0
          -0.450344,51.467606,0
          -0.450554,51.467514,0
          -0.450134,51.467514,0
          -0.449641,51.467525,0
          -0.449085,51.467525,0
          -0.448639,51.467525,0
          -0.447617,51.467537,0
          -0.446892,51.467525,0
          -0.44632,51.467537,0
          -0.445957,51.467571,0
          -0.445709,51.467678,0
          -0.445576,51.467899,0
          -0.445557,51.468143,0
          -0.445557,51.468433,0
          -0.445559,51.468658,0
          -0.445559,51.468956,0
          -0.445557,51.469574,0
          -0.445576,51.470425,0
          -0.445577,51.471519,0
          -0.445595,51.472412,0
          -0.445595,51.473042,0
          -0.445595,51.47374,0
          -0.445076,51.475033,0
          -0.444679,51.475044,0
          -0.44309,51.475044,0
          -0.441895,51.475033,0
          -0.440331,51.475044,0
          -0.439045,51.475056,0
          -0.43782,51.474861,0
          -0.437467,51.474667,0
          -0.436818,51.474518,0
          -0.435944,51.474522,0
          -0.435238,51.474545,0
          -0.434628,51.474609,0
          -0.43422,51.475159,0
          -0.43422,51.475468,0
          -0.434227,51.4758,0
          -0.434227,51.476078,0
          -0.43422,51.476315,0
          -0.434227,51.476543,0
          -0.434208,51.476753,0
          -0.434189,51.477104,0
          -0.434164,51.477379,0
          -0.434608,51.477673,0
          -0.436781,51.477654,0
          -0.438366,51.47765,0
          -0.461871,51.477676,190.5
          -0.469742,51.477695,289.56
          -0.478439,51.477745,419.1
          -0.486984,51.477745,533.4
          -0.493123,51.477676,594.36
          -0.501808,51.477631,662.94
          -0.508652,51.477558,716.28
          -0.518799,51.477558,784.86
          -0.529274,51.477448,861.06
          -0.541225,51.477539,929.64
          -0.544269,51.477722,944.88
          -0.547461,51.478043,967.74
          -0.549762,51.478455,982.98
          -0.553251,51.479095,1013.46
          -0.556294,51.479874,1036.32
          -0.559158,51.480679,1066.8
          -0.562233,51.481613,1097.28
          -0.565414,51.482586,1120.14
          -0.568394,51.483536,1150.62
          -0.571289,51.484497,1173.48
          -0.574184,51.485458,1188.72
          -0.577164,51.48645,1211.58
          -0.580345,51.487518,1242.06
          -0.583389,51.488571,1264.92
          -0.586319,51.489567,1280.16
          -0.590134,51.490871,1303.02
          -0.593338,51.491943,1325.88
          -0.595856,51.492779,1333.5
          -0.599747,51.494083,1348.74
          -0.602798,51.49511,1363.98
          -0.614789,51.499146,1417.32
          -0.627334,51.503494,1470.66
          -0.633926,51.506329,1493.52
          -0.636902,51.507771,1508.76
          -0.639038,51.50898,1516.38
          -0.642471,51.511074,1531.62
          -0.644927,51.51265,1539.24
          -0.647202,51.514381,1546.86
          -0.649338,51.516197,1562.1
          -0.651703,51.518429,1577.34
          -0.653612,51.520523,1592.58
          -0.655245,51.522491,1600.2
          -0.657196,51.525135,1615.44
          -0.658586,51.527435,1630.68
          -0.659699,51.529724,1638.3
          -0.660516,51.531967,1653.54
          -0.661184,51.534393,1661.16
          -0.661704,51.536957,1676.4
          -0.661852,51.539429,1684.02
          -0.661774,51.542358,1699.26
          -0.661481,51.544327,1706.88
          -0.660813,51.547348,1714.5
          -0.659714,51.549992,1729.74
          -0.658734,51.552475,1737.36
          -0.657398,51.55481,1752.6
          -0.655365,51.557629,1760.22
          -0.65339,51.560074,1775.46
          -0.651169,51.562424,1783.08
          -0.648787,51.564743,1790.7
          -0.646115,51.566895,1805.94
          -0.643294,51.568954,1813.56
          -0.640564,51.570755,1821.18
          -0.637054,51.572849,1836.42
          -0.633316,51.57476,1844.04
          -0.630035,51.57634,1851.66
          -0.626369,51.578018,1866.9
          -0.622253,51.579788,1874.52
          -0.618439,51.581367,1882.14
          -0.614929,51.582813,1889.76
          -0.611038,51.584347,1889.76
          -0.6073,51.585838,1897.38
          -0.603209,51.587448,1905
          -0.599747,51.588818,1912.62
          -0.595016,51.590679,1920.24
          -0.591202,51.592121,1920.24
          -0.587463,51.593613,1927.86
          -0.583649,51.5951,1927.86
          -0.579529,51.596684,1935.48
          -0.55674,51.605713,1943.1
          -0.5292,51.616562,1950.72
          -0.501288,51.627594,1950.72
          -0.474713,51.637894,1950.72
          -0.447322,51.648468,1950.72
          -0.42045,51.658768,1950.72
          -0.396547,51.668015,1950.72
          -0.369492,51.678524,1950.72
          -0.343094,51.688812,1950.72
          -0.315399,51.699657,1950.72
          -0.289536,51.709808,2072.64
          -0.265825,51.718964,2278.38
          -0.242664,51.728027,2468.88
          -0.215149,51.738949,2712.72
          -0.186691,51.749981,2979.42
          -0.158234,51.760689,3177.54
          -0.133321,51.770279,3261.36
          -0.106735,51.780567,3375.66
          -0.074692,51.792904,3573.78
          -0.043351,51.804977,3779.52
          0.026798,51.832169,4236.72
          0.09858,51.859909,4709.16
          0.170898,51.887775,5120.64
          0.244132,51.916637,5501.64
          0.262887,51.926182,5600.7
          0.267029,51.928528,5623.56
          0.272293,51.931503,5654.04
          0.27662,51.933956,5676.9
          0.280533,51.936172,5699.76
          0.284958,51.938736,5722.62
          0.289459,51.941254,5753.1
          0.293806,51.943779,5775.96
          0.359881,51.982834,6088.38
          0.379257,51.997513,6217.92
          0.38256,52.000248,6233.16
          0.386276,52.003235,6256.02
          0.390093,52.00639,6278.88
          0.393624,52.009369,6294.12
          0.397339,52.01239,6316.98
          0.401707,52.016026,6339.84
          0.458287,52.062626,6690.36
          0.514603,52.108932,7056.12
          0.572702,52.156616,7391.4
          0.631485,52.204834,7696.2
          0.691299,52.253769,8039.1
          0.75119,52.302612,8290.56
          0.816441,52.355671,8503.92
          0.877609,52.406021,8694.42
          0.941058,52.457809,8961.12
          1.004072,52.508781,9174.48
          1.066772,52.560501,9372.6
          1.129316,52.613293,9532.62
          1.191711,52.665207,9692.64
          1.256993,52.71822,9791.7
          1.324559,52.77227,9944.1
          1.391654,52.825478,10203.18
          1.457901,52.878891,10302.24
          1.526794,52.935196,10416.54
          1.595917,52.9888,10637.52
          1.664036,53.041527,10789.92
          1.731796,53.093994,10927.08
          1.801679,53.147873,11026.14
          1.872038,53.202038,11193.78
          1.940864,53.254829,11277.6
          2.009164,53.307037,11277.6
          2.079477,53.36055,11277.6
          2.148926,53.413239,11277.6
          2.219944,53.467026,11285.22
          2.290963,53.520584,11285.22
          2.362217,53.574097,11292.84
          2.431291,53.625851,11292.84
          2.503025,53.679432,11277.6
          2.573312,53.731934,11269.98
          2.645743,53.785675,11269.98
          2.716612,53.837894,11269.98
          2.789115,53.891327,11269.98
          2.861212,53.944363,11277.6
          2.933036,53.996887,11285.22
          3.004519,54.049103,11277.6
          3.081037,54.104599,11277.6
          3.154332,54.157745,11277.6
          3.229117,54.211807,11269.98
          3.296134,54.260101,11269.98
          3.369814,54.312927,11269.98
          3.443083,54.36525,11277.6
          3.516291,54.417286,11277.6
          3.589949,54.469608,11285.22
          3.662692,54.521236,11285.22
          3.736806,54.573395,11277.6
          3.80901,54.624302,11269.98
          3.882051,54.675522,11269.98
          3.955644,54.726837,11269.98
          4.029402,54.77853,11277.6
          4.103643,54.830856,11285.22
          4.178601,54.883621,11285.22
          4.252458,54.935131,11292.84
          4.32724,54.98735,11292.84
          4.398193,55.0368,11285.22
          4.471935,55.08815,11277.6
          4.546159,55.14006,11269.98
          4.619509,55.191559,11269.98
          4.688748,55.24028,11262.36
          4.7654,55.294327,11269.98
          4.839977,55.346653,11269.98
          4.914362,55.398422,11277.6
          4.982799,55.453125,11277.6
          5.047445,55.513359,11277.6
          5.109844,55.570988,11285.22
          5.172813,55.629272,11277.6
          5.235152,55.68663,11277.6
          5.297907,55.744125,11277.6
          5.361495,55.802582,11277.6
          5.425959,55.861336,11285.22
          5.487242,55.917011,11285.22
          5.550842,55.974701,11285.22
          5.615215,56.032833,11285.22
          5.679846,56.090839,11285.22
          5.74379,56.14819,11285.22
          5.807476,56.205124,11285.22
          5.871693,56.262085,11285.22
          5.932034,56.315689,11277.6
          5.996561,56.372711,11269.98
          6.05871,56.427567,11262.36
          6.124105,56.484901,11262.36
          6.187716,56.540543,11269.98
          6.254145,56.598396,11277.6
          6.319974,56.655472,11277.6
          6.385202,56.711975,11285.22
          6.450835,56.768547,11285.22
          6.51824,56.826324,11269.98
          6.5839,56.882492,11269.98
          6.649561,56.938385,11277.6
          6.71433,56.993439,11269.98
          6.779982,57.049114,11277.6
          6.845191,57.104233,11277.6
          6.91359,57.161724,11277.6
          6.979242,57.216797,11285.22
          7.046932,57.27317,11285.22
          7.114179,57.328941,11277.6
          7.18257,57.385529,11277.6
          7.248053,57.439548,11269.98
          7.315693,57.495163,11277.6
          7.384186,57.551239,11277.6
          7.452164,57.606674,11285.22
          7.520914,57.662613,11277.6
          7.592261,57.720211,11277.6
          7.661591,57.77626,11285.22
          7.729248,57.830868,11292.84
          7.798645,57.886311,11285.22
          7.867767,57.941521,11277.6
          7.937622,57.996918,11269.98
          8.005755,58.050797,11269.98
          8.074127,58.104782,11277.6
          8.141844,58.157959,11285.22
          8.210815,58.211899,11277.6
          8.279084,58.265076,11277.6
          8.347394,58.318268,11269.98
          8.416857,58.372284,11262.36
          8.489774,58.428589,11262.36
          8.559236,58.481781,11269.98
          8.630585,58.53632,11277.6
          8.703475,58.588623,11269.98
          8.776304,58.640305,10965.18
          8.852145,58.693542,10591.8
          8.925934,58.74548,10241.28
          8.998352,58.79599,9936.48
          9.068573,58.844963,9707.88
          9.137689,58.892864,9364.98
          9.206543,58.940208,9006.84
          9.276628,58.988434,8671.56
          9.34433,59.034805,8275.32
          9.41217,59.081268,7924.8
          9.480349,59.127674,7604.76
          9.54657,59.172729,7269.48
          9.607828,59.214073,6926.58
          9.672546,59.25769,6659.88
          9.736539,59.300709,6347.46
          9.800995,59.343018,5966.46
          9.863068,59.382935,5661.66
          9.925579,59.423187,5402.58
          9.988562,59.463547,5105.4
          10.050975,59.503304,4899.66
          10.112821,59.542686,4709.16
          10.173056,59.580997,4442.46
          10.232941,59.618912,4122.42
          10.292768,59.656551,3840.48
          10.351776,59.693848,3550.92
          10.378481,59.710648,3413.76
          10.402405,59.725662,3299.46
          10.428393,59.741882,3177.54
          10.455385,59.758736,3063.24
          10.479584,59.772125,2979.42
          10.483795,59.774002,2964.18
          10.488464,59.776016,2948.94
          10.492767,59.777847,2941.32
          10.497345,59.77977,2926.08
          10.501414,59.781452,2910.84
          10.506813,59.783688,2895.6
          10.51098,59.785408,2887.98
          10.515053,59.787086,2872.74
          10.519788,59.78904,2865.12
          10.52405,59.790855,2849.88
          10.551137,59.802029,2735.58
          10.583405,59.815338,2583.18
          10.610229,59.826324,2476.5
          10.638175,59.837875,2377.44
          10.663605,59.848343,2286
          10.695853,59.861523,2141.22
          10.721425,59.872044,2019.3
          10.753626,59.885078,1882.14
          10.77986,59.895786,1798.32
          10.805878,59.906342,1744.98
          10.834888,59.918179,1699.26
          10.859511,59.928185,1653.54
          10.887735,59.939636,1600.2
          10.914917,59.950607,1546.86
          10.937364,59.959579,1501.14
          10.952138,59.96553,1478.28
          10.966249,59.971252,1455.42
          10.979225,59.976517,1440.18
          10.98576,59.979813,1440.18
          10.98829,59.9813,1440.18
          10.990743,59.983212,1440.18
          10.993096,59.985119,1440.18
          10.99542,59.987366,1440.18
          10.997118,59.98917,1440.18
          10.998491,59.990845,1440.18
          11.00044,59.993317,1440.18
          11.001861,59.995056,1440.18
          11.003298,59.996944,1440.18
          11.004607,59.99881,1440.18
          11.006217,60.001099,1447.8
          11.007354,60.002701,1447.8
          11.008693,60.004623,1447.8
          11.009871,60.006393,1447.8
          11.010949,60.008068,1440.18
          11.012519,60.01049,1447.8
          11.013604,60.012314,1440.18
          11.014647,60.013962,1447.8
          11.015657,60.015656,1447.8
          11.016737,60.017471,1440.18
          11.017914,60.019287,1432.56
          11.018895,60.021057,1417.32
          11.023211,60.028458,1371.6
          11.027527,60.036026,1318.26
          11.03145,60.043121,1272.54
          11.03459,60.048801,1234.44
          11.038797,60.05603,1188.72
          11.042437,60.062347,1150.62
          11.046556,60.069424,1112.52
          11.050352,60.075897,1066.8
          11.054011,60.082321,1028.7
          11.057834,60.088852,982.98
          11.060486,60.093613,944.88
          11.064017,60.099918,914.4
          11.066666,60.104431,883.92
          11.070241,60.11055,845.82
          11.07363,60.116535,807.72
          11.077064,60.122589,777.24
          11.079618,60.126984,746.76
          11.08208,60.131195,716.28
          11.082743,60.132477,708.66
          11.084224,60.134922,693.42
          11.084826,60.136093,685.8
          11.085679,60.13765,670.56
          11.086436,60.138885,670.56
          11.087005,60.139801,662.94
          11.087857,60.141312,655.32
          11.088442,60.142418,647.7
          11.089088,60.143509,640.08
          11.089846,60.144791,632.46
          11.090508,60.145889,624.84
          11.091188,60.147026,617.22
          11.091777,60.148052,609.6
          11.092403,60.149139,601.98
          11.093053,60.150238,594.36
          11.093729,60.151382,586.74
          11.095799,60.154896,571.5
          11.098546,60.159782,541.02
          11.101116,60.164063,510.54
          11.103745,60.168583,480.06
          11.106515,60.173538,449.58
          11.109336,60.178356,411.48
          11.109924,60.179428,411.48
          11.110587,60.180588,411.48
          11.111298,60.181896,411.48
          11.111886,60.182873,411.48
          11.112376,60.183712,411.48
          11.112955,60.184662,419.1
          11.113529,60.185711,0
          11.113666,60.185932,0
          11.113996,60.186516,0
          11.114447,60.187294,0
          11.115654,60.189411,0
          11.11657,60.191113,0
          11.116889,60.191914,0
          11.116938,60.192184,0
          11.116962,60.192406,0
          11.116938,60.192696,0
          11.116861,60.193005,0
          11.116742,60.19323,0
          11.11653,60.193451,0
          11.116324,60.193558,0
          11.116079,60.193638,0
          11.115786,60.193695,0
          11.115441,60.193748,0
          11.115172,60.19379,0
          11.114825,60.19384,0
          11.114584,60.193871,0
          11.114289,60.193905,0
          11.114019,60.193951,0
          11.113712,60.193989,0
          11.113382,60.194012,0
          11.113145,60.194,0
          11.112931,60.193966,0
          11.112695,60.193886,0
          11.112474,60.193661,0
          11.112363,60.193439,0
          11.112245,60.193222,0
          11.112126,60.193005,0
          11.111959,60.192741,0
          11.1117,60.192272,0
          11.111392,60.191769,0
          11.111203,60.191563,0
          11.110979,60.191448,0
          11.110758,60.191391,0
          11.11054,60.19138,0
          11.110232,60.19138,0
          11.109949,60.191425,0
          11.10964,60.191471,0
          11.109336,60.191509,0
          11.109091,60.191544,0
          11.108821,60.191578,0
          11.1086,60.191612,0
          11.108306,60.191658,0
          11.108006,60.1917,0
          11.107766,60.191742,0
          11.107083,60.191837,0
          11.106421,60.191917,0
          11.105878,60.191998,0
          11.105308,60.192078,0
          11.104726,60.192162,0
          11.104502,60.192192,0
          11.10448,60.192417,0
          11.104676,60.19265,0
          11.104799,60.192871,0
          11.104921,60.193081,0
        </coordinates>
      </LineString>
    </Placemark>
  </Document>
</kml>