<?xml version='1.0' encoding='utf-8'?>
<kml xmlns="http://www.opengis.net/kml/2.2">
  <Document>
    <Placemark>
      <name>SK803-2025-10-26</name>
      <TimeStamp>
        <when>2025-10-26</when>
      </TimeStamp>
      <LineString>
        <altitudeMode>absolute</altitudeMode>
        <coordinates>
          11.106393,60.193802,0
          11.106515,60.194012,0
          11.106657,60.194241,0
          11.106736,60.194454,0
          11.106941,60.194653,0
          11.107154,60.194778,0
          11.107368,60.194859,0
          11.10713,60.194939,0
          11.106917,60.194973,0
          11.106711,60.195,0
          11.106491,60.19503,0
          11.106231,60.195076,0
          11.106001,60.195114,0
          11.105756,60.195164,0
          11.105544,60.195259,0
          11.105388,60.195465,0
          11.10545,60.195717,0
          11.105568,60.195946,0
          11.10571,60.196175,0
          11.105852,60.196426,0
          11.106041,60.196758,0
          11.106278,60.19717,0
          11.10654,60.197582,0
          11.106761,60.197968,0
          11.106957,60.198315,0
          11.106957,60.198586,0
          11.106657,60.198795,0
          11.106368,60.198841,0
          11.106123,60.198864,0
          11.105829,60.19891,0
          11.105615,60.198933,0
          11.105402,60.198978,0
          11.105118,60.199017,0
          11.104905,60.199047,0
          11.104651,60.199085,0
          11.103792,60.199207,0
          11.102886,60.199329,0
          11.101954,60.199467,0
          11.101046,60.199608,0
          11.100027,60.199757,0
          11.098791,60.199921,0
          11.097635,60.200089,0
          11.096314,60.200272,0
          11.094892,60.200481,0
          11.093587,60.200672,0
          11.0919,60.200901,0
          11.0906,60.201088,0
          11.089585,60.201233,0
          11.089325,60.201256,0
          11.08908,60.201237,0
          11.088859,60.201191,0
          11.088638,60.20105,0
          11.088496,60.200821,0
          11.088368,60.200607,0
          11.088236,60.200386,0
          11.088099,60.200153,0
          11.087952,60.199894,0
          11.087657,60.199375,0
          11.087363,60.198887,0
          11.086981,60.198246,0
          11.086627,60.197628,0
          11.086235,60.19693,0
          11.085844,60.196243,0
          11.085402,60.195488,0
          11.084969,60.194744,0
          11.084424,60.193817,0
          11.083979,60.19302,0
          11.08369,60.192535,0
          11.08344,60.192333,0
          11.083169,60.192261,0
          11.082925,60.192242,0
          11.082719,60.192261,0
          11.082482,60.192295,0
          11.082213,60.192345,0
          11.082008,60.192375,0
          11.081747,60.192417,0
          11.081417,60.192455,0
          11.081133,60.192501,0
          11.080825,60.192535,0
          11.080446,60.192593,0
          11.080114,60.19265,0
          11.079641,60.192719,0
          11.07932,60.192776,0
          11.07905,60.192848,0
          11.078813,60.192924,0
          11.078559,60.193104,0
          11.078481,60.193348,0
          11.078623,60.1936,0
          11.078789,60.193874,0
          11.078952,60.194138,0
          11.079191,60.194527,0
          11.07932,60.194744,0
          11.079522,60.19511,0
          11.079688,60.195408,0
          11.079859,60.195675,0
          11.080153,60.196198,0
          11.080374,60.196594,0
          11.080611,60.196976,0
          11.082557,60.200329,434.34
          11.0855,60.205402,441.96
          11.088046,60.20961,518.16
          11.091361,60.215195,640.08
          11.094622,60.220718,769.62
          11.097173,60.225281,868.68
          11.100017,60.230637,990.6
          11.1032,60.236618,1082.04
          11.106786,60.243019,1173.48
          11.110398,60.24939,1257.3
          11.112573,60.253445,1303.02
          11.113239,60.255432,1325.88
          11.11375,60.257404,1348.74
          11.113997,60.259277,1371.6
          11.113946,60.261219,1394.46
          11.113712,60.263626,1424.94
          11.113259,60.265503,1447.8
          11.112573,60.268108,1485.9
          11.112008,60.270172,1508.76
          11.111494,60.272301,1539.24
          11.110871,60.274521,1562.1
          11.110114,60.277313,1600.2
          11.109434,60.279469,1630.68
          11.108747,60.28175,1653.54
          11.107766,60.284172,1684.02
          11.106786,60.286499,1714.5
          11.10551,60.28915,1752.6
          11.103548,60.292038,1790.7
          11.101586,60.294319,1828.8
          11.099222,60.296677,1874.52
          11.096976,60.298649,1912.62
          11.094426,60.300556,1943.1
          11.090604,60.303131,1996.44
          11.087952,60.304562,2026.92
          11.084068,60.306381,2072.64
          11.080202,60.307957,2110.74
          11.074513,60.309822,2171.7
          11.070051,60.311005,2209.8
          11.063919,60.312241,2263.14
          11.059729,60.312927,2301.24
          11.053129,60.313637,2354.58
          11.047794,60.314026,2392.68
          11.041923,60.314163,2438.4
          11.036355,60.314056,2476.5
          11.03122,60.313751,2514.6
          11.025917,60.313202,2560.32
          11.019287,60.312195,2613.66
          11.013888,60.311188,2659.38
          11.008206,60.309906,2712.72
          11.003396,60.308563,2758.44
          10.997693,60.306656,2819.4
          10.993621,60.305099,2857.5
          10.989271,60.303165,2903.22
          10.985347,60.301117,2956.56
          10.981972,60.299149,2994.66
          10.977899,60.296448,3055.62
          10.975047,60.294086,3101.34
          10.972301,60.291618,3147.06
          10.969457,60.288548,3200.4
          10.967386,60.285919,3238.5
          10.965681,60.283493,3261.36
          10.963964,60.28091,3291.84
          10.962001,60.277699,3329.94
          10.960432,60.274998,3352.8
          10.958764,60.27216,3383.28
          10.957253,60.26944,3406.14
          10.955359,60.265961,3444.24
          10.953859,60.263081,3474.72
          10.952044,60.259598,3512.82
          10.950524,60.256844,3550.92
          10.948955,60.253819,3589.02
          10.947288,60.250652,3627.12
          10.945698,60.247696,3665.22
          10.919429,60.200516,4373.88
          10.892552,60.153313,5036.82
          10.865577,60.105782,5661.66
          10.842427,60.071613,6088.38
          10.839386,60.068588,6118.86
          10.836051,60.065655,6149.34
          10.83252,60.062851,6187.44
          10.828826,60.060013,6217.92
          10.825417,60.057449,6248.4
          10.820776,60.054108,6294.12
          10.817217,60.051548,6332.22
          10.812901,60.048477,6370.32
          10.809174,60.045822,6408.42
          10.805642,60.043262,6438.9
          10.800934,60.039909,6477
          10.797206,60.037258,6507.48
          10.793381,60.034557,6545.58
          10.731559,59.990616,7033.26
          10.669647,59.946442,7505.7
          10.6073,59.901791,7970.52
          10.543276,59.855751,8351.52
          10.477203,59.808197,8648.7
          10.409454,59.759171,8999.22
          10.342621,59.710785,9296.4
          10.272501,59.659672,9585.96
          10.201904,59.608063,9814.56
          10.129761,59.555099,10043.16
          10.057983,59.502186,10309.86
          9.988088,59.450558,10668
          9.917175,59.397858,10828.02
          9.843292,59.34288,11041.38
          9.773804,59.291016,11269.98
          9.703296,59.237957,11498.58
          9.632263,59.184494,11582.4
          9.562652,59.131863,11582.4
          9.491525,59.07777,11582.4
          9.425796,59.027634,11582.4
          9.356279,58.974422,11582.4
          9.286285,58.920639,11582.4
          9.217255,58.867355,11574.78
          9.149139,58.814655,11574.78
          9.080292,58.761215,11574.78
          9.010561,58.706909,11582.4
          8.940656,58.652298,11582.4
          8.872701,58.598831,11582.4
          8.804443,58.544933,11582.4
          8.736611,58.491257,11590.02
          8.665289,58.434631,11582.4
          8.597534,58.380741,11590.02
          8.52734,58.324493,11590.02
          8.459295,58.269791,11582.4
          8.391907,58.215343,11582.4
          8.323883,58.160225,11590.02
          8.257782,58.106411,11590.02
          8.191956,58.052734,11590.02
          8.124301,57.997513,11582.4
          8.059937,57.94455,11574.78
          7.993085,57.889435,11574.78
          7.928674,57.835922,11574.78
          7.862667,57.781311,11574.78
          7.798828,57.728081,11574.78
          7.732315,57.672409,11574.78
          7.667039,57.617657,11590.02
          7.601767,57.562454,11590.02
          7.53808,57.508621,11597.64
          7.47242,57.452911,11590.02
          7.409481,57.399467,11590.02
          7.344981,57.344212,11582.4
          7.280331,57.288666,11574.78
          7.216689,57.233929,11574.78
          7.153473,57.17926,11574.78
          7.089814,57.12397,11574.78
          7.025668,57.068157,11582.4
          6.961384,57.011948,11582.4
          6.899591,56.95792,11590.02
          6.837572,56.903175,11590.02
          6.774135,56.847263,11582.4
          6.710758,56.791168,11582.4
          6.64788,56.735168,11582.4
          6.583468,56.677677,11574.78
          6.52136,56.622093,11574.78
          6.458796,56.565765,11582.4
          6.396124,56.509232,11582.4
          6.334047,56.452923,11582.4
          6.272611,56.397217,11582.4
          6.212082,56.341988,11582.4
          6.149764,56.284973,11582.4
          6.087674,56.228027,11582.4
          6.024199,56.169651,11590.02
          5.964031,56.114021,11590.02
          5.902319,56.056763,11590.02
          5.840693,55.99955,11590.02
          5.779058,55.942017,11590.02
          5.719299,55.885849,11582.4
          5.657876,55.828079,11582.4
          5.597701,55.771317,11574.78
          5.539255,55.715908,11574.78
          5.479348,55.659073,11574.78
          5.419693,55.602272,11582.4
          5.361414,55.546642,11574.78
          5.301486,55.489059,11574.78
          5.244723,55.434357,11582.4
          5.185547,55.37709,11582.4
          5.127061,55.320282,11582.4
          5.067202,55.262146,11590.02
          5.0091,55.205322,11582.4
          4.94984,55.147129,11582.4
          4.890774,55.089294,11590.02
          4.832127,55.031616,11582.4
          4.773227,54.973259,11590.02
          4.71405,54.914463,11590.02
          4.655941,54.856522,11590.02
          4.598344,54.799026,11590.02
          4.54293,54.743431,11582.4
          4.48908,54.689384,11582.4
          4.434922,54.634689,11582.4
          4.380637,54.579483,11582.4
          4.330028,54.523052,11582.4
          4.280423,54.467793,11590.02
          4.230069,54.412117,11582.4
          4.178601,54.355179,11582.4
          4.128529,54.299507,11582.4
          4.079159,54.244438,11582.4
          4.029315,54.188736,11582.4
          3.978666,54.131874,11582.4
          3.928905,54.075871,11582.4
          3.881156,54.021927,11582.4
          3.832694,53.967079,11574.78
          3.78374,53.911541,11574.78
          3.736764,53.858139,11559.54
          3.686882,53.80098,11384.28
          3.638123,53.744797,11209.02
          3.588998,53.6884,11056.62
          3.540425,53.632275,10972.8
          3.490179,53.574039,10972.8
          3.440604,53.51651,10972.8
          3.394695,53.463058,10972.8
          3.344866,53.404999,10972.8
          3.296545,53.348354,10972.8
          3.248075,53.291325,10972.8
          3.200091,53.234627,10972.8
          3.15138,53.177364,10972.8
          3.102507,53.119362,10972.8
          3.054435,53.06229,10972.8
          3.006363,53.004913,10972.8
          2.957306,52.946411,10972.8
          2.908859,52.888641,10972.8
          2.86026,52.830139,10972.8
          2.812729,52.772507,10934.7
          2.764969,52.714966,10591.8
          2.717076,52.657097,10180.32
          2.669913,52.59956,9730.74
          2.622452,52.541748,9258.3
          2.57782,52.486725,9151.62
          2.533951,52.432846,9144
          2.489319,52.37796,9144
          2.444772,52.323177,9144
          2.399806,52.267502,9144
          2.355861,52.212944,9144
          2.312151,52.158432,9144
          2.268834,52.114254,9144
          2.265146,52.111179,9144
          2.261429,52.108246,9144
          2.257767,52.105362,9144
          2.253767,52.102337,9144
          2.249908,52.099503,9144
          2.245712,52.096436,9144
          2.24144,52.09346,9144
          2.236502,52.090183,9144
          2.232343,52.087391,9144
          2.228106,52.08469,9144
          2.223892,52.082062,9144
          2.219315,52.079269,9144
          2.214608,52.0765,9144
          2.209167,52.073318,9144
          2.204819,52.070938,9144
          2.200317,52.068466,9144
          2.19574,52.065994,9144
          2.123893,52.027153,9136.38
          2.053146,51.988907,8976.36
          1.981934,51.950108,8694.42
          1.911621,51.911751,8427.72
          1.843567,51.874554,8168.64
          1.775183,51.837112,7924.8
          1.70784,51.800163,7642.86
          1.642159,51.764786,7376.16
          1.627832,51.758835,7322.82
          1.62323,51.757198,7299.96
          1.61744,51.755264,7277.1
          1.612701,51.753845,7261.86
          1.60779,51.752472,7246.62
          1.602707,51.751144,7223.76
          1.596952,51.749863,7200.9
          1.591978,51.74881,7185.66
          1.586782,51.747849,7170.42
          1.581734,51.74707,7147.56
          1.576843,51.746395,7132.32
          1.57201,51.745789,7117.08
          1.566962,51.745285,7101.84
          1.562119,51.744862,7086.6
          1.555753,51.744415,7063.74
          1.551002,51.744095,7048.5
          1.545064,51.743683,7025.64
          1.54009,51.743317,7018.02
          1.535034,51.743,6995.16
          1.52992,51.74263,6979.92
          1.524887,51.742302,6964.68
          1.519928,51.741974,6949.44
          1.443069,51.736816,6667.5
          1.366684,51.731735,6400.8
          1.293269,51.726837,6134.1
          1.219025,51.721863,5859.78
          1.147995,51.717117,5608.32
          1.077328,51.712326,5372.1
          1.00769,51.707619,5135.88
          0.938721,51.702824,4907.28
          0.874481,51.698215,4876.8
          0.817566,51.694164,4876.8
          0.766144,51.69072,4876.8
          0.715179,51.687275,4876.8
          0.663528,51.683598,4724.4
          0.613675,51.680054,4579.62
          0.565054,51.676666,4572
          0.515764,51.673096,4572
          0.466993,51.669479,4549.14
          0.417786,51.665813,4450.08
          0.367432,51.662186,4351.02
          0.317001,51.658367,4251.96
          0.265825,51.654556,4152.9
          0.217361,51.651012,4061.46
          0.168228,51.647285,3962.4
          0.142451,51.644623,3909.06
          0.139259,51.643936,3901.44
          0.136216,51.643204,3893.82
          0.133286,51.642399,3886.2
          0.130426,51.641464,3878.58
          0.12753,51.640411,3870.96
          0.124817,51.639233,3870.96
          0.121384,51.637604,3855.72
          0.118845,51.636246,3855.72
          0.115967,51.634392,3848.1
          0.113575,51.632675,3840.48
          0.111422,51.63089,3832.86
          0.109406,51.628944,3825.24
          0.107636,51.626862,3817.62
          0.106077,51.624802,3810
          0.104752,51.622799,3802.38
          0.103531,51.620335,3794.76
          0.102539,51.617771,3787.14
          0.101929,51.61554,3787.14
          0.101624,51.613083,3779.52
          0.101471,51.610371,3771.9
          0.1017,51.607811,3764.28
          0.102143,51.60553,3756.66
          0.102997,51.60297,3749.04
          0.103989,51.600548,3749.04
          0.105409,51.598068,3741.42
          0.107265,51.595459,3733.8
          0.109177,51.593193,3726.18
          0.111274,51.591156,3718.56
          0.113602,51.589096,3718.56
          0.116119,51.587189,3710.94
          0.118408,51.585651,3703.32
          0.122037,51.583649,3695.7
          0.125046,51.582161,3695.7
          0.128124,51.580856,3688.08
          0.131912,51.579506,3680.46
          0.135473,51.57843,3672.84
          0.139847,51.577366,3665.22
          0.143433,51.576714,3657.6
          0.146979,51.576233,3657.6
          0.150528,51.575874,3649.98
          0.154106,51.575684,3649.98
          0.157594,51.575684,3642.36
          0.161438,51.575783,3634.74
          0.165018,51.576004,3634.74
          0.168358,51.57637,3627.12
          0.171814,51.576855,3619.5
          0.175855,51.577606,3611.88
          0.178986,51.578297,3596.64
          0.182266,51.579182,3589.02
          0.185431,51.580215,3581.4
          0.18837,51.581276,3566.16
          0.191073,51.582367,3558.54
          0.194191,51.583878,3543.3
          0.196492,51.585114,3535.68
          0.198645,51.586441,3520.44
          0.201263,51.588211,3512.82
          0.203247,51.589748,3497.58
          0.204954,51.591293,3489.96
          0.206662,51.592941,3474.72
          0.208146,51.594635,3467.1
          0.209503,51.596268,3459.48
          0.21067,51.597977,3444.24
          0.211784,51.599854,3436.62
          0.212675,51.601685,3429
          0.213565,51.603836,3413.76
          0.214081,51.605762,3406.14
          0.214456,51.607452,3398.52
          0.214691,51.60944,3383.28
          0.214827,51.611252,3375.66
          0.214679,51.613358,3360.42
          0.214456,51.615189,3352.8
          0.214005,51.617073,3345.18
          0.21347,51.618843,3329.94
          0.212675,51.620636,3322.32
          0.211792,51.622429,3307.08
          0.210495,51.624523,3299.46
          0.209351,51.626106,3284.22
          0.207901,51.627876,3268.98
          0.206375,51.629505,3261.36
          0.20488,51.630981,3253.74
          0.203171,51.632389,3238.5
          0.201492,51.633648,3230.88
          0.199387,51.635101,3223.26
          0.196863,51.636658,3215.64
          0.194488,51.637939,3208.02
          0.192112,51.639084,3200.4
          0.18959,51.640213,3192.78
          0.187139,51.641144,3185.16
          0.184402,51.642166,3177.54
          0.181503,51.643005,3162.3
          0.17786,51.64389,3147.06
          0.17541,51.644394,3139.44
          0.172043,51.644958,3131.82
          0.168839,51.645378,3116.58
          0.165686,51.645676,3108.96
          0.161603,51.645996,3093.72
          0.158114,51.646133,3086.1
          0.154625,51.646225,3078.48
          0.15121,51.646271,3063.24
          0.14787,51.646317,3055.62
          0.144577,51.646309,3048
          0.140595,51.646317,3032.76
          0.1371,51.646309,3025.14
          0.133766,51.646317,3009.9
          0.130203,51.646317,3002.28
          0.12664,51.646317,2994.66
          0.123373,51.646317,2979.42
          0.120033,51.646317,2971.8
          0.116767,51.646317,2964.18
          0.092345,51.6465,2887.98
          0.071869,51.64682,2827.02
          0.047607,51.647194,2758.44
          0.024719,51.647507,2750.82
          0.005112,51.647846,2743.2
          -0.014801,51.64822,2743.2
          -0.038223,51.648636,2743.2
          -0.061019,51.649017,2743.2
          -0.08121,51.649338,2720.34
          -0.104523,51.649662,2689.86
          -0.127106,51.64994,2659.38
          -0.147202,51.650162,2628.9
          -0.170808,51.650436,2606.04
          -0.19104,51.65073,2575.56
          -0.214233,51.651169,2545.08
          -0.233688,51.651569,2522.22
          -0.256424,51.652035,2491.74
          -0.270081,51.651337,2468.88
          -0.273132,51.650871,2461.26
          -0.276337,51.650173,2453.64
          -0.279236,51.649384,2446.02
          -0.283051,51.648079,2446.02
          -0.285339,51.647194,2446.02
          -0.288465,51.64563,2446.02
          -0.290989,51.644211,2446.02
          -0.293365,51.642654,2446.02
          -0.295563,51.641048,2438.4
          -0.297699,51.639187,2438.4
          -0.299674,51.637115,2438.4
          -0.301307,51.635147,2438.4
          -0.302644,51.633133,2438.4
          -0.304128,51.630478,2438.4
          -0.305019,51.628235,2438.4
          -0.305634,51.626106,2438.4
          -0.306091,51.623871,2438.4
          -0.30632,51.621078,2438.4
          -0.306281,51.618713,2438.4
          -0.305939,51.616283,2438.4
          -0.305242,51.613815,2438.4
          -0.304489,51.611488,2438.4
          -0.303345,51.609161,2438.4
          -0.301895,51.606693,2438.4
          -0.300293,51.604458,2438.4
          -0.298157,51.601898,2438.4
          -0.296021,51.599758,2438.4
          -0.293662,51.597656,2438.4
          -0.291138,51.595688,2438.4
          -0.288467,51.593891,2438.4
          -0.285719,51.592255,2438.4
          -0.282601,51.590561,2438.4
          -0.279335,51.589005,2438.4
          -0.275879,51.587559,2438.4
          -0.271378,51.585979,2438.4
          -0.268402,51.585094,2438.4
          -0.263672,51.583836,2438.4
          -0.260035,51.583099,2438.4
          -0.255585,51.582253,2438.4
          -0.252457,51.581741,2438.4
          -0.247564,51.581039,2438.4
          -0.243607,51.580486,2438.4
          -0.240021,51.580021,2438.4
          -0.235686,51.579437,2438.4
          -0.23201,51.578995,2438.4
          -0.227737,51.578484,2438.4
          -0.22377,51.577972,2438.4
          -0.218506,51.57732,2423.16
          -0.214753,51.576874,2415.54
          -0.210648,51.57634,2407.92
          -0.206604,51.575874,2392.68
          -0.177841,51.572292,2308.86
          -0.153437,51.569275,2255.52
          -0.125427,51.565823,2194.56
          -0.097986,51.562454,2133.6
          -0.072403,51.559162,2080.26
          -0.046234,51.555672,2026.92
          -0.021515,51.552273,1988.82
          -0.000916,51.549343,1958.34
          0.022121,51.546021,1927.86
          0.041504,51.543243,1912.62
          0.054932,51.540775,1897.38
          0.057907,51.539936,1897.38
          0.060806,51.539005,1889.76
          0.063629,51.537983,1889.76
          0.066215,51.537003,1889.76
          0.069656,51.535656,1889.76
          0.071931,51.534714,1889.76
          0.074539,51.533607,1882.14
          0.077972,51.532162,1882.14
          0.08069,51.53096,1882.14
          0.083084,51.529789,1882.14
          0.085678,51.528393,1874.52
          0.088043,51.526855,1874.52
          0.090192,51.525284,1866.9
          0.092196,51.52359,1866.9
          0.093829,51.521942,1866.9
          0.095314,51.520203,1866.9
          0.096817,51.517918,1859.28
          0.097763,51.516174,1859.28
          0.098506,51.514389,1859.28
          0.099182,51.512054,1859.28
          0.099545,51.510132,1851.66
          0.099564,51.50819,1851.66
          0.099397,51.506241,1851.66
          0.099025,51.504547,1851.66
          0.098357,51.502716,1851.66
          0.097467,51.500748,1844.04
          0.096359,51.499111,1844.04
          0.09472,51.497131,1844.04
          0.093155,51.495667,1836.42
          0.091095,51.493992,1836.42
          0.089569,51.492966,1828.8
          0.086975,51.491478,1828.8
          0.084915,51.490452,1821.18
          0.082917,51.489487,1821.18
          0.080566,51.488449,1813.56
          0.077721,51.487244,1813.56
          0.075378,51.486309,1805.94
          0.073547,51.485565,1805.94
          0.070669,51.484497,1798.32
          0.068512,51.483704,1798.32
          0.065918,51.482941,1790.7
          0.063839,51.482346,1790.7
          0.06087,51.481659,1783.08
          0.058198,51.48111,1775.46
          0.055377,51.480652,1775.46
          0.053373,51.480331,1767.84
          0.050255,51.479965,1760.22
          0.047583,51.479645,1760.22
          0.044937,51.47942,1752.6
          0.042877,51.479279,1744.98
          0.039863,51.47905,1744.98
          0.037308,51.478909,1737.36
          0.034714,51.478767,1729.74
          0.03212,51.478676,1722.12
          0.029526,51.47858,1722.12
          0.026575,51.4785,1714.5
          0.02388,51.478443,1706.88
          0.021305,51.478363,1699.26
          0.018768,51.478348,1699.26
          0.016022,51.478302,1691.64
          0.012665,51.478256,1684.02
          -0.006104,51.478256,1645.92
          -0.022354,51.478302,1607.82
          -0.04105,51.478317,1562.1
          -0.059682,51.478317,1501.14
          -0.070372,51.478317,1463.04
          -0.080414,51.478302,1417.32
          -0.090866,51.478302,1379.22
          -0.101178,51.478271,1333.5
          -0.111694,51.478302,1295.4
          -0.119171,51.478302,1264.92
          -0.129623,51.478256,1219.2
          -0.139927,51.478271,1181.1
          -0.149429,51.478226,1150.62
          -0.157001,51.478226,1112.52
          -0.166702,51.478256,1074.42
          -0.175336,51.478226,1043.94
          -0.184402,51.478256,1005.84
          -0.191147,51.478226,975.36
          -0.199832,51.478226,944.88
          -0.207977,51.47821,914.4
          -0.216832,51.47818,876.3
          -0.223067,51.47818,853.44
          -0.231934,51.478165,822.96
          -0.240883,51.47818,784.86
          -0.249863,51.478115,746.76
          -0.2565,51.478115,723.9
          -0.265157,51.478088,693.42
          -0.27359,51.478069,662.94
          -0.282669,51.478069,624.84
          -0.289154,51.478069,601.98
          -0.297928,51.478024,571.5
          -0.306207,51.478043,533.4
          -0.31504,51.477997,502.92
          -0.31723,51.478024,495.3
          -0.319272,51.477997,487.68
          -0.321274,51.477978,480.06
          -0.32328,51.477997,472.44
          -0.33165,51.477978,441.96
          -0.340347,51.477978,403.86
          -0.348742,51.477905,373.38
          -0.354458,51.477905,350.52
          -0.361938,51.477882,320.04
          -0.368933,51.477905,297.18
          -0.375762,51.477859,274.32
          -0.382888,51.477905,243.84
          -0.386377,51.477859,236.22
          -0.38826,51.477837,228.6
          -0.389792,51.477814,220.98
          -0.391541,51.477791,213.36
          -0.393295,51.477791,205.74
          -0.39505,51.477745,205.74
          -0.396805,51.477745,198.12
          -0.398774,51.477768,190.5
          -0.40062,51.477745,182.88
          -0.402756,51.477745,175.26
          -0.404434,51.477745,167.64
          -0.40596,51.477745,160.02
          -0.40783,51.477768,152.4
          -0.410004,51.477745,144.78
          -0.411835,51.477695,144.78
          -0.413695,51.477676,137.16
          -0.415421,51.477695,129.54
          -0.417035,51.477722,121.92
          -0.418891,51.477722,114.3
          -0.420747,51.477722,106.68
          -0.422516,51.477745,99.06
          -0.424728,51.477745,91.44
          -0.426537,51.477722,83.82
          -0.428162,51.477695,76.2
          -0.4301,51.477722,68.58
          -0.432327,51.477676,60.96
          -0.460911,51.475403,0
          -0.461686,51.475147,0
          -0.463467,51.475159,0
          -0.465012,51.475147,0
          -0.465805,51.475147,0
          -0.466956,51.475147,0
          -0.467415,51.47501,0
          -0.46751,51.47459,0
          -0.467453,51.474346,0
          -0.467319,51.474007,0
          -0.467281,51.473774,0
          -0.467262,51.473507,0
          -0.467262,51.473297,0
          -0.467272,51.473007,0
          -0.467262,51.472786,0
          -0.467253,51.472355,0
          -0.467262,51.471996,0
          -0.467262,51.471237,0
          -0.467234,51.470695,0
          -0.466975,51.470238,0
          -0.466548,51.46986,0
          -0.466028,51.469391,0
          -0.465527,51.468922,0
          -0.465164,51.468597,0
          -0.46484,51.468292,0
          -0.464432,51.467903,0
          -0.463133,51.467468,0
          -0.462608,51.46748,0
          -0.461259,51.467468,0
          -0.460091,51.467468,0
          -0.458846,51.46748,0
          -0.457668,51.46748,0
          -0.456378,51.467491,0
          -0.454801,51.467491,0
          -0.453427,51.467503,0
          -0.452277,51.467503,0
          -0.451479,51.467503,0
          -0.451145,51.46756,0
          -0.451108,51.467777,0
          -0.451126,51.468006,0
          -0.451126,51.468269,0
        </coordinates>
      </LineString>
    </Placemark>
  </Document>
</kml>