<?xml version='1.0' encoding='utf-8'?>
<kml xmlns="http://www.opengis.net/kml/2.2">
  <Document>
    <Placemark>
      <name>SQ184-2026-05-17</name>
      <TimeStamp>
        <when>2026-05-17</when>
      </TimeStamp>
      <LineString>
        <altitudeMode>absolute</altitudeMode>
        <coordinates>
          103.990761,1.350208,0
          103.98967,1.350094,0
          103.9897,1.349852,0
          103.989731,1.349619,0
          103.989777,1.349384,0
          103.989868,1.349155,0
          103.990005,1.348949,0
          103.990211,1.348758,0
          103.990471,1.348618,0
          103.991112,1.348412,0
          103.991325,1.348502,0
          103.991562,1.348956,0
          103.991905,1.349852,0
          103.992043,1.350185,0
          103.992378,1.351004,0
          103.993629,1.353859,0
          103.994202,1.355229,0
          103.994652,1.356369,0
          103.994926,1.357021,0
          103.99527,1.357819,0
          103.995728,1.358906,0
          103.996918,1.361732,0
          103.997292,1.362514,0
          103.998886,1.361675,0
          103.998856,1.361455,0
          103.998627,1.36116,0
          103.998512,1.36092,0
          103.996628,1.356354,53.34
          103.992317,1.346291,0
          103.989761,1.340146,83.82
          103.98732,1.334244,167.64
          103.984993,1.328522,259.08
          103.98243,1.322342,358.14
          103.980476,1.31781,426.72
          103.977867,1.311905,533.4
          103.975258,1.306,601.98
          103.972382,1.299599,640.08
          103.970184,1.294647,655.32
          103.967072,1.287415,693.42
          103.963951,1.280045,746.76
          103.96032,1.271439,784.86
          103.957565,1.264917,830.58
          103.953896,1.256195,929.64
          103.951027,1.249276,1013.46
          103.950264,1.247131,1043.94
          103.949417,1.244667,1074.42
          103.948776,1.242096,1104.9
          103.94828,1.239872,1127.76
          103.947998,1.237684,1150.62
          103.947845,1.235504,1165.86
          103.947792,1.233307,1188.72
          103.947937,1.230515,1211.58
          103.948311,1.227997,1226.82
          103.948753,1.225767,1242.06
          103.949471,1.223236,1264.92
          103.950554,1.220367,1295.4
          103.951355,1.218738,1310.64
          103.952728,1.216224,1333.5
          103.95401,1.214315,1363.98
          103.955666,1.212127,1386.84
          103.95771,1.209824,1417.32
          103.959312,1.208263,1440.18
          103.961525,1.20639,1463.04
          103.96315,1.205191,1478.28
          103.965706,1.203562,1501.14
          103.967674,1.202545,1524
          103.969864,1.201538,1554.48
          103.972244,1.200675,1577.34
          103.974991,1.19993,1615.44
          103.977074,1.199512,1638.3
          103.979912,1.199139,1668.78
          103.982468,1.198953,1699.26
          103.98455,1.198999,1722.12
          103.98671,1.199158,1744.98
          103.989716,1.199558,1783.08
          103.991844,1.200024,1798.32
          103.994118,1.200668,1828.8
          103.99649,1.20156,1851.66
          103.998764,1.202537,1874.52
          104.00132,1.203934,1897.38
          104.003639,1.205377,1927.86
          104.005913,1.207053,1958.34
          104.007713,1.208449,1973.58
          104.009605,1.210032,1988.82
          104.011337,1.2117,2004.06
          104.013062,1.213394,2019.3
          104.014671,1.2152,2026.92
          104.016273,1.217148,2042.16
          104.018082,1.219622,2057.4
          104.019691,1.222136,2080.26
          104.020653,1.223877,2095.5
          104.02182,1.226279,2118.36
          104.022743,1.228592,2141.22
          104.023674,1.23143,2171.7
          104.024231,1.233673,2194.56
          104.024712,1.236195,2217.42
          104.02507,1.238983,2247.9
          104.025185,1.241734,2278.38
          104.025116,1.244247,2301.24
          104.024857,1.247134,2331.72
          104.024513,1.249374,2354.58
          104.024094,1.251755,2377.44
          104.023445,1.254776,2400.3
          104.022865,1.257469,2423.16
          104.022232,1.260132,2446.02
          104.021538,1.262916,2468.88
          104.02092,1.265523,2484.12
          104.020401,1.267617,2506.98
          104.019783,1.270317,2529.84
          104.019203,1.272766,2545.08
          104.018509,1.275764,2575.56
          104.017952,1.278214,2598.42
          104.017204,1.281464,2636.52
          104.013344,1.299273,2865.12
          104.00985,1.315659,3063.24
          104.006523,1.331394,3208.02
          104.002869,1.347931,3352.8
          103.999001,1.365144,3505.2
          103.995354,1.381205,3657.6
          103.986069,1.422078,3840.48
          103.974991,1.471097,3970.02
          103.96418,1.519135,4084.32
          103.952446,1.571976,4282.44
          103.939896,1.628863,4572
          103.927032,1.687408,4846.32
          103.914604,1.74321,5074.92
          103.909164,1.788025,5219.7
          103.908974,1.791377,5234.94
          103.905754,1.851988,5494.02
          103.901825,1.914507,5745.48
          103.897842,1.97699,5951.22
          103.89373,2.039686,6088.38
          103.889702,2.106262,6271.26
          103.889275,2.17236,6507.48
          103.888992,2.239349,6667.5
          103.888626,2.303696,6827.52
          103.888206,2.370392,7010.4
          103.887886,2.438919,7254.24
          103.887383,2.503021,7444.74
          103.886116,2.571716,7566.66
          103.892166,2.640701,7703.82
          103.90329,2.709201,7879.08
          103.914001,2.780045,8039.1
          103.924377,2.851089,8176.26
          103.934853,2.920944,8336.28
          103.945534,2.991354,8519.16
          103.95652,3.062718,8534.4
          103.967178,3.133105,8534.4
          103.977875,3.204703,8534.4
          103.988297,3.275788,8679.18
          103.990387,3.320938,8816.34
          103.990234,3.324389,8823.96
          103.989876,3.330505,8839.2
          103.989525,3.335189,8846.82
          103.989052,3.340402,8854.44
          103.988716,3.344009,8862.06
          103.988159,3.349045,8877.3
          103.98764,3.353531,8884.92
          103.987061,3.358744,8892.54
          103.986542,3.36326,8900.16
          103.978111,3.43616,9014.46
          103.969872,3.510132,9136.38
          103.961685,3.584336,9144
          103.953819,3.655933,9144
          103.946007,3.725436,9144
          103.937645,3.799393,9144
          103.929291,3.873193,9144
          103.921074,3.944824,9144
          103.913139,4.016201,9144
          103.90538,4.08603,9144
          103.897423,4.159836,9144
          103.897331,4.188904,9144
          103.897705,4.194356,9144
          103.898033,4.198929,9144
          103.89859,4.204376,9144
          103.899033,4.208741,9144
          103.899475,4.213303,9144
          103.899979,4.217633,9144
          103.900543,4.222916,9144
          103.907341,4.296295,9151.62
          103.912743,4.36647,9144
          103.918747,4.440994,9144
          103.924614,4.511765,9144
          103.930618,4.584229,9144
          103.936859,4.659622,9144
          103.942818,4.73204,9144
          103.948662,4.802515,9144
          103.954781,4.876144,9144
          103.961014,4.951401,9144
          103.966789,5.021301,9144
          103.972977,5.096191,9144
          103.979401,5.173416,9144
          103.985596,5.248169,9144
          103.991508,5.319901,9144
          103.997887,5.395752,9144
          104.003731,5.466536,9144
          104.00985,5.540634,9144
          104.015808,5.611908,9144
          104.02211,5.688078,9144
          104.028549,5.765401,9144
          104.034851,5.84111,9144
          104.040764,5.9126,9144
          104.046906,5.986176,9144
          104.052979,6.059472,9144
          104.058823,6.129227,9144
          104.065247,6.206314,9144
          104.071259,6.278733,9144
          104.077324,6.351122,9144
          104.083763,6.428771,9144
          104.089821,6.501485,9144
          104.096252,6.578339,9144
          104.102257,6.650436,9144
          104.108482,6.725635,9144
          104.114731,6.800025,9144
          104.120743,6.872367,9144
          104.126839,6.945328,9144
          104.134193,7.014267,9144
          104.135193,7.018262,9144
          104.136566,7.023468,9144
          104.138382,7.029373,9144
          104.139732,7.033438,9144
          104.141777,7.038895,9144
          104.143433,7.043028,9144
          104.144989,7.046677,9144
          104.147217,7.051593,9144
          104.148872,7.054945,9144
          104.153183,7.062999,9144
          104.156738,7.069097,9144
          104.159096,7.072952,9144
          104.161995,7.077523,9144
          104.164978,7.082225,9144
          104.16938,7.088928,9151.62
          104.17189,7.092839,9151.62
          104.175392,7.098175,9151.62
          104.177811,7.101916,9151.62
          104.179848,7.105035,9151.62
          104.217888,7.167114,9258.3
          104.256393,7.232895,9395.46
          104.293724,7.297165,9448.8
          104.331902,7.362609,9448.8
          104.36879,7.425641,9448.8
          104.40596,7.489059,9448.8
          104.442474,7.551471,9448.8
          104.479095,7.613937,9448.8
          104.514664,7.674637,9448.8
          104.555862,7.744858,9448.8
          104.594826,7.811234,9448.8
          104.632416,7.875335,9448.8
          104.673233,7.944884,9448.8
          104.710091,8.007523,9448.8
          104.748123,8.072296,9448.8
          104.787216,8.138867,9448.8
          104.824059,8.201527,9448.8
          104.861053,8.264374,9448.8
          104.896706,8.324984,9448.8
          104.933769,8.387924,9448.8
          104.97261,8.45384,9448.8
          105.009834,8.514823,9448.8
          105.053642,8.576431,9448.8
          105.094978,8.635162,9448.8
          105.13488,8.692154,9456.42
          105.176308,8.751114,9448.8
          105.215546,8.806799,9448.8
          105.257217,8.866014,9448.8
          105.297859,8.923782,9448.8
          105.339195,8.982422,9448.8
          105.376999,9.043396,9448.8
          105.409607,9.102499,9448.8
          105.442726,9.162323,9403.08
          105.475311,9.221375,9265.92
          105.507111,9.27828,8930.64
          105.539139,9.335358,8839.2
          105.571083,9.392705,8839.2
          105.594391,9.428101,8839.2
          105.596909,9.431122,8839.2
          105.599731,9.434416,8839.2
          105.602287,9.437349,8839.2
          105.605461,9.44098,8839.2
          105.607986,9.443756,8839.2
          105.611191,9.447311,8839.2
          105.613564,9.449965,8839.2
          105.652634,9.494019,8846.82
          105.695251,9.543162,8831.58
          105.734505,9.588457,8679.18
          105.776085,9.636108,8511.54
          105.816498,9.682388,8351.52
          105.855972,9.727649,8199.12
          105.897263,9.774806,8039.1
          105.93325,9.822556,7879.08
          105.96933,9.873871,7604.76
          106.00296,9.921073,7292.34
          106.037666,9.969955,7002.78
          106.072952,10.019897,6705.6
          106.108086,10.069202,6423.66
          106.141144,10.115755,6149.34
          106.173576,10.161283,5829.3
          106.207489,10.209185,5593.08
          106.216934,10.221451,5532.12
          106.218849,10.22357,5516.88
          106.22155,10.226395,5494.02
          106.224205,10.228923,5478.78
          106.227425,10.23181,5455.92
          106.230347,10.234222,5433.06
          106.233246,10.236465,5410.2
          106.236137,10.238513,5394.96
          106.240074,10.24118,5364.48
          106.242821,10.24292,5349.24
          106.246407,10.245117,5326.38
          106.249298,10.246846,5311.14
          106.253059,10.249054,5288.28
          106.256226,10.250885,5273.04
          106.259148,10.252572,5257.8
          106.262703,10.254574,5242.56
          106.266396,10.256576,5234.94
          106.269264,10.258026,5234.94
          106.272987,10.259811,5227.32
          106.277054,10.261557,5212.08
          106.280014,10.262741,5196.84
          106.283646,10.264114,5181.6
          106.28756,10.265396,5158.74
          106.291023,10.266444,5135.88
          106.294075,10.267319,5120.64
          106.298454,10.268399,5097.78
          106.301529,10.269097,5090.16
          106.305016,10.269836,5074.92
          106.309204,10.27066,5052.06
          106.312805,10.271333,5036.82
          106.316696,10.272079,5021.58
          106.320045,10.272682,5006.34
          106.323792,10.27338,4991.1
          106.327011,10.273939,4983.48
          106.331131,10.274637,4968.24
          106.334488,10.275149,4953
          106.367302,10.277481,4762.5
          106.370796,10.277527,4732.02
          106.374146,10.277527,4709.16
          106.377396,10.277524,4678.68
          106.432617,10.277435,4152.9
          106.482002,10.277477,3749.04
          106.535416,10.278129,3253.74
          106.555885,10.278534,3048
          106.577187,10.278967,2910.84
          106.597977,10.279572,2842.26
          106.618286,10.281434,2750.82
          106.634956,10.284367,2651.76
          106.637894,10.284925,2636.52
          106.641678,10.285675,2613.66
          106.661934,10.289795,2499.36
          106.681717,10.293777,2400.3
          106.703316,10.298172,2339.34
          106.72319,10.3022,2308.86
          106.735588,10.305781,2286
          106.738319,10.307007,2286
          106.740883,10.308289,2278.38
          106.744492,10.310436,2270.76
          106.746811,10.312065,2270.76
          106.748894,10.313648,2263.14
          106.751732,10.316071,2255.52
          106.753777,10.317947,2247.9
          106.756233,10.320212,2232.66
          106.758202,10.322067,2225.04
          106.760262,10.324029,2225.04
          106.762672,10.326357,2225.04
          106.765228,10.328796,2217.42
          106.767281,10.330673,2217.42
          106.769279,10.33255,2217.42
          106.771622,10.334737,2217.42
          106.773613,10.336487,2217.42
          106.787292,10.348572,2217.42
          106.801353,10.360519,2217.42
          106.814529,10.371653,2217.42
          106.827362,10.382499,2217.42
          106.840523,10.393672,2217.42
          106.854195,10.406845,2217.42
          106.856247,10.409407,2217.42
          106.857635,10.411377,2209.8
          106.859497,10.414215,2202.18
          106.86084,10.416575,2186.94
          106.862061,10.419022,2179.32
          106.863449,10.422348,2171.7
          106.864342,10.425001,2171.7
          106.865036,10.427536,2164.08
          106.865768,10.43096,2156.46
          106.866196,10.433753,2148.84
          106.866524,10.436554,2141.22
          106.866806,10.43985,2133.6
          106.867043,10.44311,2133.6
          106.867325,10.446927,2118.36
          106.867569,10.450093,2118.36
          106.867737,10.452988,2110.74
          106.867973,10.456375,2103.12
          106.868202,10.458939,2095.5
          106.86837,10.461545,2095.5
          106.868668,10.46489,2087.88
          106.868904,10.46759,2080.26
          106.870522,10.485566,2042.16
          106.872208,10.502151,2011.68
          106.873894,10.519735,1973.58
          106.875626,10.537611,1943.1
          106.877228,10.555115,1905
          106.878616,10.571315,1866.9
          106.879913,10.587235,1836.42
          106.88131,10.602924,1798.32
          106.88266,10.618892,1767.84
          106.88414,10.636047,1729.74
          106.885422,10.650787,1699.26
          106.886742,10.666122,1668.78
          106.888168,10.682098,1615.44
          106.889442,10.696884,1577.34
          106.890724,10.712082,1539.24
          106.891998,10.726776,1493.52
          106.892105,10.729453,1485.9
          106.892044,10.731949,1478.28
          106.891869,10.734573,1463.04
          106.891571,10.736847,1455.42
          106.891098,10.739182,1447.8
          106.89032,10.741929,1432.56
          106.889549,10.74407,1417.32
          106.888443,10.746677,1394.46
          106.887505,10.748795,1371.6
          106.886368,10.751038,1356.36
          106.885216,10.753334,1333.5
          106.883995,10.755569,1318.26
          106.882858,10.757675,1310.64
          106.88163,10.759872,1295.4
          106.880402,10.762161,1280.16
          106.878952,10.764786,1272.54
          106.877892,10.766693,1264.92
          106.876785,10.768697,1257.3
          106.875427,10.771225,1249.68
          106.874245,10.773514,1249.68
          106.873199,10.775482,1242.06
          106.871925,10.778,1234.44
          106.870834,10.780197,1234.44
          106.867775,10.786293,1219.2
          106.863686,10.794617,1203.96
          106.860367,10.801529,1188.72
          106.856499,10.809429,1165.86
          106.852448,10.817809,1158.24
          106.849556,10.823861,1150.62
          106.847008,10.829261,1135.38
          106.843246,10.836895,1120.14
          106.840576,10.842361,1104.9
          106.83683,10.849915,1066.8
          106.833473,10.856781,1013.46
          106.83091,10.861987,967.74
          106.827438,10.868876,906.78
          106.826233,10.870925,891.54
          106.825233,10.872345,883.92
          106.82412,10.873718,868.68
          106.822769,10.875046,853.44
          106.82135,10.87619,838.2
          106.819443,10.877349,822.96
          106.817711,10.878094,807.72
          106.815636,10.878746,792.48
          106.81414,10.879025,784.86
          106.812263,10.879165,769.62
          106.809898,10.879118,754.38
          106.807991,10.878891,746.76
          106.806236,10.87856,731.52
          106.804504,10.878187,716.28
          106.802544,10.877655,708.66
          106.80056,10.87706,701.04
          106.799011,10.876512,693.42
          106.797081,10.875813,693.42
          106.795303,10.875092,693.42
          106.793663,10.874416,693.42
          106.792122,10.873765,693.42
          106.790047,10.87294,693.42
          106.788292,10.872208,693.42
          106.786827,10.871567,693.42
          106.785133,10.870878,693.42
          106.783417,10.870239,693.42
          106.781425,10.869435,701.04
          106.779678,10.868729,701.04
          106.777641,10.86795,693.42
          106.776123,10.867341,693.42
          106.7687,10.864594,685.8
          106.76355,10.862685,670.56
          106.758224,10.860672,647.7
          106.752899,10.858682,617.22
          106.751305,10.858077,609.6
          106.74662,10.856323,586.74
          106.740608,10.85408,548.64
          106.734825,10.851932,518.16
          106.730301,10.850209,487.68
          106.724228,10.847928,457.2
          106.718689,10.845787,419.1
          106.712761,10.843553,388.62
          106.706985,10.8414,358.14
          106.702591,10.839735,327.66
          106.698784,10.838292,304.8
          106.693108,10.836136,281.94
          106.687706,10.834103,251.46
          106.682266,10.832016,213.36
          106.678307,10.830518,190.5
          106.67289,10.828491,160.02
          106.668678,10.826889,137.16
          106.663994,10.825118,106.68
          106.659996,10.823628,83.82
          106.654938,10.821719,76.2
          106.648575,10.819334,0
          106.647118,10.818787,0
          106.646828,10.818682,0
          106.644165,10.81739,0
          106.643791,10.817024,0
          106.643478,10.81668,0
          106.643135,10.816269,0
          106.642899,10.815901,0
          106.642845,10.815514,0
          106.642899,10.815284,0
          106.643059,10.814946,0
          106.643166,10.814655,0
          106.643265,10.814423,0
          106.643387,10.814119,0
          106.643471,10.813877,0
          106.64373,10.813212,0
          106.643898,10.812801,0
          106.644005,10.812584,0
          106.644218,10.812458,0
          106.644447,10.812468,0
          106.644699,10.81256,0
          106.646263,10.813168,0
          106.646675,10.813329,0
          106.647743,10.813728,0
          106.648743,10.814096,0
          106.650215,10.814667,0
          106.651024,10.814964,0
          106.652168,10.815399,0
          106.652985,10.815702,0
          106.655769,10.81675,0
          106.656288,10.816959,0
          106.657066,10.81725,0
          106.657806,10.817134,0
          106.658058,10.817006,0
          106.658279,10.81691,0
          106.658516,10.81682,0
          106.658928,10.816807,0
          106.65937,10.816967,0
          106.659607,10.817064,0
          106.659897,10.817181,0
          106.660118,10.817262,0
          106.660332,10.817344,0
          106.660591,10.817436,0
          106.660812,10.81753,0
          106.66127,10.817693,0
          106.661537,10.817619,0
          106.661674,10.817287,0
          106.661728,10.81707,0
          106.661797,10.816864,0
          106.66188,10.816658,0
        </coordinates>
      </LineString>
    </Placemark>
  </Document>
</kml>