<?xml version='1.0' encoding='utf-8'?>
<kml xmlns="http://www.opengis.net/kml/2.2">
  <Document>
    <Placemark>
      <name>SQ423-2026-05-16</name>
      <TimeStamp>
        <when>2026-05-16</when>
      </TimeStamp>
      <LineString>
        <altitudeMode>absolute</altitudeMode>
        <coordinates>
          72.872704,19.094227,0
          72.873894,19.093826,0
          72.873566,19.092476,0
          72.873344,19.092384,0
          72.873123,19.092384,0
          72.872864,19.092377,0
          72.872597,19.091892,0
          72.87262,19.091675,0
          72.872742,19.091457,0
          72.872955,19.091331,0
          72.873253,19.091316,0
          72.873489,19.091341,0
          72.873703,19.091366,0
          72.873947,19.091364,0
          72.874527,19.091387,0
          72.874779,19.091389,0
          72.875298,19.0914,0
          72.875565,19.0914,0
          72.875847,19.091412,0
          72.876053,19.091412,0
          72.876274,19.09141,0
          72.876595,19.09141,0
          72.878021,19.090782,0
          72.878456,19.090519,0
          72.878731,19.090549,0
          72.878998,19.090576,0
          72.879166,19.090565,0
          72.879433,19.090572,0
          72.880142,19.090584,0
          72.880493,19.090382,0
          72.880516,19.08992,0
          72.880531,19.089649,0
          72.880516,19.089443,0
          72.880478,19.089237,0
          72.880348,19.08902,0
          72.880142,19.088884,0
          72.879913,19.08886,0
          72.879684,19.088905,0
          72.879417,19.088894,0
          72.879181,19.088896,0
          72.87896,19.088896,0
          72.878212,19.088882,0
          72.876656,19.08886,0
          72.874374,19.088816,0
          72.869125,19.088745,76.2
          72.860527,19.088606,60.96
          72.858192,19.088562,53.34
          72.847496,19.088419,160.02
          72.841255,19.088234,213.36
          72.834351,19.088013,281.94
          72.828171,19.087784,327.66
          72.821426,19.087627,381
          72.81488,19.087601,426.72
          72.808456,19.087601,480.06
          72.803452,19.087627,525.78
          72.796707,19.087721,594.36
          72.790802,19.087784,647.7
          72.784081,19.08783,693.42
          72.77726,19.087921,754.38
          72.770744,19.087954,807.72
          72.7659,19.087954,830.58
          72.758705,19.087908,861.06
          72.751312,19.087814,906.78
          72.743973,19.087534,960.12
          72.742096,19.08728,975.36
          72.740326,19.086836,990.6
          72.738632,19.086277,998.22
          72.73658,19.085346,1013.46
          72.734985,19.084463,1021.08
          72.733391,19.083391,1028.7
          72.732086,19.082321,1036.32
          72.730423,19.080643,1043.94
          72.729294,19.079224,1051.56
          72.727997,19.077339,1059.18
          72.727097,19.075665,1066.8
          72.726303,19.073914,1082.04
          72.725616,19.072037,1089.66
          72.725227,19.070572,1097.28
          72.724785,19.068054,1112.52
          72.724648,19.066307,1120.14
          72.72464,19.064575,1127.76
          72.7248,19.062536,1143
          72.725098,19.060301,1158.24
          72.725517,19.058487,1165.86
          72.725914,19.057022,1173.48
          72.726646,19.054855,1188.72
          72.727432,19.052765,1196.34
          72.728073,19.051025,1211.58
          72.728745,19.049362,1219.2
          72.729591,19.04718,1226.82
          72.730293,19.045359,1242.06
          72.73101,19.043335,1249.68
          72.731651,19.041367,1264.92
          72.732338,19.039215,1272.54
          72.73288,19.037384,1280.16
          72.733467,19.035324,1287.78
          72.734039,19.033442,1295.4
          72.734596,19.031433,1303.02
          72.73513,19.029419,1310.64
          72.735687,19.02739,1318.26
          72.736214,19.025528,1325.88
          72.736748,19.023422,1333.5
          72.737434,19.020918,1341.12
          72.737984,19.018869,1348.74
          72.74028,19.009918,1371.6
          72.742584,19.000626,1402.08
          72.744972,18.990705,1440.18
          72.747299,18.98085,1478.28
          72.749718,18.970549,1516.38
          72.752449,18.959885,1592.58
          72.756371,18.944183,1760.22
          72.761124,18.925507,1958.34
          72.766029,18.907013,2133.6
          72.770241,18.89113,2255.52
          72.775085,18.872602,2392.68
          72.779572,18.85556,2522.22
          72.783836,18.839401,2667
          72.788971,18.819906,2819.4
          72.79351,18.802589,2979.42
          72.798698,18.782959,3169.92
          72.803947,18.763065,3314.7
          72.808495,18.745749,3444.24
          72.813042,18.728523,3566.16
          72.817726,18.710541,3688.08
          72.829544,18.665863,3970.02
          72.841103,18.62192,4290.06
          72.85392,18.573212,4465.32
          72.867622,18.521088,4594.86
          72.883003,18.462803,4701.54
          72.889992,18.443438,4732.02
          72.891838,18.439728,4739.64
          72.8937,18.436386,4747.26
          72.896347,18.432037,4762.5
          72.898331,18.4291,4777.74
          72.900627,18.42584,4792.98
          72.903473,18.422117,4808.22
          72.905975,18.418999,4823.46
          72.908463,18.41597,4846.32
          72.91082,18.413132,4861.56
          72.913857,18.409561,4884.42
          72.916603,18.406403,4899.66
          72.918907,18.403656,4922.52
          72.922142,18.399902,4953
          72.925087,18.396515,4975.86
          72.927597,18.393534,4998.72
          72.929604,18.391205,5013.96
          72.968445,18.344933,5196.84
          73.009743,18.29517,5440.68
          73.051674,18.244812,5661.66
          73.091255,18.197296,5875.02
          73.133682,18.146389,6004.56
          73.176941,18.094162,6187.44
          73.218185,18.044533,6339.84
          73.262375,17.991323,6507.48
          73.305199,17.940022,6736.08
          73.350365,17.886795,6964.68
          73.394264,17.83548,7185.66
          73.437813,17.784397,7315.2
          73.481567,17.733097,7437.12
          73.525902,17.681145,7612.38
          73.573463,17.625549,7749.54
          73.622902,17.569611,7886.7
          73.625862,17.566952,7894.32
          73.629356,17.564026,7909.56
          73.634033,17.560272,7924.8
          73.638123,17.55727,7940.04
          73.641556,17.55485,7955.28
          73.646065,17.551823,7970.52
          73.64994,17.549402,7978.14
          73.654129,17.54686,7993.38
          73.659378,17.543976,8001
          73.663284,17.541916,8016.24
          73.668007,17.539536,8031.48
          73.672386,17.537384,8039.1
          73.675667,17.535828,8054.34
          73.680435,17.533539,8054.34
          73.685745,17.531013,8069.58
          73.690025,17.528961,8077.2
          73.694122,17.526993,8092.44
          73.698891,17.524683,8107.68
          73.762505,17.492329,8244.84
          73.824005,17.460161,8404.86
          73.889725,17.426178,8580.12
          73.955093,17.392639,8694.42
          74.023712,17.3573,8846.82
          74.093239,17.321411,8968.74
          74.159729,17.287127,9083.04
          74.224907,17.253469,9212.58
          74.294746,17.217392,9357.36
          74.361977,17.182526,9570.72
          74.433357,17.145609,9784.08
          74.499962,17.111067,10043.16
          74.564697,17.077456,10332.72
          74.632774,17.04213,10713.72
          74.695999,17.009256,10927.08
          74.760712,16.975479,11056.62
          74.822731,16.943199,11193.78
          74.885857,16.910286,11285.22
          74.947426,16.878113,11277.6
          75.014259,16.843204,11277.6
          75.076088,16.810867,11277.6
          75.143837,16.775528,11277.6
          75.212212,16.743622,11277.6
          75.27784,16.714325,11277.6
          75.343254,16.684416,11277.6
          75.41143,16.652805,11277.6
          75.47686,16.622501,11277.6
          75.542473,16.592056,11369.04
          75.606514,16.562393,11498.58
          75.674263,16.530945,11689.08
          75.740334,16.500162,11788.14
          75.808846,16.468277,11871.96
          75.87516,16.437363,11887.2
          75.941452,16.406433,11887.2
          76.005035,16.376799,11887.2
          76.071892,16.345505,11887.2
          76.137703,16.314743,11887.2
          76.204117,16.283648,11887.2
          76.267921,16.253761,11887.2
          76.33139,16.223967,11887.2
          76.397308,16.192963,11887.2
          76.464157,16.161541,11887.2
          76.531151,16.12999,11887.2
          76.594078,16.10037,11887.2
          76.65609,16.071121,11887.2
          76.722725,16.039667,11887.2
          76.785423,16.010056,11887.2
          76.851913,15.978683,11887.2
          76.914551,15.948983,11887.2
          76.977966,15.918957,11887.2
          77.044029,15.887673,11887.2
          77.108673,15.856949,11887.2
          77.171257,15.827202,11887.2
          77.233551,15.797607,11887.2
          77.301247,15.765381,11887.2
          77.365082,15.734982,11887.2
          77.428078,15.704956,11887.2
          77.493752,15.673599,11887.2
          77.560684,15.641645,11887.2
          77.622597,15.611984,11887.2
          77.687073,15.581177,11887.2
          77.749458,15.551287,11887.2
          77.813271,15.520752,11887.2
          77.878944,15.489166,11887.2
          77.943947,15.457993,11887.2
          78.008614,15.42691,11887.2
          78.071152,15.39678,11887.2
          78.132462,15.367266,11887.2
          78.196609,15.336402,11887.2
          78.259834,15.305863,11887.2
          78.321198,15.276215,11887.2
          78.388138,15.243903,11887.2
          78.453514,15.212294,11887.2
          78.514923,15.182547,11887.2
          78.580742,15.150612,11887.2
          78.64563,15.119202,11887.2
          78.712189,15.086836,11887.2
          78.776695,15.055618,11894.82
          78.839195,15.025131,11887.2
          78.905914,14.992661,11887.2
          78.972816,14.960073,11887.2
          79.03466,14.929955,11887.2
          79.099632,14.898193,11887.2
          79.166061,14.865806,11887.2
          79.230606,14.834198,11887.2
          79.295197,14.802658,11887.2
          79.361046,14.770373,11887.2
          79.425804,14.738663,11887.2
          79.48671,14.708738,11887.2
          79.551147,14.677094,11887.2
          79.613678,14.646404,11887.2
          79.6791,14.614288,11887.2
          79.740524,14.583984,11887.2
          79.805649,14.551904,11887.2
          79.866959,14.521683,11887.2
          79.932404,14.48941,11887.2
          79.997093,14.457449,11887.2
          80.06041,14.426167,11887.2
          80.126282,14.393579,11887.2
          80.191475,14.361319,11887.2
          80.257584,14.328546,11887.2
          80.32283,14.296192,11887.2
          80.388336,14.263687,11887.2
          80.450844,14.232605,11887.2
          80.512878,14.201752,11887.2
          80.579414,14.168686,11887.2
          80.640739,14.138123,11887.2
          80.706848,14.105209,11887.2
          80.77356,14.071903,11887.2
          80.835938,14.04071,11887.2
          80.897163,14.010132,11887.2
          80.96312,13.97717,11887.2
          81.027817,13.944809,11887.2
          81.094666,13.911345,11887.2
          81.160728,13.8782,11887.2
          81.224861,13.846069,11887.2
          81.286926,13.814889,11887.2
          81.351768,13.782349,11887.2
          81.412979,13.751531,11887.2
          81.476646,13.719498,11887.2
          81.540001,13.687614,11887.2
          81.603745,13.655447,11887.2
          81.66687,13.623642,11887.2
          81.726967,13.593338,11887.2
          81.787865,13.562531,11887.2
          81.85231,13.529938,11887.2
          81.914536,13.498489,11887.2
          81.978294,13.466212,11887.2
          82.041588,13.434174,11887.2
          82.102959,13.403,11887.2
          82.165092,13.371506,11887.2
          82.229019,13.339005,11887.2
          82.294037,13.306,11887.2
          82.356888,13.273998,11887.2
          82.399261,13.2556,11887.2
          82.405937,13.253677,11887.2
          82.409409,13.252817,11887.2
          82.41465,13.251617,11887.2
          82.418854,13.250769,11887.2
          82.425072,13.249695,11887.2
          82.430565,13.248917,11887.2
          82.436104,13.248322,11887.2
          82.440735,13.247929,11894.82
          82.445053,13.247589,11894.82
          82.450073,13.247314,11887.2
          82.455093,13.24704,11887.2
          82.459763,13.246859,11887.2
          82.465698,13.246765,11887.2
          82.470009,13.246719,11894.82
          82.475426,13.246672,11887.2
          82.479904,13.246628,11887.2
          82.485161,13.246628,11887.2
          82.558044,13.241638,11887.2
          82.590637,13.235406,11887.2
          82.595314,13.234242,11887.2
          82.60553,13.231589,11887.2
          82.619553,13.227493,11887.2
          82.68367,13.201859,11887.2
          82.74263,13.171326,11887.2
          82.805496,13.139462,11887.2
          82.868217,13.107513,11887.2
          82.929672,13.076058,11887.2
          82.992714,13.043747,11887.2
          83.054604,13.011978,11887.2
          83.118652,12.979136,11887.2
          83.177925,12.948738,11887.2
          83.239052,12.917358,11887.2
          83.300941,12.88552,11887.2
          83.365776,12.852173,11887.2
          83.427238,12.820533,11887.2
          83.487946,12.78923,11887.2
          83.547798,12.758386,11887.2
          83.609039,12.726823,11887.2
          83.671005,12.696704,11887.2
          83.733505,12.667422,11887.2
          83.797981,12.636566,11887.2
          83.861671,12.60585,11887.2
          83.923454,12.576087,11887.2
          83.947693,12.564403,11887.2
          85.618874,11.75116,11887.2
          89.063324,10.053543,11887.2
          89.447983,9.87629,11887.2
          89.667,9.775085,11887.2
          89.693611,9.762795,11887.2
          89.831467,9.699019,11887.2
          89.93541,9.650838,11887.2
          90.007591,9.61734,11887.2
          90.069038,9.588867,11887.2
          90.154327,9.54926,11887.2
          90.215607,9.520817,11887.2
          90.270447,9.495307,11887.2
          90.349838,9.458359,11887.2
          90.627739,9.328929,11887.2
          90.642654,9.321945,11887.2
          90.811874,9.242935,11887.2
          90.889656,9.206589,11887.2
          90.962959,9.172327,11887.2
          91.283676,9.022064,11887.2
          91.369614,8.981781,11887.2
          91.431152,8.95285,11887.2
          91.495491,8.922684,11887.2
          91.555077,8.894623,11887.2
          91.611626,8.86741,11887.2
          91.673836,8.83754,11887.2
          91.734726,8.808472,11887.2
          91.795273,8.779659,11887.2
          91.852966,8.752121,11887.2
          91.914932,8.722539,11887.2
          91.976402,8.693165,11887.2
          92.03891,8.663279,11887.2
          92.105232,8.631638,11887.2
          92.167763,8.601736,11887.2
          92.233299,8.570313,11887.2
          92.274925,8.550343,11887.2
          92.366699,8.506491,11887.2
          92.559532,8.413971,11887.2
          92.56218,8.412687,11887.2
          92.807755,8.294769,11887.2
          92.824341,8.286764,11887.2
          92.939819,8.231186,11887.2
          93.010773,8.197104,11887.2
          93.075363,8.165961,11887.2
          93.134842,8.137284,11887.2
          93.197304,8.107269,11887.2
          93.258286,8.077698,11887.2
          93.329803,8.043249,11887.2
          93.389236,8.014664,11887.2
          93.458847,7.980916,11887.2
          93.531158,7.946048,11887.2
          93.592339,7.916441,11887.2
          93.650909,7.888138,11887.2
          93.71035,7.859344,11887.2
          93.774986,7.828038,11887.2
          93.836792,7.798141,11887.2
          93.89698,7.768936,11887.2
          93.960953,7.737913,11887.2
          94.021507,7.708557,11887.2
          94.081467,7.679489,11887.2
          94.142265,7.649963,11887.2
          94.201607,7.62116,11887.2
          94.299393,7.573677,11879.58
          94.359772,7.544302,11894.82
          94.420418,7.514832,11887.2
          94.481865,7.484848,11894.82
          94.546066,7.453944,11887.2
          94.606491,7.424477,11887.2
          94.669044,7.394078,11887.2
          94.728081,7.365417,11887.2
          94.791809,7.334381,11887.2
          94.851166,7.305588,11887.2
          94.910561,7.276627,11887.2
          94.972778,7.246368,11887.2
          95.031311,7.217831,11887.2
          95.09156,7.188492,11887.2
          95.151123,7.159502,11887.2
          95.215904,7.127892,11887.2
          95.27533,7.09889,11887.2
          95.336891,7.068818,11887.2
          95.396706,7.039627,11887.2
          95.460159,7.008636,11887.2
          95.521194,6.978832,11887.2
          95.582619,6.948806,11887.2
          95.641716,6.919897,11887.2
          95.703949,6.889481,11887.2
          95.767403,6.858398,11887.2
          95.831787,6.826904,11887.2
          95.89547,6.795731,11887.2
          95.957718,6.765204,11887.2
          96.021072,6.7342,11887.2
          96.080933,6.704826,11887.2
          96.140381,6.675705,11887.2
          96.200668,6.646179,11887.2
          96.262344,6.615875,11887.2
          96.32608,6.58461,11887.2
          96.388039,6.554214,11887.2
          96.451813,6.522903,11887.2
          96.51693,6.496272,11887.2
          96.579323,6.478088,11887.2
          96.645164,6.458797,11887.2
          96.711601,6.439059,11887.2
          96.776146,6.420066,11887.2
          96.839828,6.401413,11887.2
          96.9077,6.381546,11894.82
          96.975433,6.361588,11887.2
          97.041527,6.342184,11887.2
          97.102989,6.324142,11887.2
          97.171654,6.303909,11887.2
          97.233429,6.285599,11887.2
          97.255478,6.276685,11887.2
          97.259361,6.274683,11887.2
          97.263359,6.272461,11887.2
          97.267128,6.270264,11887.2
          97.270531,6.268112,11887.2
          97.275787,6.264628,11887.2
          97.279343,6.262021,11894.82
          97.283936,6.258483,11894.82
          97.286682,6.256256,11894.82
          97.290802,6.252664,11887.2
          97.293526,6.250168,11887.2
          97.297531,6.246368,11887.2
          97.300415,6.243484,11887.2
          97.304863,6.238884,11887.2
          97.308517,6.235016,11887.2
          97.311913,6.2314,11887.2
          97.315094,6.228038,11887.2
          97.318382,6.224533,11887.2
          97.321274,6.22142,11887.2
          97.324326,6.218215,11887.2
          97.371735,6.169521,11887.2
          97.421776,6.118469,11887.2
          97.470238,6.071365,11887.2
          97.52359,6.023071,11887.2
          97.57428,5.977295,11887.2
          97.627907,5.928818,11887.2
          97.678001,5.885193,11887.2
          97.734375,5.843262,11887.2
          97.791725,5.801605,11887.2
          97.853783,5.761963,11887.2
          97.912621,5.724884,11887.2
          97.971977,5.686203,11887.2
          98.023003,5.643402,11887.2
          98.075882,5.596024,11887.2
          98.126328,5.551168,11887.2
          98.178436,5.504974,11887.2
          98.229408,5.459747,11887.2
          98.279007,5.415655,11887.2
          98.329918,5.3703,11887.2
          98.379967,5.325483,11887.2
          98.432335,5.278419,11887.2
          98.481209,5.234482,11887.2
          98.534233,5.186646,11887.2
          98.584488,5.141182,11887.2
          98.634651,5.095825,11887.2
          98.683128,5.052175,11887.2
          98.73394,5.006321,11887.2
          98.786224,4.95893,11887.2
          98.837883,4.912053,11887.2
          98.888222,4.866571,11887.2
          98.941353,4.818622,11887.2
          98.989944,4.774817,11887.2
          99.043053,4.72673,11887.2
          99.095238,4.679306,11887.2
          99.144699,4.634229,11887.2
          99.197281,4.586105,11887.2
          99.250114,4.537628,11887.2
          99.302025,4.489792,11887.2
          99.35244,4.443318,11887.2
          99.405876,4.394257,11887.2
          99.457855,4.346443,11887.2
          99.510559,4.298075,11887.2
          99.56234,4.250748,11887.2
          99.611191,4.206041,11887.2
          99.66494,4.156696,11887.2
          99.713142,4.112145,11887.2
          99.768028,4.065547,11887.2
          99.824287,4.024487,11887.2
          99.882156,3.981171,11887.2
          99.939133,3.938782,11887.2
          99.995903,3.896655,11887.2
          100.052582,3.854599,11887.2
          100.109314,3.812442,11887.2
          100.164963,3.771103,11887.2
          100.222588,3.728322,11887.2
          100.280457,3.685401,11887.2
          100.334549,3.645172,11887.2
          100.392136,3.602371,11887.2
          100.449066,3.56012,11887.2
          100.507309,3.516815,11887.2
          100.563446,3.475031,11887.2
          100.618523,3.434112,11887.2
          100.674942,3.39212,11887.2
          100.728989,3.351929,11887.2
          100.783638,3.311279,11887.2
          100.84166,3.26806,11887.2
          100.897087,3.226868,11887.2
          100.951416,3.186356,11887.2
          101.009651,3.143005,11887.2
          101.063232,3.103126,11887.2
          101.122093,3.05932,11887.2
          101.17598,3.019135,11887.2
          101.233566,2.976288,11887.2
          101.291199,2.93335,11887.2
          101.347664,2.891235,11887.2
          101.403671,2.849487,11887.2
          101.460884,2.80687,11887.2
          101.51786,2.764389,11887.2
          101.57457,2.722747,11887.2
          101.630783,2.682852,11887.2
          101.688171,2.641979,11887.2
          101.747131,2.599756,11887.2
          101.803818,2.559116,11887.2
          101.860359,2.518616,11887.2
          101.916374,2.478488,11887.2
          101.973373,2.437592,11887.2
          102.027611,2.398682,11887.2
          102.083939,2.358353,11887.2
          102.141411,2.317138,11887.2
          102.196579,2.277615,11887.2
          102.251747,2.238045,11887.2
          102.309761,2.196442,11887.2
          102.366791,2.155472,11887.2
          102.425728,2.113239,11887.2
          102.482742,2.07232,11887.2
          102.539871,2.031372,11765.28
          102.599037,1.988892,11597.64
          102.657341,1.947001,11437.62
          102.712204,1.907639,11186.16
          102.771042,1.865395,10835.64
          102.825005,1.82666,10462.26
          102.883148,1.784912,10119.36
          102.937393,1.745942,9814.56
          102.99366,1.705444,9494.52
          103.046356,1.661124,9159.24
          103.090118,1.61378,8839.2
          103.127617,1.563038,8526.78
          103.159576,1.50824,8214.36
          103.186012,1.448706,7886.7
          103.209244,1.389862,7696.2
          103.232277,1.332325,7536.18
          103.253746,1.278671,7383.78
          103.280235,1.222778,7208.52
          103.31115,1.17041,6896.1
          103.340851,1.118774,6591.3
          103.369843,1.068514,6294.12
          103.399529,1.017259,5989.32
          103.412865,0.99884,5875.02
          103.41552,0.996048,5859.78
          103.418541,0.993256,5836.92
          103.421127,0.991051,5821.68
          103.424728,0.988257,5791.2
          103.426994,0.986628,5783.58
          103.431068,0.984021,5760.72
          103.434151,0.982299,5737.86
          103.436989,0.980809,5730.24
          103.440842,0.979019,5707.38
          103.443962,0.977737,5684.52
          103.447357,0.976501,5669.28
          103.450867,0.975362,5654.04
          103.454369,0.974385,5631.18
          103.457504,0.973663,5615.94
          103.462212,0.972794,5593.08
          103.465637,0.97229,5577.84
          103.469284,0.971918,5554.98
          103.472778,0.971649,5539.74
          103.47683,0.97142,5524.5
          103.480179,0.971266,5501.64
          103.484085,0.9711,5486.4
          103.488136,0.970917,5471.16
          103.492493,0.970707,5463.54
          103.49614,0.970521,5448.3
          103.499687,0.970335,5440.68
          103.50248,0.970184,5433.06
          103.506851,0.96991,5417.82
          103.51091,0.96959,5402.58
          103.563736,0.965286,5166.36
          103.579857,0.965493,5082.54
          103.583313,0.965773,5067.3
          103.586319,0.96611,5052.06
          103.590706,0.966704,5029.2
          103.594116,0.967216,5013.96
          103.597908,0.967804,4998.72
          103.601448,0.968399,4975.86
          103.605522,0.969031,4953
          103.609459,0.969637,4930.14
          103.613129,0.97023,4914.9
          103.616249,0.970734,4899.66
          103.620155,0.971312,4876.8
          103.674614,0.978854,4602.48
          103.728302,0.986115,4328.16
          103.781357,0.993471,4107.18
          103.832878,1.000827,3870.96
          103.883408,1.00767,3688.08
          103.93071,1.013718,3421.38
          103.949753,1.01619,3314.7
          103.965813,1.019302,3223.26
          103.969254,1.020493,3200.4
          103.971909,1.021589,3185.16
          103.974701,1.022919,3169.92
          103.977821,1.024704,3147.06
          103.981094,1.026849,3124.2
          103.983597,1.028641,3108.96
          103.985878,1.030341,3093.72
          103.988106,1.032074,3078.48
          103.990944,1.034344,3063.24
          103.993172,1.036113,3048
          103.995834,1.038208,3032.76
          103.998161,1.040039,3017.52
          104.000908,1.042191,3002.28
          104.003242,1.043976,2987.04
          104.005936,1.046036,2971.8
          104.008377,1.047844,2948.94
          104.010696,1.049613,2933.7
          104.026146,1.060867,2804.16
          104.041809,1.071958,2697.48
          104.060318,1.084993,2583.18
          104.078094,1.097626,2484.12
          104.093849,1.108921,2438.4
          104.111099,1.121338,2392.68
          104.126137,1.132507,2346.96
          104.130417,1.136719,2331.72
          104.132233,1.13887,2331.72
          104.134148,1.141479,2324.1
          104.135635,1.143814,2316.48
          104.137032,1.146561,2316.48
          104.1381,1.148849,2308.86
          104.139076,1.151283,2308.86
          104.140244,1.154297,2301.24
          104.14106,1.156637,2293.62
          104.142151,1.159607,2286
          104.14299,1.161942,2286
          104.143967,1.164551,2278.38
          104.144897,1.167018,2270.76
          104.145943,1.169672,2270.76
          104.147079,1.172604,2263.14
          104.147881,1.174667,2255.52
          104.149017,1.177399,2255.52
          104.155281,1.192154,2225.04
          104.163177,1.210079,2186.94
          104.170082,1.225708,2148.84
          104.176414,1.240082,2118.36
          104.182831,1.254862,2080.26
          104.189125,1.269562,2042.16
          104.195,1.283352,2011.68
          104.198738,1.294618,1965.96
          104.199074,1.296759,1950.72
          104.199265,1.299459,1943.1
          104.199318,1.301514,1935.48
          104.199226,1.303757,1920.24
          104.199036,1.306229,1912.62
          104.198807,1.308746,1897.38
          104.19857,1.310669,1882.14
          104.198296,1.312958,1874.52
          104.197937,1.315287,1859.28
          104.197639,1.317581,1844.04
          104.197319,1.319616,1828.8
          104.196991,1.321976,1813.56
          104.196663,1.324219,1798.32
          104.196243,1.32692,1783.08
          104.1959,1.329532,1767.84
          104.195595,1.331726,1752.6
          104.193588,1.345963,1676.4
          104.191353,1.361932,1592.58
          104.18927,1.375665,1524
          104.187325,1.386745,1485.9
          104.186653,1.389313,1478.28
          104.186005,1.39126,1470.66
          104.185165,1.393433,1463.04
          104.184189,1.395721,1463.04
          104.183258,1.397684,1455.42
          104.182213,1.399733,1447.8
          104.180885,1.402222,1440.18
          104.18013,1.403643,1440.18
          104.178833,1.405975,1432.56
          104.177765,1.407944,1424.94
          104.176674,1.409881,1417.32
          104.175537,1.411883,1417.32
          104.174301,1.414024,1409.7
          104.173218,1.415979,1402.08
          104.171989,1.418152,1394.46
          104.170898,1.420123,1394.46
          104.169708,1.422217,1386.84
          104.168625,1.424173,1379.22
          104.164124,1.43218,1356.36
          104.159622,1.440233,1333.5
          104.156067,1.446579,1310.64
          104.151527,1.454757,1280.16
          104.146744,1.463323,1257.3
          104.142059,1.471756,1234.44
          104.138596,1.477987,1219.2
          104.134003,1.486273,1196.34
          104.129395,1.494644,1173.48
          104.126144,1.500565,1158.24
          104.121407,1.50913,1135.38
          104.11692,1.517212,1112.52
          104.113708,1.52298,1097.28
          104.112267,1.525377,1089.66
          104.11113,1.527053,1082.04
          104.109711,1.528869,1074.42
          104.108383,1.530405,1066.8
          104.107063,1.531662,1059.18
          104.1054,1.533058,1059.18
          104.103371,1.53447,1051.56
          104.101662,1.535526,1043.94
          104.099884,1.536484,1043.94
          104.098343,1.537262,1036.32
          104.096169,1.538272,1036.32
          104.094109,1.539185,1028.7
          104.092194,1.539995,1028.7
          104.090805,1.540558,1028.7
          104.08857,1.541473,1028.7
          104.086838,1.542089,1021.08
          104.084991,1.542648,1021.08
          104.083191,1.543067,1021.08
          104.081581,1.543346,1021.08
          104.079597,1.543486,1013.46
          104.077751,1.543486,1013.46
          104.076088,1.543393,1013.46
          104.074043,1.543167,1013.46
          104.072159,1.542927,1013.46
          104.070366,1.542526,1013.46
          104.06842,1.541996,1005.84
          104.066269,1.541153,1005.84
          104.064629,1.540367,998.22
          104.062927,1.539296,998.22
          104.061478,1.538132,998.22
          104.059799,1.536643,998.22
          104.058617,1.535386,990.6
          104.057518,1.534058,990.6
          104.056305,1.53241,990.6
          104.055328,1.530945,990.6
          104.054451,1.52952,982.98
          104.053467,1.527832,975.36
          104.052505,1.525982,960.12
          104.051651,1.524307,952.5
          104.050896,1.522677,937.26
          104.05014,1.521001,929.64
          104.049332,1.519139,914.4
          104.048721,1.51767,906.78
          104.047974,1.51593,891.54
          104.047157,1.513879,883.92
          104.046402,1.51211,868.68
          104.045692,1.5103,861.06
          104.044952,1.508423,845.82
          104.044319,1.506896,838.2
          104.043648,1.505264,830.58
          104.042854,1.503342,822.96
          104.040108,1.497025,784.86
          104.037918,1.491943,746.76
          104.034988,1.485249,708.66
          104.03289,1.480499,678.18
          104.030396,1.474589,640.08
          104.028374,1.469788,609.6
          104.026604,1.465604,586.74
          104.024185,1.459854,556.26
          104.023628,1.458572,548.64
          104.023102,1.457318,541.02
          104.022629,1.456154,533.4
          104.022003,1.454681,525.78
          104.021393,1.453217,518.16
          104.020828,1.451964,510.54
          104.019691,1.449264,495.3
          104.01902,1.447678,487.68
          104.018555,1.446487,480.06
          104.017937,1.445121,472.44
          104.015762,1.439814,441.96
          104.01413,1.435913,419.1
          104.011879,1.430643,381
          104.010269,1.426826,358.14
          104.008125,1.421722,327.66
          104.006622,1.418167,304.8
          104.004494,1.413186,274.32
          104.002357,1.408127,243.84
          104.000305,1.403183,213.36
          103.998772,1.399475,198.12
          103.996582,1.394302,167.64
          103.994438,1.389267,129.54
          103.992371,1.38437,99.06
          103.990189,1.379157,76.2
          103.988533,1.375246,45.72
          103.986809,1.371048,30.48
          103.981239,1.357738,0
          103.981163,1.356056,0
          103.981194,1.355706,0
          103.981224,1.355415,0
          103.98127,1.355118,0
          103.9813,1.354821,0
          103.981354,1.354344,0
          103.981392,1.353756,0
          103.98143,1.353425,0
          103.981567,1.353218,0
          103.981781,1.353092,0
          103.982033,1.353087,0
          103.982254,1.353275,0
          103.982292,1.35353,0
          103.982361,1.353751,0
          103.982498,1.354042,0
          103.982613,1.354259,0
          103.982742,1.35453,0
          103.982849,1.354752,0
          103.983116,1.354935,0
          103.983337,1.3549,0
          103.983582,1.354843,0
          103.983803,1.354843,0
          103.984024,1.354845,0
        </coordinates>
      </LineString>
    </Placemark>
  </Document>
</kml>