<?xml version='1.0' encoding='utf-8'?>
<kml xmlns="http://www.opengis.net/kml/2.2">
  <Document>
    <Placemark>
      <name>UX9045-2025-07-29</name>
      <TimeStamp>
        <when>2025-07-29</when>
      </TimeStamp>
      <LineString>
        <altitudeMode>absolute</altitudeMode>
        <coordinates>
          -16.344646,28.486324,0
          -16.344513,28.486118,0
          -16.344486,28.485912,0
          -16.344587,28.485699,0
          -16.344671,28.485489,0
          -16.344774,28.485279,0
          -16.344963,28.485077,0
          -16.345192,28.485023,0
          -16.344923,28.48493,0
          -16.344646,28.484848,0
          -16.344276,28.484722,0
          -16.343748,28.48455,0
          -16.34322,28.484367,0
          -16.342661,28.484186,0
          -16.341841,28.483917,0
          -16.341167,28.483685,0
          -16.340366,28.483418,0
          -16.339376,28.483091,0
          -16.338531,28.482811,0
          -16.337673,28.482536,0
          -16.336763,28.482231,0
          -16.335821,28.481916,0
          -16.334852,28.48159,0
          -16.333708,28.481218,0
          -16.332968,28.480961,0
          -16.33177,28.480577,0
          -16.330767,28.480236,0
          -16.329672,28.47987,0
          -16.328588,28.479515,0
          -16.327824,28.479252,0
          -16.326977,28.478971,0
          -16.326195,28.478716,0
          -16.325764,28.478552,0
          -16.325548,28.478413,0
          -16.325333,28.478134,0
          -16.32526,28.477924,0
          -16.325274,28.477718,0
          -16.325415,28.477493,0
          -16.325657,28.477409,0
          -16.325922,28.477455,0
          -16.326128,28.477528,0
          -16.326344,28.477604,0
          -16.326555,28.477673,0
          -16.327492,28.477993,0
          -16.329346,28.4786,0
          -16.332199,28.479542,563.88
          -16.336723,28.481049,563.88
          -16.342432,28.482941,563.88
          -16.350191,28.485535,609.6
          -16.355473,28.487228,662.94
          -16.362736,28.48941,746.76
          -16.368626,28.491165,822.96
          -16.375931,28.49332,922.02
          -16.381777,28.495056,990.6
          -16.3897,28.497299,1074.42
          -16.398172,28.499514,1135.38
          -16.403961,28.501053,1165.86
          -16.413521,28.503656,1226.82
          -16.422184,28.506134,1272.54
          -16.429569,28.508265,1295.4
          -16.439508,28.511215,1348.74
          -16.447287,28.513432,1386.84
          -16.458839,28.516754,1463.04
          -16.468237,28.519577,1577.34
          -16.48477,28.524324,1783.08
          -16.497641,28.529074,1912.62
          -16.499828,28.530304,1935.48
          -16.502047,28.531769,1958.34
          -16.504105,28.533356,1988.82
          -16.505955,28.535019,2011.68
          -16.508036,28.537174,2042.16
          -16.509863,28.539505,2072.64
          -16.511183,28.541428,2095.5
          -16.512344,28.543459,2118.36
          -16.51342,28.545553,2141.22
          -16.514282,28.547928,2171.7
          -16.515198,28.551041,2194.56
          -16.515673,28.553925,2225.04
          -16.515844,28.556168,2240.28
          -16.515844,28.558495,2270.76
          -16.515575,28.561474,2301.24
          -16.514881,28.564819,2331.72
          -16.514141,28.5672,2362.2
          -16.513138,28.56958,2385.06
          -16.512081,28.571686,2407.92
          -16.510889,28.573811,2430.78
          -16.509335,28.576447,2468.88
          -16.50754,28.579376,2499.36
          -16.506113,28.581665,2522.22
          -16.504528,28.584137,2545.08
          -16.503349,28.586054,2560.32
          -16.501993,28.588211,2575.56
          -16.50062,28.590317,2583.18
          -16.49893,28.593018,2598.42
          -16.497587,28.595131,2606.04
          -16.496342,28.597092,2621.28
          -16.485685,28.613892,2705.1
          -16.476099,28.628742,2827.02
          -16.464174,28.646667,2994.66
          -16.452608,28.663788,3185.16
          -16.442387,28.678553,3345.18
          -16.431322,28.694412,3505.2
          -16.41993,28.71072,3657.6
          -16.392076,28.750305,4008.12
          -16.362551,28.792648,4198.62
          -16.329668,28.8379,4511.04
          -16.324627,28.843231,4564.38
          -16.321915,28.845816,4587.24
          -16.318817,28.848633,4617.72
          -16.316097,28.850983,4640.58
          -16.312597,28.853823,4671.06
          -16.309258,28.856382,4709.16
          -16.306351,28.858524,4732.02
          -16.302473,28.861223,4770.12
          -16.299379,28.863327,4800.6
          -16.296118,28.865414,4831.08
          -16.292078,28.867834,4876.8
          -16.288794,28.869789,4907.28
          -16.2847,28.87221,4945.38
          -16.281475,28.874084,4968.24
          -16.277861,28.876261,4998.72
          -16.274845,28.878075,5021.58
          -16.226376,28.908148,5387.34
          -16.176945,28.939133,5692.14
          -16.126205,28.970854,6004.56
          -16.072048,29.004501,6316.98
          -16.019735,29.037004,6576.06
          -15.965617,29.070648,6842.76
          -15.909735,29.105347,7109.46
          -15.850577,29.141968,7360.92
          -15.792092,29.177965,7597.14
          -15.732314,29.214602,7840.98
          -15.671839,29.25174,8061.96
          -15.60861,29.290762,8275.32
          -15.544968,29.32988,8473.44
          -15.483506,29.367479,8648.7
          -15.417463,29.407837,8839.2
          -15.352909,29.447224,9029.7
          -15.286937,29.487398,9212.58
          -15.222878,29.526352,9364.98
          -15.154319,29.568008,9517.38
          -15.085654,29.609756,9662.16
          -15.017448,29.651169,9799.32
          -14.949162,29.692413,9936.48
          -14.877588,29.735567,10081.26
          -14.807147,29.777931,10218.42
          -14.73911,29.818817,10401.3
          -14.66886,29.860931,10584.18
          -14.603577,29.900129,10736.58
          -14.535451,29.940903,10873.74
          -14.468884,29.980387,10980.42
          -14.399506,30.021166,10972.8
          -14.333532,30.060316,10972.8
          -14.265912,30.10063,10972.8
          -14.197351,30.141632,10972.8
          -14.128363,30.182749,10972.8
          -14.0604,30.223022,10972.8
          -13.992188,30.264587,10972.8
          -13.967232,30.284042,10972.8
          -13.963404,30.287306,10972.8
          -13.959338,30.290936,10972.8
          -13.955823,30.294195,10972.8
          -13.951937,30.297867,10972.8
          -13.948544,30.301208,10972.8
          -13.944828,30.304916,10972.8
          -13.940991,30.308859,10972.8
          -13.936804,30.313339,10972.8
          -13.933626,30.316864,10972.8
          -13.930554,30.320356,10972.8
          -13.926571,30.325012,10972.8
          -13.923555,30.328629,10972.8
          -13.920611,30.332273,10972.8
          -13.916931,30.336836,10972.8
          -13.914131,30.340393,10972.8
          -13.911169,30.344055,10972.8
          -13.863131,30.403107,10972.8
          -13.818054,30.458199,10972.8
          -13.769165,30.517784,10972.8
          -13.719824,30.577927,10972.8
          -13.670923,30.637573,10972.8
          -13.622616,30.69635,10972.8
          -13.573285,30.756271,10972.8
          -13.52487,30.815002,10972.8
          -13.476819,30.873259,10972.8
          -13.426776,30.933868,10972.8
          -13.37747,30.99353,10972.8
          -13.32735,31.053741,10972.8
          -13.277893,31.11319,10972.8
          -13.229478,31.171326,10972.8
          -13.180093,31.230652,10972.8
          -13.129486,31.291344,10972.8
          -13.079773,31.350651,10972.8
          -13.029785,31.410332,10972.8
          -12.981047,31.468506,10972.8
          -12.931073,31.527969,10972.8
          -12.884051,31.583971,10972.8
          -12.833789,31.643604,10972.8
          -12.786686,31.699448,10972.8
          -12.737055,31.758217,10972.8
          -12.688001,31.816177,10972.8
          -12.639658,31.873247,10972.8
          -12.589603,31.932182,10972.8
          -12.538422,31.992462,10972.8
          -12.489661,32.049633,10972.8
          -12.4414,32.106102,10972.8
          -12.389173,32.167007,10972.8
          -12.339569,32.224869,10972.8
          -12.289441,32.283371,10972.8
          -12.238713,32.342632,10972.8
          -12.188154,32.401337,10972.8
          -12.136978,32.460644,10972.8
          -12.085746,32.520229,10972.8
          -12.034401,32.579632,10972.8
          -11.983722,32.638092,10972.8
          -11.931372,32.69838,10972.8
          -11.882891,32.7542,10972.8
          -11.831154,32.813507,10972.8
          -11.781408,32.870453,10972.8
          -11.730932,32.928215,10972.8
          -11.678411,32.988358,10972.8
          -11.626058,33.04813,10972.8
          -11.5732,33.108372,10972.8
          -11.51933,33.16713,10972.8
          -11.463,33.223122,10972.8
          -11.409189,33.276657,10972.8
          -11.352777,33.332748,10972.8
          -11.295978,33.389053,10972.8
          -11.239574,33.444756,10972.8
          -11.185565,33.498138,10972.8
          -11.128085,33.554947,10972.8
          -11.070239,33.61203,10972.8
          -11.011848,33.669605,10972.8
          -10.95791,33.72258,10972.8
          -10.900512,33.778839,10972.8
          -10.842133,33.835888,10972.8
          -10.785255,33.891426,10972.8
          -10.730896,33.944309,10972.8
          -10.671959,34.001568,10972.8
          -10.61425,34.057571,10972.8
          -10.55975,34.110409,10972.8
          -10.501957,34.166271,10972.8
          -10.446652,34.21962,10972.8
          -10.391329,34.273087,10972.8
          -10.331296,34.330994,10972.8
          -10.27345,34.38652,10972.8
          -10.214825,34.442791,10972.8
          -10.156412,34.49881,10972.8
          -10.098621,34.553925,10972.8
          -10.040439,34.60936,10972.8
          -9.981136,34.665775,10972.8
          -9.924914,34.719131,10972.8
          -9.867517,34.773651,10972.8
          -9.808212,34.82991,10972.8
          -9.751854,34.883221,10972.8
          -9.694593,34.93721,10972.8
          -9.637699,34.990665,10972.8
          -9.581451,35.043594,10972.8
          -9.522176,35.099304,10972.8
          -9.46433,35.15332,10972.8
          -9.406147,35.207611,10972.8
          -9.347763,35.262039,10972.8
          -9.289627,35.316193,10972.8
          -9.231262,35.370392,10972.8
          -9.172955,35.424591,10972.8
          -9.11538,35.47802,10972.8
          -9.057884,35.531204,10972.8
          -8.999519,35.585083,10972.8
          -8.941702,35.638344,10972.8
          -8.884907,35.690643,10972.8
          -8.826485,35.744202,10972.8
          -8.768692,35.797119,10972.8
          -8.711529,35.84935,10972.8
          -8.653851,35.901993,10972.8
          -8.594815,35.955738,10972.8
          -8.536844,36.00848,10972.8
          -8.478173,36.061737,10972.8
          -8.419533,36.114807,10972.8
          -8.360882,36.167679,10972.8
          -8.3028,36.219967,10972.8
          -8.244839,36.272049,10972.8
          -8.186976,36.324154,10972.8
          -8.129006,36.376385,10972.8
          -8.070202,36.429108,10972.8
          -8.012638,36.480377,10972.8
          -7.954216,36.532333,10972.8
          -7.89841,36.582005,10972.8
          -7.840004,36.633911,10972.8
          -7.782211,36.685364,10972.8
          -7.724361,36.736862,10972.8
          -7.665768,36.788681,10972.8
          -7.607346,36.840225,10972.8
          -7.549127,36.891357,10972.8
          -7.491507,36.941895,10972.8
          -7.431491,36.994492,10972.8
          -7.373319,37.045479,10972.8
          -7.316178,37.097294,10972.8
          -7.260828,37.148266,10972.8
          -7.204635,37.199661,10972.8
          -7.148636,37.25045,10972.8
          -7.091499,37.301926,10972.8
          -7.037101,37.351002,10972.8
          -6.978707,37.403511,10972.8
          -6.919416,37.456814,10972.8
          -6.862574,37.50779,10972.8
          -6.805015,37.559322,10972.8
          -6.749345,37.609085,10972.8
          -6.692427,37.659805,10972.8
          -6.637963,37.708282,10972.8
          -6.578999,37.760742,10972.8
          -6.519743,37.813431,10972.8
          -6.464344,37.862457,10972.8
          -6.402925,37.916702,10972.8
          -6.344546,37.968201,10972.8
          -6.28716,38.018692,10972.8
          -6.230359,38.068588,10972.8
          -6.172645,38.119205,10972.8
          -6.116101,38.168644,10972.8
          -6.05931,38.218323,10972.8
          -6.003093,38.267487,10972.8
          -5.946116,38.317108,10972.8
          -5.888789,38.366776,10972.8
          -5.808722,38.436081,10972.8
          -5.74991,38.486938,10972.8
          -5.694458,38.534779,10972.8
          -5.635509,38.585541,10972.8
          -5.577771,38.635162,10972.8
          -5.529706,38.67627,10972.8
          -5.460623,38.735367,10927.08
          -5.402222,38.785229,10828.02
          -5.342878,38.836121,10721.34
          -5.283569,38.886665,10614.66
          -5.226626,38.935089,10454.64
          -5.165222,38.984566,10241.28
          -5.124451,39.010448,10050.78
          -5.11908,39.013474,10027.92
          -5.114319,39.016037,10005.06
          -5.108398,39.019199,9974.58
          -5.103943,39.021481,9959.34
          -5.088257,39.029118,9913.62
          -5.012751,39.065598,9448.8
          -4.936145,39.102997,9083.04
          -4.866699,39.136326,8808.72
          -4.795473,39.170151,8542.02
          -4.73291,39.204945,8221.98
          -4.728599,39.207916,8199.12
          -4.724792,39.210625,8176.26
          -4.720093,39.214024,8145.78
          -4.717255,39.216156,8122.92
          -4.712896,39.219452,8092.44
          -4.709433,39.222153,8069.58
          -4.706055,39.224728,8054.34
          -4.649475,39.268394,7665.72
          -4.594136,39.310959,7277.1
          -4.537891,39.354263,6926.58
          -4.48272,39.39679,6583.68
          -4.428467,39.438496,6248.4
          -4.375427,39.479279,5928.36
          -4.323669,39.51894,5654.04
          -4.272129,39.558701,5257.8
          -4.22406,39.595146,4945.38
          -4.174561,39.632854,4709.16
          -4.126038,39.669537,4488.18
          -4.078018,39.706741,4244.34
          -4.03246,39.74176,4008.12
          -3.984932,39.777328,3802.38
          -3.936389,39.8134,3589.02
          -3.91687,39.827953,3489.96
          -3.894409,39.844757,3383.28
          -3.875726,39.858856,3284.22
          -3.853634,39.875519,3215.64
          -3.835632,39.889122,3177.54
          -3.814764,39.904861,3124.2
          -3.798224,39.917313,3086.1
          -3.781419,39.929855,3040.38
          -3.764954,39.942169,2971.8
          -3.748535,39.954483,2910.84
          -3.730347,39.968124,2811.78
          -3.711731,39.982132,2705.1
          -3.692993,39.996185,2613.66
          -3.674683,40.009872,2491.74
          -3.658135,40.022217,2392.68
          -3.644465,40.034691,2308.86
          -3.642405,40.03688,2293.62
          -3.639771,40.039719,2278.38
          -3.637817,40.041824,2263.14
          -3.63562,40.044159,2247.9
          -3.633166,40.046749,2232.66
          -3.631356,40.048656,2225.04
          -3.629028,40.051117,2209.8
          -3.616394,40.064484,2133.6
          -3.604065,40.077347,2042.16
          -3.591531,40.090416,1973.58
          -3.579468,40.103256,1912.62
          -3.565937,40.117928,1836.42
          -3.557635,40.129147,1783.08
          -3.556519,40.131454,1775.46
          -3.555542,40.133698,1767.84
          -3.554514,40.136177,1752.6
          -3.553528,40.138596,1744.98
          -3.552641,40.141018,1729.74
          -3.551636,40.143539,1722.12
          -3.550644,40.146091,1706.88
          -3.549645,40.148746,1691.64
          -3.548767,40.151184,1684.02
          -3.547648,40.154007,1668.78
          -3.546631,40.156631,1661.16
          -3.545712,40.159031,1645.92
          -3.544839,40.161407,1638.3
          -3.538097,40.178726,1569.72
          -3.532654,40.192886,1516.38
          -3.529795,40.20023,1485.9
          -3.525987,40.210148,1447.8
          -3.523178,40.217644,1424.94
          -3.519745,40.227184,1402.08
          -3.516541,40.236191,1379.22
          -3.514065,40.243244,1356.36
          -3.510742,40.252625,1333.5
          -3.50776,40.261448,1310.64
          -3.504822,40.270157,1280.16
          -3.501892,40.2789,1257.3
          -3.499645,40.285469,1234.44
          -3.497523,40.291985,1219.2
          -3.494812,40.300598,1203.96
          -3.492676,40.306961,1188.72
          -3.490234,40.314148,1165.86
          -3.488342,40.32019,1143
          -3.486099,40.327042,1135.38
          -3.484476,40.332253,1135.38
          -3.482354,40.339096,1135.38
          -3.480347,40.345505,1143
          -3.478149,40.352325,1143
          -3.476112,40.358883,1143
          -3.474304,40.365555,1150.62
          -3.47374,40.368889,1150.62
          -3.473615,40.370518,1143
          -3.473552,40.37215,1143
          -3.473615,40.373592,1143
          -3.473677,40.3755,1143
          -3.47374,40.377083,1143
          -3.473802,40.378712,1135.38
          -3.47406,40.380707,1127.76
          -3.474551,40.382439,1120.14
          -3.475238,40.383972,1104.9
          -3.476237,40.385788,1097.28
          -3.477295,40.387253,1082.04
          -3.478394,40.388626,1074.42
          -3.479431,40.389771,1066.8
          -3.480835,40.391144,1051.56
          -3.482104,40.392399,1043.94
          -3.483602,40.393841,1036.32
          -3.485229,40.395401,1021.08
          -3.486536,40.396637,1005.84
          -3.487915,40.397919,990.6
          -3.489258,40.399246,975.36
          -3.490356,40.400345,967.74
          -3.491655,40.401569,952.5
          -3.493042,40.402954,937.26
          -3.494202,40.404099,929.64
          -3.49565,40.405575,922.02
          -3.496948,40.406845,914.4
          -3.501767,40.411625,891.54
          -3.505249,40.415131,876.3
          -3.510376,40.420166,838.2
          -3.515375,40.425079,800.1
          -3.519121,40.428848,769.62
          -3.524048,40.433716,731.52
          -3.52771,40.437241,708.66
          -3.532666,40.442165,678.18
          -3.537598,40.447052,640.08
          -3.541468,40.450871,617.22
          -3.546462,40.455757,579.12
          -3.551453,40.460678,541.02
          -3.555054,40.464203,518.16
          -3.559753,40.468918,495.3
          -3.563477,40.472534,502.92
          -3.56575,40.474773,0
          -3.568075,40.477077,0
          -3.56948,40.478439,0
          -3.570892,40.479858,0
          -3.57143,40.480335,0
          -3.571633,40.480499,0
          -3.572006,40.480762,0
          -3.572445,40.48101,0
          -3.572784,40.481174,0
          -3.572998,40.481277,0
          -3.573303,40.481396,0
          -3.573584,40.481499,0
          -3.573868,40.481609,0
          -3.574193,40.481731,0
          -3.574458,40.48177,0
          -3.574722,40.481724,0
          -3.574926,40.48156,0
          -3.575004,40.481316,0
          -3.574844,40.481071,0
          -3.574583,40.480789,0
          -3.57438,40.480602,0
          -3.574146,40.48037,0
          -3.573927,40.480164,0
          -3.573522,40.479755,0
          -3.573007,40.479256,0
          -3.572617,40.478874,0
          -3.572037,40.478291,0
          -3.571524,40.477787,0
          -3.570822,40.477089,0
          -3.570291,40.476578,0
          -3.569733,40.476036,0
          -3.569183,40.475483,0
          -3.568726,40.47504,0
          -3.568263,40.474586,0
          -3.567826,40.474155,0
          -3.567245,40.473587,0
          -3.566796,40.473133,0
          -3.566162,40.472511,0
          -3.565719,40.472073,0
          -3.565338,40.471676,0
          -3.565155,40.471447,0
          -3.56497,40.471165,0
          -3.564819,40.470898,0
          -3.564705,40.470596,0
          -3.564642,40.470387,0
          -3.56459,40.470097,0
          -3.564575,40.469879,0
          -3.564575,40.46965,0
          -3.56459,40.469421,0
          -3.564611,40.469162,0
          -3.564743,40.468952,0
          -3.56497,40.468861,0
          -3.565216,40.468838,0
          -3.565445,40.468838,0
          -3.565656,40.468838,0
          -3.565872,40.468849,0
          -3.566086,40.468861,0
          -3.566315,40.468895,0
          -3.566544,40.469009,0
          -3.566666,40.469215,0
          -3.566796,40.469456,0
          -3.56694,40.469673,0
          -3.567154,40.469948,0
          -3.567337,40.470154,0
          -3.567551,40.470371,0
          -3.56781,40.4706,0
          -3.568013,40.470783,0
          -3.568237,40.470943,0
          -3.568497,40.471138,0
          -3.568793,40.471397,0
          -3.569027,40.471584,0
          -3.569244,40.471573,0
          -3.569458,40.471447,0
          -3.569611,40.47123,0
          -3.569745,40.471016,0
        </coordinates>
      </LineString>
    </Placemark>
  </Document>
</kml>