<?xml version='1.0' encoding='utf-8'?>
<kml xmlns="http://www.opengis.net/kml/2.2">
  <Document>
    <Placemark>
      <name>VA743-2025-12-07</name>
      <TimeStamp>
        <when>2025-12-07</when>
      </TimeStamp>
      <LineString>
        <altitudeMode>absolute</altitudeMode>
        <coordinates>
          144.846268,-37.670723,0
          144.846207,-37.67049,0
          144.84613,-37.670219,0
          144.845886,-37.670082,0
          144.845657,-37.670105,0
          144.845352,-37.670128,0
          144.844971,-37.670151,0
          144.844681,-37.670223,0
          144.844452,-37.670326,0
          144.844238,-37.67041,0
          144.843948,-37.67046,0
          144.843719,-37.67049,0
          144.843506,-37.670513,0
          144.843246,-37.670547,0
          144.84285,-37.670582,0
          144.842377,-37.670643,0
          144.841751,-37.670712,0
          144.841507,-37.670746,0
          144.841263,-37.67078,0
          144.840958,-37.670792,0
          144.840668,-37.670723,0
          144.840408,-37.670528,0
          144.840271,-37.670231,0
          144.840195,-37.669769,0
          144.840118,-37.669384,0
          144.840012,-37.668816,0
          144.839828,-37.667828,0
          144.839798,-37.667591,0
          144.83963,-37.666683,0
          144.839462,-37.665871,0
          144.839325,-37.665104,0
          144.839203,-37.664463,0
          144.839142,-37.664028,0
          144.839233,-37.663742,0
          144.839447,-37.663548,0
          144.839737,-37.663425,0
          144.840057,-37.663403,0
          144.840286,-37.66341,0
          144.840607,-37.663437,0
          144.841049,-37.663471,0
          144.841309,-37.663483,0
          144.841583,-37.663506,0
          144.841919,-37.663525,0
          144.842133,-37.663544,0
          144.842438,-37.663548,0
          144.843262,-37.663605,0
          144.844269,-37.663662,0
          144.84494,-37.663696,0
          144.845657,-37.663738,0
          144.846375,-37.663788,0
          144.847,-37.663811,0
          144.847427,-37.663834,0
          144.847656,-37.663834,0
          144.847855,-37.663601,0
          144.84787,-37.663399,0
          144.847885,-37.66317,0
          144.8479,-37.662952,0
          144.847931,-37.662712,0
          144.847961,-37.662357,0
          144.847748,-37.662251,0
          144.847412,-37.662228,0
          144.845856,-37.662121,0
          144.843109,-37.661957,0
          144.841415,-37.661865,121.92
          144.840179,-37.661774,121.92
          144.838608,-37.661682,121.92
          144.837479,-37.661644,121.92
          144.834381,-37.661457,121.92
          144.832535,-37.661362,121.92
          144.830887,-37.661224,114.3
          144.828964,-37.661133,114.3
          144.827209,-37.661041,121.92
          144.824463,-37.660854,144.78
          144.822891,-37.660767,175.26
          144.820465,-37.660576,213.36
          144.813187,-37.660015,312.42
          144.806198,-37.659504,396.24
          144.800217,-37.659039,480.06
          144.791977,-37.65834,579.12
          144.783203,-37.657745,640.08
          144.774155,-37.65715,678.18
          144.766541,-37.656616,716.28
          144.75592,-37.656006,762
          144.74826,-37.655548,800.1
          144.736389,-37.654896,883.92
          144.727219,-37.654404,929.64
          144.717987,-37.6539,982.98
          144.705368,-37.653351,1074.42
          144.692215,-37.652752,1249.68
          144.689072,-37.652481,1287.78
          144.686295,-37.652195,1325.88
          144.682632,-37.651611,1371.6
          144.680511,-37.651218,1402.08
          144.67691,-37.650238,1440.18
          144.673584,-37.649185,1478.28
          144.670776,-37.648087,1508.76
          144.667969,-37.646793,1539.24
          144.665756,-37.645676,1562.1
          144.662949,-37.644047,1592.58
          144.661041,-37.642746,1607.82
          144.658737,-37.641037,1638.3
          144.65657,-37.639206,1668.78
          144.654297,-37.637009,1706.88
          144.65213,-37.634537,1744.98
          144.650497,-37.632385,1767.84
          144.648743,-37.629822,1805.94
          144.647552,-37.627567,1836.42
          144.646301,-37.624962,1866.9
          144.645096,-37.622028,1905
          144.644272,-37.619656,1935.48
          144.643417,-37.617279,1965.96
          144.642349,-37.614441,1996.44
          144.641556,-37.612198,2019.3
          144.64032,-37.609135,2057.4
          144.639374,-37.606667,2087.88
          144.638275,-37.603958,2125.98
          144.637466,-37.601669,2156.46
          144.636353,-37.598694,2186.94
          144.635483,-37.596405,2209.8
          144.634476,-37.593678,2240.28
          144.628387,-37.578178,2415.54
          144.624435,-37.564407,2567.94
          144.624207,-37.56179,2590.8
          144.624146,-37.559418,2621.28
          144.624374,-37.555786,2659.38
          144.624786,-37.553101,2689.86
          144.625397,-37.550339,2720.34
          144.626358,-37.54715,2750.82
          144.627365,-37.544521,2781.3
          144.628754,-37.541382,2804.16
          144.630219,-37.538681,2827.02
          144.632019,-37.535767,2849.88
          144.633575,-37.533672,2872.74
          144.636261,-37.53046,2895.6
          144.638657,-37.527992,2918.46
          144.640686,-37.526131,2933.7
          144.644073,-37.523438,2956.56
          144.646515,-37.521652,2971.8
          144.649567,-37.51973,2994.66
          144.652771,-37.517761,3017.52
          144.65593,-37.51593,3040.38
          144.660019,-37.51355,3070.86
          144.662476,-37.512165,3086.1
          144.665817,-37.510212,3101.34
          144.669647,-37.507977,3124.2
          144.672699,-37.506134,3131.82
          144.675507,-37.504486,3147.06
          144.67926,-37.502251,3154.68
          144.682343,-37.500366,3162.3
          144.686127,-37.498108,3177.54
          144.689636,-37.496014,3192.78
          144.711395,-37.48288,3261.36
          144.732544,-37.468597,3352.8
          144.752411,-37.4534,3520.44
          144.773361,-37.437637,3680.46
          144.824051,-37.399464,4084.32
          144.87706,-37.359329,4526.28
          144.929916,-37.318928,4914.9
          144.982986,-37.278427,5303.52
          145.036972,-37.237274,5646.42
          145.09346,-37.194122,6035.04
          145.14827,-37.152039,6400.8
          145.205582,-37.107952,6705.6
          145.262253,-37.061306,6979.92
          145.313416,-37.011932,7261.86
          145.365189,-36.961945,7543.8
          145.418304,-36.910446,7825.74
          145.472183,-36.858154,8077.2
          145.525879,-36.805893,8298.18
          145.583038,-36.750137,8534.4
          145.639282,-36.69516,8763
          145.696686,-36.638947,8999.22
          145.754303,-36.582458,9227.82
          145.809204,-36.528469,9418.32
          145.868286,-36.470306,9608.82
          145.923447,-36.415878,9768.84
          145.981415,-36.358521,9928.86
          146.040009,-36.30043,10157.46
          146.095779,-36.24506,10363.2
          146.152115,-36.189106,10538.46
          146.207825,-36.133667,10713.72
          146.265259,-36.076496,10896.6
          146.322388,-36.019638,11109.96
          146.37886,-35.963139,11285.22
          146.433899,-35.907898,11407.14
          146.488953,-35.852577,11536.68
          146.544342,-35.796936,11666.22
          146.597824,-35.742714,11727.18
          146.653748,-35.685837,11788.14
          146.710083,-35.628708,11856.72
          146.767273,-35.570709,11887.2
          146.824615,-35.512482,11887.2
          146.882111,-35.453796,11887.2
          146.935944,-35.39888,11887.2
          146.989685,-35.344162,11887.2
          147.045425,-35.287216,11887.2
          147.099899,-35.231277,11887.2
          147.15744,-35.172226,11887.2
          147.211929,-35.116215,11887.2
          147.264053,-35.062546,11887.2
          147.317734,-35.007004,11887.2
          147.370209,-34.952305,11887.2
          147.424759,-34.895691,11887.2
          147.479034,-34.839184,11887.2
          147.531342,-34.784763,11887.2
          147.582489,-34.731319,11887.2
          147.635483,-34.675785,11887.2
          147.68692,-34.621876,11879.58
          147.738419,-34.567783,11887.2
          147.791977,-34.511642,11887.2
          147.844925,-34.4561,11887.2
          147.900421,-34.397736,11887.2
          147.952103,-34.343262,11887.2
          148.004227,-34.288147,11887.2
          148.054901,-34.234314,11887.2
          148.108063,-34.177628,11887.2
          148.160126,-34.12228,11887.2
          148.212006,-34.06723,11887.2
          148.265091,-34.010559,11887.2
          148.31958,-33.952332,11887.2
          148.373398,-33.89473,11887.2
          148.423462,-33.841244,11887.2
          148.475632,-33.785202,11887.2
          148.529831,-33.726883,11887.2
          148.583694,-33.668747,11887.2
          148.634155,-33.614395,11887.2
          148.686447,-33.557922,11887.2
          148.737564,-33.502342,11887.2
          148.787567,-33.447968,11887.2
          148.840469,-33.390339,11887.2
          148.893143,-33.333115,11887.2
          148.945175,-33.276192,11887.2
          148.996643,-33.220001,11887.2
          149.048218,-33.163742,11887.2
          149.098099,-33.109116,11887.2
          149.148956,-33.053238,11887.2
          149.197632,-32.999588,11887.2
          149.248871,-32.942924,11887.2
          149.29747,-32.889713,11887.2
          149.347076,-32.835342,11887.2
          149.39473,-32.782562,11887.2
          149.445313,-32.726303,11887.2
          149.492279,-32.673798,11887.2
          149.541519,-32.618919,11887.2
          149.593826,-32.560776,11887.2
          149.641464,-32.50552,11887.2
          149.687134,-32.450592,11681.46
          149.736191,-32.391094,11323.32
          149.782211,-32.335968,11277.6
          149.831604,-32.276871,11269.98
          149.878464,-32.221176,11277.6
          149.926437,-32.164059,11277.6
          149.959152,-32.11615,11277.6
          149.961639,-32.111362,11277.6
          149.963547,-32.107544,11277.6
          149.964966,-32.104431,11277.6
          149.9673,-32.099396,11277.6
          149.968597,-32.096283,11277.6
          149.970779,-32.091064,11277.6
          149.972183,-32.087341,11277.6
          149.973862,-32.082638,11277.6
          149.975143,-32.078915,11277.6
          149.976776,-32.073853,11277.6
          149.977844,-32.070114,11277.6
          149.979187,-32.065228,11277.6
          149.980301,-32.060898,11277.6
          149.98114,-32.057175,11277.6
          149.981934,-32.053452,11277.6
          149.983002,-32.047771,11277.6
          149.983704,-32.043274,11277.6
          149.984283,-32.039391,11277.6
          149.984863,-32.034302,11277.6
          149.985245,-32.030594,11277.6
          149.98558,-32.026169,11277.6
          149.985794,-32.022263,11277.6
          149.985916,-32.018631,11277.6
          149.986008,-32.013977,11277.6
          149.986023,-32.010159,11277.6
          149.986023,-32.00634,11277.6
          149.986008,-32.001343,11277.6
          149.985962,-31.997726,11277.6
          149.985916,-31.993677,11277.6
          149.984589,-31.93158,11277.6
          149.983673,-31.872408,11277.6
          149.982437,-31.80961,11277.6
          149.981293,-31.752443,11277.6
          149.979919,-31.688187,11277.6
          149.977814,-31.625931,11277.6
          149.976257,-31.562897,11277.6
          149.974808,-31.50432,11277.6
          149.974197,-31.437378,11277.6
          149.980576,-31.376953,11277.6
          149.987549,-31.309034,11277.6
          149.993423,-31.245667,11277.6
          149.998596,-31.179565,11277.6
          150.00296,-31.116669,11285.22
          150.010391,-31.056793,11277.6
          150.012604,-31.048294,11277.6
          150.013947,-31.043655,11277.6
          150.015228,-31.039402,11277.6
          150.016449,-31.03554,11277.6
          150.0177,-31.031488,11277.6
          150.018738,-31.028229,11277.6
          150.038696,-30.964827,11277.6
          150.05957,-30.903214,11277.6
          150.085632,-30.845215,11277.6
          150.113586,-30.783096,11277.6
          150.140091,-30.724756,11277.6
          150.168381,-30.66247,11277.6
          150.197006,-30.598879,11277.6
          150.224792,-30.536499,11277.6
          150.253143,-30.473467,11277.6
          150.281387,-30.410294,11277.6
          150.308319,-30.348633,11277.6
          150.339935,-30.286188,11277.6
          150.377075,-30.224972,11277.6
          150.393188,-30.204437,11277.6
          150.39624,-30.200857,11277.6
          150.400024,-30.196609,11277.6
          150.403854,-30.192444,11277.6
          150.406662,-30.189514,11277.6
          150.409805,-30.186239,11277.6
          150.4142,-30.181778,11277.6
          150.417664,-30.178419,11277.6
          150.420975,-30.175278,11277.6
          150.425125,-30.171478,11277.6
          150.429657,-30.167404,11277.6
          150.434525,-30.163242,11277.6
          150.437988,-30.16045,11277.6
          150.442261,-30.157013,11277.6
          150.446182,-30.153946,11277.6
          150.450378,-30.150787,11277.6
          150.454849,-30.147509,11277.6
          150.459213,-30.144424,11277.6
          150.463364,-30.141596,11277.6
          150.467819,-30.138617,11277.6
          150.472351,-30.135727,11277.6
          150.476715,-30.132984,11277.6
          150.481628,-30.130051,11277.6
          150.484955,-30.128096,11277.6
          150.489914,-30.12529,11277.6
          150.495682,-30.122177,11277.6
          150.501221,-30.119251,11277.6
          150.505005,-30.117342,11277.6
          150.511185,-30.114349,11277.6
          150.51619,-30.112015,11277.6
          150.520828,-30.109941,11277.6
          150.52594,-30.107706,11277.6
          150.53038,-30.105844,11277.6
          150.537308,-30.102951,11277.6
          150.541992,-30.101028,11277.6
          150.620148,-30.068277,11277.6
          150.699951,-30.035038,11277.6
          150.779282,-30.001986,11277.6
          150.853058,-29.971069,11277.6
          150.929535,-29.939117,11277.6
          151.006592,-29.906786,11277.6
          151.081238,-29.875364,11277.6
          151.15889,-29.842545,11277.6
          151.238007,-29.809166,11277.6
          151.31131,-29.778168,11269.98
          151.389069,-29.745157,11277.6
          151.468185,-29.711546,11277.6
          151.542877,-29.679565,11277.6
          151.621582,-29.64592,11277.6
          151.695999,-29.614151,11277.6
          151.774887,-29.58041,11277.6
          151.848267,-29.548874,11277.6
          151.926453,-29.515137,11224.26
          152.000702,-29.483114,10828.02
          152.07634,-29.450272,10393.68
          152.155426,-29.41608,10050.78
          152.23291,-29.382515,9730.74
          152.306046,-29.350674,9403.08
          152.377899,-29.319298,9105.9
          152.449982,-29.287949,8793.48
          152.516434,-29.258881,8503.92
          152.586258,-29.228241,8191.5
          152.654495,-29.198448,7879.08
          152.718933,-29.170029,7574.28
          152.785446,-29.14064,7261.86
          152.849777,-29.112305,6934.2
          152.911804,-29.08486,6621.78
          152.974167,-29.057255,6309.36
          153.037704,-29.029175,5981.7
          153.098709,-29.001984,5661.66
          153.159058,-28.975044,5341.62
          153.221802,-28.947113,5013.96
          153.281738,-28.920485,4693.92
          153.339737,-28.894602,4373.88
          153.39801,-28.868532,4053.84
          153.446518,-28.845703,3779.52
          153.450623,-28.842882,3749.04
          153.452911,-28.841217,3733.8
          153.456818,-28.837967,3710.94
          153.459503,-28.83548,3688.08
          153.462265,-28.832748,3665.22
          153.465057,-28.829636,3642.36
          153.467865,-28.826111,3619.5
          153.469971,-28.823227,3596.64
          153.471893,-28.820305,3573.78
          153.474197,-28.81636,3550.92
          153.475677,-28.813614,3528.06
          153.477173,-28.810528,3512.82
          153.478745,-28.807068,3489.96
          153.480301,-28.803499,3467.1
          153.481476,-28.800798,3451.86
          153.483368,-28.79661,3421.38
          153.484604,-28.793816,3406.14
          153.486115,-28.790558,3383.28
          153.487518,-28.787437,3360.42
          153.489136,-28.783901,3337.56
          153.491013,-28.779711,3314.7
          153.492416,-28.776592,3291.84
          153.501511,-28.756668,3177.54
          153.510437,-28.73703,3139.44
          153.518906,-28.718075,3101.34
          153.526932,-28.699781,3055.62
          153.534637,-28.682184,2971.8
          153.542175,-28.665098,2895.6
          153.550735,-28.645826,2766.06
          153.558289,-28.628769,2651.76
          153.565872,-28.61175,2552.7
          153.57309,-28.595457,2461.26
          153.580414,-28.579102,2362.2
          153.58754,-28.563034,2278.38
          153.59462,-28.547195,2179.32
          153.60202,-28.530762,2080.26
          153.608368,-28.515015,1981.2
          153.615356,-28.496393,1874.52
          153.62236,-28.477661,1760.22
          153.629211,-28.459246,1653.54
          153.636093,-28.44104,1600.2
          153.642105,-28.425156,1569.72
          153.64827,-28.408318,1531.62
          153.649033,-28.405518,1524
          153.649567,-28.40287,1524
          153.649826,-28.400169,1516.38
          153.649872,-28.398193,1516.38
          153.649719,-28.395767,1508.76
          153.649338,-28.393066,1493.52
          153.64859,-28.390162,1485.9
          153.647781,-28.387926,1478.28
          153.646927,-28.385971,1470.66
          153.645859,-28.383865,1455.42
          153.644333,-28.381317,1440.18
          153.64299,-28.379362,1432.56
          153.641785,-28.377594,1424.94
          153.640411,-28.375671,1417.32
          153.639252,-28.373932,1409.7
          153.637665,-28.371681,1394.46
          153.636475,-28.369957,1386.84
          153.635086,-28.367889,1371.6
          153.63382,-28.365967,1356.36
          153.63266,-28.364227,1341.12
          153.631439,-28.362442,1325.88
          153.630005,-28.360228,1310.64
          153.628693,-28.358276,1303.02
          153.627365,-28.356171,1287.78
          153.626129,-28.354269,1272.54
          153.622314,-28.34831,1226.82
          153.618805,-28.342678,1188.72
          153.613907,-28.334747,1135.38
          153.60907,-28.326944,1082.04
          153.604538,-28.319775,1036.32
          153.600983,-28.314281,998.22
          153.5961,-28.306641,944.88
          153.591782,-28.29985,899.16
          153.588608,-28.294785,868.68
          153.584183,-28.287746,822.96
          153.579987,-28.281097,777.24
          153.577148,-28.276703,739.14
          153.573196,-28.270475,701.04
          153.569214,-28.264423,655.32
          153.56636,-28.260086,624.84
          153.562744,-28.254461,594.36
          153.559296,-28.248875,571.5
          153.556854,-28.244888,548.64
          153.553802,-28.239944,510.54
          153.551224,-28.235842,480.06
          153.548782,-28.231979,449.58
          153.545624,-28.227135,419.1
          153.542496,-28.222387,388.62
          153.539474,-28.217743,358.14
          153.537064,-28.213915,335.28
          153.534088,-28.209137,304.8
          153.533203,-28.207672,289.56
          153.532425,-28.206467,281.94
          153.531723,-28.205349,274.32
          153.530975,-28.204193,266.7
          153.528763,-28.200623,236.22
          153.525696,-28.195807,205.74
          153.523331,-28.192036,175.26
          153.52037,-28.18738,144.78
          153.51709,-28.18222,114.3
          153.514709,-28.178442,83.82
          153.51239,-28.174904,60.96
          153.509216,-28.169907,30.48
          153.506516,-28.165649,0
          153.505051,-28.163383,0
          153.503906,-28.161591,0
          153.503159,-28.160402,0
          153.502594,-28.159492,0
          153.502029,-28.158623,0
          153.50177,-28.158203,0
          153.501617,-28.15797,0
          153.50145,-28.157719,0
          153.501099,-28.157124,0
          153.501038,-28.156864,0
          153.501083,-28.156597,0
          153.501328,-28.156368,0
          153.501602,-28.156237,0
          153.501938,-28.15612,0
          153.502197,-28.156128,0
          153.502411,-28.156174,0
          153.502625,-28.156294,0
          153.502869,-28.156551,0
          153.503006,-28.156803,0
          153.503159,-28.157043,0
          153.503311,-28.157284,0
          153.503464,-28.157528,0
          153.503601,-28.157738,0
          153.503784,-28.158018,0
          153.503952,-28.158297,0
          153.504471,-28.159103,0
          153.505035,-28.159996,0
          153.505371,-28.160545,0
          153.505539,-28.160799,0
          153.505737,-28.1611,0
          153.505905,-28.161358,0
          153.506058,-28.161598,0
          153.506241,-28.161907,0
          153.506531,-28.162323,0
          153.506699,-28.162626,0
          153.506866,-28.16288,0
          153.50737,-28.163673,0
          153.507538,-28.163918,0
          153.507767,-28.164278,0
          153.507904,-28.164499,0
          153.508072,-28.164766,0
          153.508499,-28.165442,0
          153.508713,-28.165779,0
          153.509171,-28.166513,0
          153.509674,-28.167297,0
          153.509842,-28.167549,0
          153.509964,-28.16777,0
          153.510147,-28.168041,0
          153.510345,-28.168339,0
          153.510483,-28.16855,0
          153.510727,-28.168716,0
          153.510941,-28.168736,0
          153.511154,-28.168694,0
          153.511398,-28.168667,0
          153.511627,-28.16877,0
          153.51181,-28.16898,0
          153.512024,-28.169071,0
          153.512253,-28.168968,0
          153.512466,-28.168865,0
          153.51268,-28.16877,0
          153.512894,-28.168671,0
        </coordinates>
      </LineString>
    </Placemark>
  </Document>
</kml>