<?xml version='1.0' encoding='utf-8'?>
<kml xmlns="http://www.opengis.net/kml/2.2">
  <Document>
    <Placemark>
      <name>VS104-2026-05-13</name>
      <TimeStamp>
        <when>2026-05-13</when>
      </TimeStamp>
      <LineString>
        <altitudeMode>absolute</altitudeMode>
        <coordinates>
          -84.420151,33.63731,0
          -84.42038,33.637321,0
          -84.420593,33.63731,0
          -84.420822,33.637287,0
          -84.421051,33.637249,0
          -84.42128,33.637272,0
          -84.421455,33.63707,0
          -84.421455,33.636864,0
          -84.421394,33.636658,0
          -84.421158,33.636509,0
          -84.420937,33.636494,0
          -84.420685,33.63652,0
          -84.420471,33.636543,0
          -84.42025,33.636551,0
          -84.419983,33.636543,0
          -84.419777,33.636551,0
          -84.419518,33.636551,0
          -84.418945,33.636555,0
          -84.418304,33.636551,0
          -84.417656,33.636555,0
          -84.416969,33.636555,0
          -84.416229,33.636555,0
          -84.415466,33.636543,0
          -84.414604,33.636543,0
          -84.41362,33.636551,0
          -84.412735,33.636551,0
          -84.411697,33.636555,0
          -84.41066,33.636551,0
          -84.409904,33.636543,0
          -84.409317,33.636551,0
          -84.408646,33.636555,0
          -84.408142,33.636551,0
          -84.407722,33.636555,0
          -84.407486,33.636475,0
          -84.407356,33.636272,0
          -84.407356,33.63604,0
          -84.407402,33.635818,0
          -84.407417,33.635601,0
          -84.40744,33.635376,0
          -84.40744,33.635086,0
          -84.407486,33.634815,0
          -84.407745,33.634644,0
          -84.407974,33.634666,0
          -84.408195,33.634701,0
          -84.408424,33.634724,0
          -84.408661,33.634724,0
          -84.408981,33.634724,0
          -84.409233,33.634724,0
          -84.409546,33.634712,0
          -84.411606,33.634712,0
          -84.414795,33.634735,312.42
          -84.419922,33.634689,312.42
          -84.427299,33.634735,304.8
          -84.435593,33.634689,358.14
          -84.442825,33.634735,464.82
          -84.449043,33.634598,571.5
          -84.451157,33.634552,601.98
          -84.453026,33.63446,632.46
          -84.454872,33.634369,662.94
          -84.456665,33.634277,685.8
          -84.458542,33.634178,708.66
          -84.462372,33.634037,746.76
          -84.464401,33.633957,754.38
          -84.466553,33.6339,769.62
          -84.468216,33.63382,777.24
          -84.4701,33.633713,784.86
          -84.472733,33.633434,800.1
          -84.474625,33.633152,807.72
          -84.476685,33.632736,815.34
          -84.478813,33.632217,830.58
          -84.480881,33.631668,845.82
          -84.482903,33.631119,853.44
          -84.485367,33.630432,868.68
          -84.487213,33.629894,876.3
          -84.489784,33.629105,883.92
          -84.491814,33.628464,899.16
          -84.493851,33.6278,906.78
          -84.4963,33.626907,914.4
          -84.498543,33.626083,922.02
          -84.500725,33.625305,929.64
          -84.502831,33.624496,937.26
          -84.505005,33.623611,944.88
          -84.507919,33.622402,960.12
          -84.509926,33.621517,967.74
          -84.512276,33.620499,975.36
          -84.514557,33.619469,982.98
          -84.517204,33.618301,998.22
          -84.518967,33.617512,998.22
          -84.521912,33.61615,1013.46
          -84.524155,33.615143,1021.08
          -84.52652,33.613976,1028.7
          -84.528862,33.6129,1036.32
          -84.531273,33.611801,1043.94
          -84.534241,33.61039,1059.18
          -84.536263,33.609467,1066.8
          -84.539337,33.608063,1082.04
          -84.549606,33.603378,1150.62
          -84.560455,33.598427,1257.3
          -84.562912,33.597214,1287.78
          -84.5653,33.595871,1318.26
          -84.567146,33.594772,1333.5
          -84.570511,33.592438,1371.6
          -84.572868,33.590561,1409.7
          -84.574715,33.588867,1432.56
          -84.576675,33.586807,1455.42
          -84.578583,33.584473,1478.28
          -84.580093,33.582321,1493.52
          -84.581566,33.579945,1516.38
          -84.582733,33.577652,1531.62
          -84.583908,33.574585,1562.1
          -84.584526,33.572617,1577.34
          -84.585197,33.569641,1600.2
          -84.585587,33.566757,1630.68
          -84.585754,33.564056,1653.54
          -84.5858,33.561695,1676.4
          -84.585739,33.559135,1691.64
          -84.585648,33.556458,1714.5
          -84.585457,33.553223,1744.98
          -84.585365,33.550598,1767.84
          -84.585197,33.547852,1790.7
          -84.585052,33.544891,1813.56
          -84.584999,33.542702,1828.8
          -84.584839,33.539474,1859.28
          -84.584732,33.536133,1882.14
          -84.584671,33.533524,1905
          -84.584579,33.53083,1927.86
          -84.584579,33.527714,1950.72
          -84.584457,33.510544,2080.26
          -84.583626,33.493637,2164.08
          -84.582916,33.490265,2186.94
          -84.582146,33.487701,2202.18
          -84.581047,33.484909,2217.42
          -84.579483,33.481766,2240.28
          -84.577919,33.479187,2263.14
          -84.576271,33.476898,2278.38
          -84.574043,33.47427,2308.86
          -84.571747,33.471943,2324.1
          -84.569221,33.469707,2346.96
          -84.566086,33.467381,2369.82
          -84.564011,33.465939,2377.44
          -84.560562,33.463943,2400.3
          -84.557678,33.462494,2415.54
          -84.554817,33.461285,2430.78
          -84.551514,33.460072,2453.64
          -84.54837,33.459095,2476.5
          -84.545067,33.458313,2491.74
          -84.540863,33.457512,2522.22
          -84.537781,33.457138,2545.08
          -84.534637,33.45686,2567.94
          -84.531387,33.456722,2590.8
          -84.527382,33.456711,2621.28
          -84.523705,33.456768,2644.14
          -84.520348,33.456894,2667
          -84.516891,33.457031,2689.86
          -84.513596,33.457123,2712.72
          -84.510132,33.45726,2727.96
          -84.506836,33.457306,2750.82
          -84.502632,33.45742,2773.68
          -84.499832,33.457466,2788.92
          -84.496399,33.457489,2811.78
          -84.4925,33.457489,2834.64
          -84.489586,33.457489,2849.88
          -84.486153,33.457512,2865.12
          -84.463623,33.457279,2979.42
          -84.438667,33.456848,3124.2
          -84.412849,33.456482,3192.78
          -84.390411,33.456161,3246.12
          -84.361435,33.456299,3299.46
          -84.353645,33.457001,3322.32
          -84.349327,33.457653,3329.94
          -84.34552,33.458443,3337.56
          -84.341087,33.45956,3345.18
          -84.336494,33.460968,3352.8
          -84.333244,33.462166,3360.42
          -84.329025,33.463943,3368.04
          -84.324944,33.465939,3383.28
          -84.321716,33.467743,3390.9
          -84.318474,33.469711,3398.52
          -84.315399,33.471817,3406.14
          -84.312431,33.47406,3413.76
          -84.309532,33.476414,3421.38
          -84.306007,33.479416,3429
          -84.303368,33.48175,3436.62
          -84.300621,33.484222,3444.24
          -84.297592,33.486935,3451.86
          -84.294632,33.489624,3459.48
          -84.291832,33.492142,3474.72
          -84.288704,33.494888,3489.96
          -84.285431,33.497734,3505.2
          -84.28299,33.499832,3520.44
          -84.279472,33.502853,3543.3
          -84.276726,33.505188,3558.54
          -84.273323,33.508026,3573.78
          -84.254974,33.523224,3680.46
          -84.207802,33.561462,3939.54
          -84.155441,33.603966,4221.48
          -84.105438,33.644886,4533.9
          -84.05674,33.684593,4831.08
          -84.004944,33.726929,5059.68
          -83.954155,33.768219,5318.76
          -83.900124,33.812119,5562.6
          -83.849785,33.853088,5775.96
          -83.795074,33.897476,5958.84
          -83.7397,33.942307,6187.44
          -83.679047,33.982269,6400.8
          -83.614479,34.021591,6637.02
          -83.551979,34.059998,6858
          -83.487282,34.099701,7063.74
          -83.420624,34.140388,7307.58
          -83.352524,34.182003,7520.94
          -83.284607,34.223297,7741.92
          -83.217484,34.264076,7932.42
          -83.149277,34.305462,8100.06
          -83.081474,34.346752,8244.84
          -83.011948,34.389397,8427.72
          -82.940781,34.432892,8656.32
          -82.870491,34.475693,8823.96
          -82.798065,34.519787,8846.82
          -82.725677,34.563686,9006.84
          -82.653519,34.607307,9189.72
          -82.582268,34.650375,9372.6
          -82.507843,34.695011,9563.1
          -82.431877,34.739319,9707.88
          -82.355804,34.783646,9837.42
          -82.278625,34.828857,9982.2
          -82.200912,34.874191,10134.6
          -82.123138,34.919403,10302.24
          -82.044388,34.965134,10363.2
          -81.96785,35.009563,10363.2
          -81.887451,35.056351,10401.3
          -81.810081,35.104843,10584.18
          -81.734222,35.152664,10668
          -81.657829,35.199917,10668
          -81.584183,35.245285,10668
          -81.509552,35.291252,10668
          -81.432945,35.338314,10668
          -81.357422,35.384628,10668
          -81.279602,35.432117,10668
          -81.201355,35.47979,10698.48
          -81.123749,35.526993,10888.98
          -81.046371,35.573959,11033.76
          -80.968781,35.620972,11125.2
          -80.890228,35.66851,11269.98
          -80.812508,35.715248,11475.72
          -80.736069,35.761093,11841.48
          -80.662849,35.805187,11887.2
          -80.588402,35.849926,11887.2
          -80.51268,35.895172,11887.2
          -80.436813,35.940468,11887.2
          -80.359787,35.986324,11887.2
          -80.281715,36.032734,11887.2
          -80.201965,36.080154,11894.82
          -80.12249,36.12735,11887.2
          -80.043579,36.173996,11887.2
          -79.965157,36.220249,11887.2
          -79.888916,36.265182,11887.2
          -79.811409,36.310654,11887.2
          -79.733276,36.356598,11887.2
          -79.655319,36.402222,11887.2
          -79.576721,36.448074,11887.2
          -79.497299,36.494385,11887.2
          -79.419708,36.539337,11887.2
          -79.339943,36.585617,11887.2
          -79.260979,36.631348,11887.2
          -79.182129,36.676849,11887.2
          -79.10305,36.722397,11887.2
          -79.022484,36.768631,11887.2
          -78.943466,36.81395,11887.2
          -78.860916,36.860962,11887.2
          -78.780151,36.906662,11887.2
          -78.698929,36.952469,11887.2
          -78.616493,36.998833,11887.2
          -78.535477,37.044525,11887.2
          -78.459389,37.095886,11887.2
          -78.385124,37.147335,11887.2
          -78.307205,37.200592,11887.2
          -78.231598,37.252487,11887.2
          -78.154579,37.305222,11887.2
          -78.07785,37.35759,11887.2
          -78.002052,37.40918,11887.2
          -77.92614,37.460724,11887.2
          -77.849236,37.512817,11887.2
          -77.773331,37.564178,11887.2
          -77.696861,37.615746,11887.2
          -77.622787,37.665527,11887.2
          -77.545685,37.717274,11887.2
          -77.469673,37.768158,11887.2
          -77.392662,37.819702,11887.2
          -77.314529,37.871796,11894.82
          -77.235619,37.924198,11887.2
          -77.15818,37.975594,11887.2
          -77.079422,38.027683,11887.2
          -77.001945,38.078751,11887.2
          -76.924118,38.130009,11887.2
          -76.846024,38.181355,11887.2
          -76.769836,38.232933,11887.2
          -76.697823,38.291775,11887.2
          -76.633377,38.352219,11887.2
          -76.568016,38.412159,11887.2
          -76.500786,38.474213,11887.2
          -76.435829,38.534821,11887.2
          -76.369934,38.596275,11887.2
          -76.304947,38.656448,11887.2
          -76.237411,38.718842,11887.2
          -76.171616,38.779495,11887.2
          -76.105591,38.840347,11887.2
          -76.038574,38.901844,11887.2
          -75.969681,38.964844,11887.2
          -75.90197,39.023529,11887.2
          -75.830559,39.081848,11887.2
          -75.759888,39.140518,11887.2
          -75.689209,39.199543,11887.2
          -75.620239,39.257175,11887.2
          -75.549866,39.315506,11887.2
          -75.478333,39.374767,11887.2
          -75.406311,39.434307,11887.2
          -75.334717,39.493568,11894.82
          -75.262939,39.552551,11887.2
          -75.192039,39.61084,11887.2
          -75.119499,39.670212,11887.2
          -75.048401,39.730427,11887.2
          -74.980774,39.792294,11887.2
          -74.914276,39.852036,11887.2
          -74.847168,39.913971,11887.2
          -74.786072,39.980576,11887.2
          -74.718872,40.042694,11887.2
          -74.64386,40.098953,11894.82
          -74.560547,40.15036,11887.2
          -74.469543,40.195175,11887.2
          -74.375008,40.231327,11887.2
          -74.275444,40.259911,11894.82
          -74.176147,40.285767,11887.2
          -74.075508,40.312328,11887.2
          -73.97821,40.337631,11887.2
          -73.877625,40.363678,11887.2
          -73.778564,40.389278,11887.2
          -73.676331,40.415634,11887.2
          -73.578125,40.443886,11887.2
          -73.481079,40.481415,11887.2
          -73.385498,40.516754,11887.2
          -73.287674,40.552727,11887.2
          -73.19017,40.588711,11887.2
          -73.095161,40.623672,11887.2
          -72.997093,40.659515,11887.2
          -72.905334,40.693085,11887.2
          -72.808144,40.728458,11887.2
          -72.711426,40.763626,11887.2
          -72.617256,40.797638,11887.2
          -72.520187,40.832645,11887.2
          -72.429924,40.865089,11887.2
          -72.328613,40.901356,11887.2
          -72.23053,40.936386,11887.2
          -72.137039,40.969601,11887.2
          -72.038269,41.004593,11887.2
          -71.939087,41.039612,11887.2
          -71.843811,41.07312,11887.2
          -71.746468,41.107349,11887.2
          -71.653748,41.139679,11887.2
          -71.552521,41.175034,11887.2
          -71.452576,41.209717,11887.2
          -71.352203,41.2444,11887.2
          -71.258759,41.276657,11887.2
          -71.15863,41.31102,11887.2
          -71.06427,41.343384,11887.2
          -70.96032,41.37875,11887.2
          -70.863998,41.411499,11887.2
          -70.763817,41.445465,11887.2
          -70.66317,41.479488,11887.2
          -70.560333,41.51403,11887.2
          -70.457497,41.548477,11887.2
          -70.356506,41.582153,11887.2
          -70.260124,41.614254,11887.2
          -70.154884,41.649078,11887.2
          -70.052322,41.682907,11894.82
          -69.954231,41.715229,11887.2
          -69.85463,41.747772,11887.2
          -69.757118,41.77961,11887.2
          -69.653885,41.813187,11887.2
          -69.556252,41.844818,11887.2
          -69.457291,41.876858,11887.2
          -69.354752,41.909821,11887.2
          -69.25563,41.941544,11887.2
          -69.152008,41.97464,11887.2
          -69.055687,42.00531,11887.2
          -68.950447,42.038628,11887.2
          -68.847076,42.071274,11887.2
          -68.749123,42.102032,11887.2
          -68.649071,42.133392,11887.2
          -68.544388,42.166077,11887.2
          -68.43914,42.198807,11887.2
          -68.340004,42.229443,11887.2
          -68.239983,42.260353,11887.2
          -68.141808,42.29052,11887.2
          -68.042259,42.320938,11887.2
          -67.939018,42.352432,11887.2
          -67.835976,42.383717,11887.2
          -67.732758,42.414955,11887.2
          -67.626656,42.44696,11887.2
          -67.526588,42.47699,11887.2
          -67.421783,42.508347,11887.2
          -67.316811,42.539574,11887.2
          -67.218727,42.568634,11887.2
          -67.112282,42.600094,11887.2
          -67.007278,42.632587,11887.2
          -66.912422,42.669876,11887.2
          -66.814316,42.711678,11887.2
          -66.714226,42.753433,11887.2
          -66.619095,42.793076,11887.2
          -66.52169,42.833691,11887.2
          -66.424126,42.874191,11887.2
          -66.33136,42.912598,11887.2
          -66.232162,42.953522,11887.2
          -66.129387,42.995739,11887.2
          -66.032936,43.035263,11887.2
          -65.936478,43.074646,11887.2
          -65.834587,43.116077,11887.2
          -65.736183,43.156036,11887.2
          -65.640236,43.194798,11887.2
          -65.53894,43.23555,11887.2
          -65.444382,43.273518,11887.2
          -65.341507,43.314651,11887.2
          -65.240456,43.35498,11887.2
          -65.144279,43.393158,11887.2
          -65.042984,43.433239,11887.2
          -64.939613,43.473999,11887.2
          -64.836708,43.514465,11887.2
          -64.740646,43.552048,11887.2
          -64.63636,43.592728,11887.2
          -64.537025,43.631363,11887.2
          -64.439392,43.669163,11887.2
          -64.335617,43.709244,11887.2
          -64.231056,43.749481,11887.2
          -64.127457,43.789131,11887.2
          -64.029037,43.826698,11887.2
          -63.924973,43.866302,11887.2
          -63.828968,43.902649,11887.2
          -63.728432,43.940643,11887.2
          -63.623592,43.980133,11887.2
          -63.52512,44.01709,11887.2
          -63.421978,44.055595,11887.2
          -63.32085,44.09317,11887.2
          -63.221611,44.129986,11887.2
          -63.117764,44.168438,11887.2
          -63.014832,44.206238,11887.2
          -62.90852,44.245247,11887.2
          -62.80415,44.283421,11887.2
          -62.699368,44.321548,11887.2
          -62.597874,44.358307,11887.2
          -62.500282,44.393612,11887.2
          -62.396198,44.431046,11887.2
          -62.297058,44.466568,11887.2
          -62.197659,44.502045,11887.2
          -62.093586,44.539131,11887.2
          -61.995197,44.573959,11887.2
          -61.895405,44.609299,11887.2
          -61.795418,44.644482,11887.2
          -61.691109,44.681076,11887.2
          -61.587654,44.717194,11887.2
          -61.484383,44.753132,11887.2
          -61.386242,44.787163,11887.2
          -61.286251,44.821701,11887.2
          -61.184887,44.856583,11887.2
          -61.08144,44.892139,11887.2
          -60.977001,44.92775,11887.2
          -60.878841,44.961136,11887.2
          -60.774208,44.996613,11887.2
          -60.669708,45.03186,11887.2
          -60.566189,45.06665,11887.2
          -60.460968,45.101898,11887.2
          -60.353916,45.137558,11887.2
          -60.250069,45.172119,11887.2
          -60.143917,45.207203,11887.2
          -60.044338,45.240005,11887.2
          -59.940937,45.27396,11887.2
          -59.83939,45.307159,11887.2
          -59.734303,45.341446,11887.2
          -59.63493,45.373676,11887.2
          -59.527073,45.408543,11887.2
          -59.421833,45.442341,11887.2
          -59.319633,45.475067,11887.2
          -59.217812,45.507568,11887.2
          -59.118435,45.539215,11887.2
          -59.010315,45.573429,11887.2
          -58.904572,45.606808,11887.2
          -58.803978,45.638462,11894.82
          -58.697605,45.671768,11887.2
          -58.593109,45.704288,11887.2
          -58.493202,45.735294,11887.2
          -58.384369,45.768951,11887.2
          -58.275948,45.802326,11887.2
          -58.16832,45.835327,11887.2
          -58.067032,45.866226,11887.2
          -57.954086,45.900558,11887.2
          -57.843567,45.933979,11887.2
          -57.738373,45.965679,11887.2
          -57.634415,45.996822,11887.2
          -57.529427,46.028198,11887.2
          -57.426071,46.058899,11887.2
          -57.321922,46.089741,11887.2
          -57.213638,46.121677,11887.2
          -57.109612,46.152237,11887.2
          -57.008526,46.181854,11887.2
          -56.905228,46.211929,11887.2
          -56.804073,46.241364,11887.2
          -56.699203,46.271622,11887.2
          -56.594795,46.301697,11887.2
          -56.48922,46.331863,11894.82
          -56.385818,46.361282,11887.2
          -56.278271,46.391922,11887.2
          -56.168289,46.423008,11887.2
          -56.058609,46.453857,11887.2
          -55.94915,46.484528,11887.2
          -55.837879,46.515518,11887.2
          -55.72863,46.545952,11887.2
          -55.616364,46.576912,11887.2
          -55.512199,46.605541,11887.2
          -55.402817,46.635471,11887.2
          -55.291718,46.665779,11887.2
          -55.189552,46.693497,11894.82
          -55.083977,46.722015,11887.2
          -54.971878,46.752087,11887.2
          -54.864986,46.780746,11887.2
          -54.761559,46.808323,11894.82
          -54.65657,46.836159,11887.2
          -54.550537,46.864105,11894.82
          -54.43959,46.893265,11887.2
          -54.326618,46.922886,11887.2
          -54.220699,46.950447,11887.2
          -54.108932,46.979355,11887.2
          -54.004601,47.006287,11887.2
          -53.89817,47.033524,11887.2
          -53.785767,47.062454,11887.2
          -53.673843,47.090744,11887.2
          -53.565323,47.118172,11894.82
          -53.451725,47.146755,11887.2
          -53.345833,47.17337,11887.2
          -53.237068,47.200378,11887.2
          -53.129814,47.227058,11887.2
          -53.020653,47.254013,11887.2
          -52.911846,47.280872,11887.2
          -52.803604,47.30727,11887.2
          -52.691391,47.334503,11887.2
          -52.576836,47.362247,11879.58
          -52.468025,47.38855,11894.82
          -52.3545,47.415688,11887.2
          -52.244568,47.441898,11879.58
          -52.136326,47.467548,11894.82
          -52.028847,47.492981,11879.58
          -51.916386,47.520107,11894.82
          -51.809128,47.548828,11887.2
          -51.695,47.578857,11887.2
          -51.580193,47.608429,11887.2
          -51.465866,47.637634,11887.2
          -51.350716,47.666977,11887.2
          -51.246574,47.693325,11887.2
          -51.130161,47.722702,11887.2
          -51.017281,47.750977,11887.2
          -50.909958,47.777802,11887.2
          -50.800507,47.804993,11887.2
          -50.694862,47.831074,11887.2
          -50.585037,47.858093,11887.2
          -50.476341,47.884735,11887.2
          -50.370323,47.910507,11887.2
          -50.260551,47.937073,11887.2
          -50.147942,47.964306,11887.2
          -50.040527,47.990112,11887.2
          -49.929199,48.016911,11887.2
          -49.81366,48.046326,11887.2
          -49.698235,48.075577,11887.2
          -49.590946,48.102287,11887.2
          -49.480801,48.12952,11887.2
          -49.371433,48.156475,11887.2
          -49.261105,48.183521,11887.2
          -49.146847,48.211441,11887.2
          -49.03318,48.239044,11887.2
          -48.916908,48.267151,11887.2
          -48.803799,48.29427,11887.2
          -48.686996,48.322201,11887.2
          -48.572178,48.349503,11887.2
          -48.457172,48.376694,11887.2
          -48.343788,48.403427,11887.2
          -48.229912,48.429932,11887.2
          -48.114201,48.45694,11887.2
          -47.998421,48.483765,11887.2
          -47.882996,48.510315,11887.2
          -47.769493,48.536293,11887.2
          -47.648788,48.563808,11887.2
          -47.544392,48.587448,11887.2
          -47.246704,48.654236,11887.2
          -42.848053,49.533577,11890.8576
          -37.718441,50.308025,11887.2
          -34.151859,50.693665,11888.4192
          -28.642025,51.188873,11887.2
          -23.742313,51.730156,11888.4192
          -19.300547,52.012581,11887.2
          -15.795898,52.013992,12192
          -15.684553,52.012348,12192
          -15.565351,52.010441,12192
          -15.449829,52.008453,12192
          -15.331421,52.006344,12192
          -15.217477,52.004204,12192
          -15.095749,52.001816,12192
          -14.979858,51.999409,12192
          -14.863795,51.999546,12192
          -14.744359,52.001781,12192
          -14.628296,52.00304,12192
          -14.51355,52.003738,12192
          -14.397278,52.004333,12192
          -14.281387,52.004837,12192
          -14.163742,52.005249,12192
          -14.050064,52.005524,12192
          -13.936,52.005692,12192
          -13.821115,52.005787,12192
          -13.701913,52.005741,12192
          -13.583967,52.005554,12192
          -13.469474,52.005322,12192
          -13.351685,52.004902,12192
          -13.236485,52.004341,12192
          -13.116028,52.003738,12192
          -13.004281,52.002995,12192
          -12.885942,52.002201,12192
          -12.775192,52.001266,12192
          -12.655106,52.000168,12192
          -12.543954,51.998989,12192
          -12.432785,51.997742,12192
          -12.315903,51.996323,12192
          -12.196274,51.994812,12192
          -12.084961,51.993164,12192
          -11.967621,51.991425,12192
          -11.856003,51.989594,12192
          -11.737061,51.987625,12192
          -11.618652,51.985428,12192
          -11.505354,51.983253,12192
          -11.386414,51.980896,12192
          -11.275504,51.978554,12192
          -11.161652,51.975998,12192
          -11.043243,51.973343,12192
          -10.929513,51.970638,12192
          -10.80937,51.967659,12192
          -10.695897,51.964588,12192
          -10.581665,51.961578,12192
          -10.463222,51.958397,12192
          -10.338516,51.954666,12192
          -10.215088,51.950855,12192
          -10.100632,51.947388,12192
          -9.976763,51.943405,12192
          -9.854894,51.939358,12192
          -9.733965,51.935211,12192
          -9.61547,51.931068,12192
          -9.494463,51.926693,12192
          -9.370041,51.922119,12192
          -9.242249,51.917149,12192
          -9.117867,51.912216,12192
          -8.99292,51.90715,12192
          -8.877738,51.902393,12192
          -8.755722,51.897171,12192
          -8.629913,51.891731,12192
          -8.509827,51.886379,12192
          -8.384721,51.8806,12192
          -8.26622,51.875069,12192
          -8.144655,51.869247,12192
          -8.022614,51.863289,12199.62
          -7.901546,51.857346,12192
          -7.782898,51.851231,12192
          -7.663422,51.844994,12192
          -7.54449,51.838852,12192
          -7.421188,51.832191,12192
          -7.297668,51.825302,12192
          -7.174147,51.81839,12192
          -7.05513,51.811523,12192
          -6.932907,51.803005,12199.62
          -6.815086,51.792114,12192
          -6.69426,51.781635,12192
          -6.577693,51.771652,12192
          -6.458282,51.761387,12192
          -6.337051,51.750866,12192
          -6.214476,51.740067,12192
          -6.094589,51.729267,12192
          -5.975037,51.718464,12192
          -5.851705,51.707153,12192
          -5.727005,51.695656,12192
          -5.608063,51.684528,12192
          -5.490047,51.67337,12192
          -5.368347,51.661716,12192
          -5.251094,51.650299,12192
          -5.132217,51.63863,12192
          -5.013106,51.626953,12192
          -4.895226,51.615143,12199.62
          -4.775543,51.603062,12192
          -4.65416,51.590725,12192
          -4.534087,51.578293,12100.56
          -4.409823,51.565292,11940.54
          -4.288025,51.552414,11757.66
          -4.169922,51.539799,11376.66
          -4.049427,51.526886,11010.9
          -3.929291,51.513729,10721.34
          -3.81424,51.50116,10668
          -3.696899,51.487614,10668
          -3.581543,51.475975,10553.7
          -3.470383,51.470062,10309.86
          -3.358536,51.463451,10043.16
          -3.248749,51.456703,9784.08
          -3.142395,51.450279,9441.18
          -3.030014,51.44334,9060.18
          -2.926941,51.437057,8610.6
          -2.823257,51.430588,8176.26
          -2.721269,51.423843,7909.56
          -2.619051,51.417023,7581.9
          -2.51915,51.410477,7223.76
          -2.412262,51.403305,6888.48
          -2.309059,51.396332,6576.06
          -2.212601,51.389668,6286.5
          -2.112274,51.382732,5951.22
          -2.019554,51.376144,5646.42
          -1.926804,51.369556,5372.1
          -1.83776,51.363098,5097.78
          -1.748886,51.356663,4846.32
          -1.662424,51.350189,4549.14
          -1.573792,51.343628,4290.06
          -1.494363,51.337646,4168.14
          -1.417084,51.331757,4084.32
          -1.346864,51.326431,3970.02
          -1.277606,51.324234,3962.4
          -1.21488,51.326981,3962.4
          -1.153488,51.331013,3825.24
          -1.090245,51.334763,3672.84
          -1.030043,51.33815,3528.06
          -1.002579,51.339718,3451.86
          -0.978748,51.34108,3383.28
          -0.951505,51.342773,3360.42
          -0.927048,51.344326,3352.8
          -0.8988,51.346024,3352.8
          -0.87564,51.347397,3352.8
          -0.847473,51.348888,3352.8
          -0.827835,51.348816,3314.7
          -0.823975,51.348541,3299.46
          -0.819372,51.348129,3284.22
          -0.815661,51.347717,3268.98
          -0.81192,51.347305,3261.36
          -0.808089,51.346802,3246.12
          -0.803909,51.346279,3238.5
          -0.800095,51.345768,3230.88
          -0.795822,51.345211,3223.26
          -0.792649,51.344788,3215.64
          -0.788345,51.344231,3208.02
          -0.784073,51.343719,3200.4
          -0.780326,51.343231,3192.78
          -0.776466,51.342773,3185.16
          -0.752563,51.33989,3124.2
          -0.725403,51.336784,3055.62
          -0.700836,51.333992,2979.42
          -0.673523,51.330963,2910.84
          -0.64682,51.327847,2857.5
          -0.623029,51.32515,2796.54
          -0.595322,51.322025,2750.82
          -0.572281,51.319328,2743.2
          -0.544281,51.316116,2743.2
          -0.517654,51.313087,2743.2
          -0.489708,51.309906,2743.2
          -0.466177,51.307205,2743.2
          -0.438785,51.304001,2720.34
          -0.415268,51.302151,2644.14
          -0.411765,51.30217,2636.52
          -0.407014,51.302399,2621.28
          -0.403595,51.302708,2613.66
          -0.399551,51.303127,2598.42
          -0.39677,51.303452,2590.8
          -0.392456,51.304104,2583.18
          -0.388753,51.304642,2575.56
          -0.385284,51.305222,2567.94
          -0.381033,51.305923,2560.32
          -0.377426,51.306572,2552.7
          -0.374069,51.307129,2545.08
          -0.37064,51.307709,2537.46
          -0.36705,51.308342,2529.84
          -0.363617,51.308945,2522.22
          -0.359283,51.309677,2514.6
          -0.355348,51.310364,2506.98
          -0.330353,51.314671,2446.02
          -0.305023,51.319046,2438.4
          -0.279694,51.323376,2438.4
          -0.25803,51.327072,2438.4
          -0.233536,51.33115,2438.4
          -0.208295,51.335266,2430.78
          -0.182908,51.339386,2362.2
          -0.157149,51.343781,2286
          -0.13298,51.348793,2232.66
          -0.108643,51.353962,2164.08
          -0.084253,51.359161,2087.88
          -0.060351,51.364243,2019.3
          -0.036671,51.369278,1943.1
          -0.01596,51.373718,1874.52
          0.008908,51.379074,1783.08
          0.024643,51.38343,1729.74
          0.028134,51.384933,1722.12
          0.030823,51.386314,1714.5
          0.033182,51.387817,1706.88
          0.035248,51.389339,1706.88
          0.037116,51.39093,1699.26
          0.038834,51.392647,1691.64
          0.040382,51.394638,1691.64
          0.041273,51.396103,1691.64
          0.042267,51.397953,1691.64
          0.043106,51.399956,1691.64
          0.043797,51.402008,1691.64
          0.044174,51.403492,1691.64
          0.044613,51.405624,1684.02
          0.044985,51.40741,1684.02
          0.045242,51.409546,1676.4
          0.045471,51.411175,1676.4
          0.045578,51.412857,1668.78
          0.045624,51.414944,1661.16
          0.045504,51.416428,1653.54
          0.045059,51.418488,1645.92
          0.044403,51.420254,1645.92
          0.043716,51.4216,1638.3
          0.042496,51.423325,1630.68
          0.041275,51.42458,1623.06
          0.039368,51.426258,1615.44
          0.037689,51.427422,1615.44
          0.03578,51.428513,1607.82
          0.033776,51.42952,1600.2
          0.031586,51.430492,1600.2
          0.029449,51.431332,1592.58
          0.02702,51.432175,1584.96
          0.024793,51.432953,1584.96
          0.022507,51.433704,1577.34
          0.020636,51.43428,1569.72
          0.017667,51.435242,1569.72
          0.015869,51.435799,1562.1
          0.013504,51.436546,1554.48
          0.011292,51.437244,1554.48
          0.008462,51.438126,1546.86
          0.006638,51.438686,1546.86
          0.003891,51.439571,1539.24
          0.001831,51.440224,1531.62
          -0.003281,51.441853,1524
          -0.019531,51.44688,1501.14
          -0.028728,51.449707,1485.9
          -0.038304,51.452637,1470.66
          -0.04776,51.45549,1455.42
          -0.056763,51.458237,1447.8
          -0.065992,51.460922,1432.56
          -0.070817,51.462204,1424.94
          -0.073471,51.462753,1424.94
          -0.076218,51.463264,1417.32
          -0.07876,51.463623,1417.32
          -0.08121,51.463943,1409.7
          -0.084305,51.464245,1409.7
          -0.086926,51.464447,1402.08
          -0.089188,51.464615,1402.08
          -0.092196,51.464722,1394.46
          -0.094943,51.464813,1394.46
          -0.097656,51.464897,1394.46
          -0.100213,51.464951,1386.84
          -0.103405,51.464996,1386.84
          -0.106077,51.464996,1379.22
          -0.108719,51.465034,1371.6
          -0.111274,51.465088,1363.98
          -0.113649,51.465088,1356.36
          -0.116618,51.465134,1348.74
          -0.119705,51.465176,1341.12
          -0.121918,51.465176,1333.5
          -0.124817,51.465221,1318.26
          -0.127679,51.465225,1310.64
          -0.138814,51.465317,1272.54
          -0.149689,51.465408,1219.2
          -0.161133,51.465454,1165.86
          -0.172577,51.465454,1127.76
          -0.18425,51.465408,1082.04
          -0.195465,51.465408,1043.94
          -0.198212,51.465408,1036.32
          -0.200729,51.465408,1028.7
          -0.203247,51.465363,1021.08
          -0.206513,51.465363,1005.84
          -0.209045,51.465363,998.22
          -0.211784,51.465363,982.98
          -0.214386,51.465363,975.36
          -0.217285,51.465363,960.12
          -0.219875,51.465363,952.5
          -0.222473,51.465408,944.88
          -0.225067,51.465408,929.64
          -0.227892,51.465408,914.4
          -0.230713,51.465408,906.78
          -0.241996,51.465317,861.06
          -0.252304,51.465363,822.96
          -0.262756,51.465363,784.86
          -0.272802,51.465363,739.14
          -0.282822,51.465313,701.04
          -0.29213,51.465313,670.56
          -0.301971,51.465313,632.46
          -0.311661,51.465267,594.36
          -0.320534,51.465271,563.88
          -0.3302,51.465267,525.78
          -0.338795,51.465225,487.68
          -0.345383,51.465176,464.82
          -0.353493,51.465179,434.34
          -0.361557,51.465176,403.86
          -0.369797,51.46513,381
          -0.378212,51.465134,342.9
          -0.383987,51.46513,320.04
          -0.392539,51.465088,289.56
          -0.400184,51.465042,266.7
          -0.408424,51.465042,228.6
          -0.414808,51.465042,205.74
          -0.423279,51.464989,182.88
          -0.43203,51.464996,144.78
          -0.438488,51.464951,121.92
          -0.44693,51.464897,106.68
          -0.452957,51.464897,99.06
          -0.456848,51.464886,0
          -0.464191,51.464882,0
          -0.465917,51.465065,0
          -0.467439,51.465454,0
          -0.468107,51.465649,0
          -0.468663,51.466255,0
          -0.468636,51.466583,0
          -0.468589,51.467342,0
          -0.468125,51.467525,0
          -0.467865,51.467525,0
          -0.467262,51.467491,0
          -0.466537,51.46748,0
          -0.466177,51.46748,0
          -0.465469,51.467491,0
          -0.46463,51.467503,0
          -0.464592,51.468155,0
          -0.465007,51.468475,0
          -0.465286,51.468704,0
          -0.466881,51.470181,0
          -0.467281,51.470829,0
          -0.467234,51.471394,0
          -0.467243,51.471855,0
          -0.467224,51.472298,0
          -0.466622,51.472469,0
          -0.466175,51.472412,0
          -0.465805,51.472389,0
          -0.465174,51.472389,0
          -0.464363,51.472412,0
          -0.464154,51.472343,0
          -0.46381,51.47224,0
          -0.463524,51.472389,0
          -0.463244,51.472572,0
          -0.463022,51.472675,0
          -0.462761,51.472797,0
        </coordinates>
      </LineString>
    </Placemark>
  </Document>
</kml>