<?xml version='1.0' encoding='utf-8'?>
<kml xmlns="http://www.opengis.net/kml/2.2">
  <Document>
    <Placemark>
      <name>VS104-2025-10-23</name>
      <TimeStamp>
        <when>2025-10-23</when>
      </TimeStamp>
      <LineString>
        <altitudeMode>absolute</altitudeMode>
        <coordinates>
          -84.420151,33.63731,0
          -84.420364,33.63731,0
          -84.420578,33.637321,0
          -84.42083,33.637341,0
          -84.421051,33.637287,0
          -84.421257,33.637253,0
          -84.421471,33.637344,0
          -84.421471,33.63755,0
          -84.421463,33.637333,0
          -84.421463,33.637089,0
          -84.421463,33.636868,0
          -84.421303,33.6366,0
          -84.421036,33.636509,0
          -84.42054,33.636509,0
          -84.420326,33.636551,0
          -84.420059,33.636559,0
          -84.419846,33.636555,0
          -84.419632,33.636551,0
          -84.419388,33.636551,0
          -84.419113,33.636555,0
          -84.418808,33.636555,0
          -84.418358,33.636551,0
          -84.417976,33.636543,0
          -84.417389,33.636543,0
          -84.416771,33.636551,0
          -84.416153,33.636543,0
          -84.415627,33.636543,0
          -84.414993,33.636551,0
          -84.414436,33.636555,0
          -84.413704,33.636543,0
          -84.413086,33.636543,0
          -84.412628,33.636543,0
          -84.412094,33.636543,0
          -84.411613,33.636543,0
          -84.41111,33.636559,0
          -84.410866,33.636551,0
          -84.410522,33.636555,0
          -84.410278,33.636551,0
          -84.409782,33.636555,0
          -84.409363,33.636555,0
          -84.409103,33.636551,0
          -84.40889,33.636551,0
          -84.408676,33.636555,0
          -84.408463,33.636555,0
          -84.408257,33.636551,0
          -84.408005,33.636555,0
          -84.407776,33.636551,0
          -84.407547,33.636459,0
          -84.407387,33.636223,0
          -84.407356,33.636017,0
          -84.407356,33.635788,0
          -84.407402,33.635574,0
          -84.407433,33.635342,0
          -84.407455,33.635113,0
          -84.407471,33.634907,0
          -84.407646,33.634689,0
          -84.407875,33.634678,0
          -84.408104,33.634712,0
          -84.408409,33.634735,0
          -84.409264,33.634724,0
          -84.411667,33.634712,0
          -84.414574,33.634735,251.46
          -84.420029,33.634689,251.46
          -84.426849,33.634735,243.84
          -84.43335,33.634689,289.56
          -84.441032,33.634689,396.24
          -84.448532,33.634735,510.54
          -84.456108,33.634827,632.46
          -84.461655,33.634918,670.56
          -84.469727,33.63501,693.42
          -84.471519,33.634918,701.04
          -84.473656,33.634689,708.66
          -84.476227,33.63427,723.9
          -84.478195,33.633911,731.52
          -84.480377,33.633362,746.76
          -84.482735,33.632767,754.38
          -84.484978,33.632126,762
          -84.487091,33.631432,777.24
          -84.489182,33.630753,784.86
          -84.491615,33.629894,800.1
          -84.494171,33.628967,807.72
          -84.496651,33.628033,822.96
          -84.499512,33.626869,838.2
          -84.501793,33.625946,853.44
          -84.504379,33.624866,868.68
          -84.506607,33.62389,876.3
          -84.50901,33.622772,891.54
          -84.511711,33.621552,906.78
          -84.514099,33.620445,922.02
          -84.517265,33.618896,944.88
          -84.519768,33.617699,975.36
          -84.522644,33.616333,1005.84
          -84.525146,33.615093,1036.32
          -84.528008,33.613693,1074.42
          -84.530487,33.612442,1104.9
          -84.53318,33.61116,1143
          -84.535278,33.610111,1165.86
          -84.54071,33.607502,1234.44
          -84.551453,33.602463,1371.6
          -84.559479,33.598705,1470.66
          -84.562836,33.596924,1508.76
          -84.56514,33.595585,1539.24
          -84.567719,33.59391,1577.34
          -84.570229,33.592026,1623.06
          -84.572411,33.590233,1653.54
          -84.574699,33.588043,1684.02
          -84.576416,33.586136,1714.5
          -84.578079,33.584106,1744.98
          -84.579483,33.582092,1767.84
          -84.581444,33.578888,1805.94
          -84.582565,33.576462,1836.42
          -84.583626,33.57394,1859.28
          -84.584595,33.570866,1897.38
          -84.585144,33.568451,1920.24
          -84.585632,33.565189,1950.72
          -84.585815,33.562454,1981.2
          -84.58593,33.559296,2011.68
          -84.585861,33.556343,2042.16
          -84.5858,33.554108,2065.02
          -84.585701,33.550827,2103.12
          -84.585571,33.548195,2133.6
          -84.58548,33.545242,2164.08
          -84.585403,33.542332,2202.18
          -84.585281,33.539795,2225.04
          -84.58522,33.536911,2255.52
          -84.585114,33.533661,2286
          -84.585007,33.53096,2308.86
          -84.584946,33.528122,2324.1
          -84.584694,33.509697,2453.64
          -84.583122,33.49736,2598.42
          -84.582199,33.494202,2636.52
          -84.581108,33.491356,2682.24
          -84.579872,33.488796,2712.72
          -84.578194,33.485909,2758.44
          -84.57605,33.482666,2811.78
          -84.574127,33.480194,2849.88
          -84.572533,33.478367,2880.36
          -84.569725,33.475388,2926.08
          -84.567314,33.473145,2964.18
          -84.564842,33.470993,2987.04
          -84.561768,33.468639,3017.52
          -84.559578,33.467102,3032.76
          -84.555992,33.464867,3055.62
          -84.553032,33.463257,3070.86
          -84.549713,33.461655,3086.1
          -84.546333,33.460236,3101.34
          -84.542877,33.459003,3116.58
          -84.53952,33.457993,3124.2
          -84.535538,33.457001,3139.44
          -84.531105,33.456161,3147.06
          -84.52774,33.455742,3162.3
          -84.524384,33.455463,3169.92
          -84.519913,33.455338,3185.16
          -84.516121,33.455338,3192.78
          -84.51149,33.455418,3208.02
          -84.507553,33.455612,3223.26
          -84.503754,33.455791,3230.88
          -84.499474,33.455978,3246.12
          -84.495735,33.456161,3261.36
          -84.491455,33.456345,3268.98
          -84.487831,33.456482,3284.22
          -84.482941,33.456619,3291.84
          -84.478653,33.456757,3307.08
          -84.474663,33.45686,3314.7
          -84.469727,33.456955,3329.94
          -84.466461,33.456985,3345.18
          -84.438507,33.457092,3413.76
          -84.410759,33.456848,3550.92
          -84.382622,33.456535,3741.42
          -84.354485,33.458584,3901.44
          -84.349838,33.459503,3924.3
          -84.345833,33.46051,3947.16
          -84.341438,33.4617,3962.4
          -84.33683,33.463192,3992.88
          -84.3321,33.464951,4015.74
          -84.328423,33.46645,4030.98
          -84.324387,33.468311,4046.22
          -84.319847,33.470688,4069.08
          -84.316223,33.472778,4084.32
          -84.312782,33.474876,4107.18
          -84.308914,33.477531,4137.66
          -84.305618,33.480011,4160.52
          -84.302162,33.482758,4191
          -84.299774,33.484837,4213.86
          -84.296135,33.488003,4244.34
          -84.293259,33.490585,4274.82
          -84.289467,33.494011,4312.92
          -84.287109,33.496197,4335.78
          -84.283211,33.499695,4366.26
          -84.280243,33.50235,4381.5
          -84.277222,33.504959,4396.74
          -84.273598,33.508118,4419.6
          -84.270409,33.510818,4434.84
          -84.267265,33.513515,4457.7
          -84.264015,33.516262,4480.56
          -84.211639,33.558716,4892.04
          -84.161888,33.598755,5219.7
          -84.109085,33.64183,5623.56
          -84.055824,33.685524,5974.08
          -84.002472,33.728989,6362.7
          -83.947334,33.773975,6614.16
          -83.889191,33.821411,6865.62
          -83.831062,33.868477,7162.8
          -83.77137,33.916763,7467.6
          -83.710716,33.963318,7658.1
          -83.639755,34.00621,7940.04
          -83.570648,34.048588,8214.36
          -83.499847,34.092133,8450.58
          -83.428574,34.135731,8679.18
          -83.355446,34.180328,8884.92
          -83.285637,34.222832,9083.04
          -83.211594,34.267799,9273.54
          -83.135948,34.313656,9479.28
          -83.058815,34.360718,9631.68
          -82.980354,34.408859,9761.22
          -82.90638,34.453964,9906
          -82.826546,34.502518,10096.5
          -82.74736,34.55056,10340.34
          -82.669487,34.597672,10538.46
          -82.592926,34.644081,10599.42
          -82.518082,34.689098,10668
          -82.438721,34.735416,10668
          -82.359062,34.781799,10668
          -82.279755,34.828152,10668
          -82.200043,34.874817,10668
          -82.121567,34.92041,10668
          -82.04155,34.966827,10675.62
          -81.961441,35.013287,10668
          -81.882362,35.059376,10668
          -81.805153,35.10791,10668
          -81.729012,35.155926,10668
          -81.651993,35.20364,10668
          -81.576065,35.250412,10668
          -81.496117,35.299583,10675.62
          -81.416168,35.348557,10911.84
          -81.337906,35.396439,11109.96
          -81.263123,35.442173,11247.12
          -81.18692,35.488678,11353.8
          -81.109955,35.535511,11452.86
          -81.031593,35.583042,11582.4
          -80.952072,35.63118,11658.6
          -80.873856,35.678421,11704.32
          -80.794434,35.726257,11833.86
          -80.716965,35.772881,11887.2
          -80.63913,35.819595,11887.2
          -80.559532,35.86729,11887.2
          -80.480057,35.914631,11887.2
          -80.399437,35.962692,11887.2
          -80.320755,36.009567,11887.2
          -80.239937,36.05764,11887.2
          -80.158707,36.105789,11887.2
          -80.08152,36.151566,11887.2
          -80.0009,36.199265,11887.2
          -79.919632,36.247063,11887.2
          -79.839478,36.294296,11887.2
          -79.758568,36.341812,11887.2
          -79.675255,36.390656,11887.2
          -79.593369,36.4384,11887.2
          -79.514778,36.484245,11887.2
          -79.433502,36.531509,11887.2
          -79.350525,36.57962,11887.2
          -79.266594,36.628139,11887.2
          -79.181915,36.677067,11887.2
          -79.098228,36.725201,11887.2
          -79.015717,36.772545,11887.2
          -78.931503,36.820816,11887.2
          -78.84771,36.868515,11887.2
          -78.764259,36.91571,11887.2
          -78.67923,36.963593,11887.2
          -78.59243,37.012428,11887.2
          -78.50782,37.059956,11894.82
          -78.423218,37.107346,11887.2
          -78.338654,37.154755,11887.2
          -78.253456,37.20108,11887.2
          -78.161392,37.24258,11887.2
          -78.070755,37.28257,11887.2
          -77.979584,37.323212,11887.2
          -77.890915,37.362453,11887.2
          -77.801262,37.401855,11887.2
          -77.710388,37.441589,11887.2
          -77.620918,37.480957,11887.2
          -77.531044,37.520142,11894.82
          -77.440117,37.559555,11887.2
          -77.352348,37.599171,11887.2
          -77.268997,37.645397,11887.2
          -77.192268,37.697258,11887.2
          -77.121811,37.754284,11887.2
          -77.060791,37.813313,11887.2
          -77.00528,37.878296,11887.2
          -76.958878,37.944031,11887.2
          -76.912834,38.010136,11887.2
          -76.867279,38.074982,11887.2
          -76.820648,38.141739,11887.2
          -76.77282,38.208775,11887.2
          -76.720757,38.269199,11887.2
          -76.656578,38.329926,11887.2
          -76.592682,38.388836,11894.82
          -76.528625,38.44838,11887.2
          -76.463684,38.509129,11879.58
          -76.401016,38.567505,11894.82
          -76.337128,38.62674,11887.2
          -76.27121,38.687805,11887.2
          -76.205711,38.748276,11887.2
          -76.139854,38.808838,11887.2
          -76.07489,38.868393,11887.2
          -76.008675,38.929276,11887.2
          -75.942276,38.989746,11887.2
          -75.871826,39.048203,11887.2
          -75.801819,39.105556,11894.82
          -75.732224,39.163651,11887.2
          -75.661644,39.222656,11887.2
          -75.59137,39.281158,11887.2
          -75.519165,39.34111,11887.2
          -75.449448,39.398849,11887.2
          -75.380371,39.455906,11887.2
          -75.308655,39.51503,11894.82
          -75.236694,39.57415,11887.2
          -75.166725,39.631622,11887.2
          -75.093262,39.691742,11887.2
          -75.028076,39.749001,11887.2
          -74.961609,39.809612,11887.2
          -74.893982,39.869526,11887.2
          -74.843872,39.905743,11894.82
          -74.764099,39.956543,11887.2
          -74.684311,40.008717,11887.2
          -74.605598,40.060249,11887.2
          -74.524757,40.1129,11887.2
          -74.444031,40.165329,11887.2
          -74.363899,40.217129,11887.2
          -74.281876,40.270107,11887.2
          -74.199219,40.323349,11887.2
          -74.115479,40.377136,11887.2
          -74.035339,40.428406,11887.2
          -73.952759,40.48114,11887.2
          -73.871704,40.532822,11887.2
          -73.791237,40.583961,11887.2
          -73.708435,40.636414,11887.2
          -73.628937,40.686657,11887.2
          -73.547119,40.738266,11887.2
          -73.465271,40.789673,11887.2
          -73.383492,40.840885,11894.82
          -73.299973,40.893162,11887.2
          -73.217758,40.944416,11887.2
          -73.134949,40.995941,11887.2
          -73.051155,41.047901,11887.2
          -72.967102,41.099899,11887.2
          -72.882446,41.152084,11887.2
          -72.798782,41.20348,11887.2
          -72.718758,41.25264,11887.2
          -72.636963,41.302643,11887.2
          -72.551712,41.354168,11887.2
          -72.467545,41.404724,11887.2
          -72.387321,41.453045,11887.2
          -72.303902,41.50309,11887.2
          -72.218498,41.554295,11887.2
          -72.132607,41.605545,11887.2
          -72.048653,41.655533,11887.2
          -71.962509,41.706757,11887.2
          -71.878487,41.756424,11887.2
          -71.792076,41.807449,11887.2
          -71.707764,41.857071,11887.2
          -71.62281,41.906929,11887.2
          -71.539841,41.955532,11887.2
          -71.454315,42.005386,11887.2
          -71.368813,42.055206,11887.2
          -71.282425,42.105381,11887.2
          -71.195114,42.155891,11887.2
          -71.108322,42.206039,11887.2
          -71.02182,42.255791,11887.2
          -70.936295,42.304813,11887.2
          -70.848709,42.35495,11887.2
          -70.76194,42.404434,11887.2
          -70.673737,42.454605,11887.2
          -70.586967,42.503769,11887.2
          -70.499138,42.553493,11887.2
          -70.410629,42.603424,11887.2
          -70.321953,42.653255,11887.2
          -70.2341,42.702484,11887.2
          -70.145332,42.75206,11887.2
          -70.056503,42.80159,11887.2
          -69.96656,42.851521,11887.2
          -69.876968,42.9011,11887.2
          -69.785988,42.95137,11887.2
          -69.695435,43.001232,11887.2
          -69.602966,43.051884,11887.2
          -69.51226,43.101505,11887.2
          -69.421494,43.151039,11887.2
          -69.329422,43.20108,11887.2
          -69.242294,43.248276,11887.2
          -69.150627,43.297863,11887.2
          -69.057564,43.347977,11887.2
          -68.966545,43.39682,11887.2
          -68.872208,43.447311,11887.2
          -68.784637,43.494049,11887.2
          -68.690231,43.544266,11887.2
          -68.597458,43.593426,11887.2
          -68.504799,43.642456,11887.2
          -68.414742,43.68988,11887.2
          -68.320717,43.739273,11887.2
          -68.230721,43.786423,11887.2
          -68.138481,43.834534,11887.2
          -68.047684,43.881767,11887.2
          -67.952614,43.931168,11887.2
          -67.857056,43.980553,11887.2
          -67.7631,44.028946,11887.2
          -67.67099,44.076233,11887.2
          -67.580544,44.122559,11887.2
          -67.482018,44.172859,11887.2
          -67.385559,44.221893,11887.2
          -67.289917,44.270432,11887.2
          -67.193451,44.319126,11887.2
          -67.100441,44.365997,11887.2
          -67.003067,44.414749,11887.2
          -66.908211,44.456921,11887.2
          -66.806793,44.501427,11887.2
          -66.706169,44.545792,11887.2
          -66.605659,44.589752,11887.2
          -66.50386,44.634098,11887.2
          -66.405251,44.676975,11887.2
          -66.301903,44.721725,11887.2
          -66.200539,44.76535,11894.82
          -66.105522,44.806137,11887.2
          -66.00914,44.847401,11887.2
          -65.907051,44.891022,11887.2
          -65.805687,44.934128,11887.2
          -65.700333,44.978714,11887.2
          -65.600769,45.020763,11887.2
          -65.503036,45.06189,11887.2
          -65.395332,45.107025,11887.2
          -65.292274,45.150009,11887.2
          -65.187843,45.193424,11887.2
          -65.088303,45.234741,11887.2
          -64.985268,45.277313,11887.2
          -64.885323,45.318375,11887.2
          -64.785202,45.359482,11887.2
          -64.682747,45.401279,11887.2
          -64.581757,45.442429,11894.82
          -64.475426,45.485458,11887.2
          -64.370369,45.52795,11887.2
          -64.271324,45.567844,11887.2
          -64.164551,45.610626,11887.2
          -64.05764,45.653313,11887.2
          -63.957245,45.693192,11887.2
          -63.853611,45.73439,11887.2
          -63.746864,45.776539,11887.2
          -63.650047,45.814617,11894.82
          -63.542244,45.856842,11887.2
          -63.436775,45.898087,11887.2
          -63.331032,45.93919,11894.82
          -63.232079,45.977509,11887.2
          -63.123692,46.019394,11887.2
          -63.023552,46.057899,11887.2
          -62.91716,46.098633,11887.2
          -62.8148,46.137772,11887.2
          -62.71291,46.176453,11894.82
          -62.608471,46.216003,11887.2
          -62.501633,46.256351,11887.2
          -62.398457,46.295151,11887.2
          -62.287926,46.336533,11887.2
          -62.178398,46.377365,11894.82
          -62.071724,46.416958,11887.2
          -61.962421,46.457382,11887.2
          -61.857517,46.496063,11887.2
          -61.749207,46.535805,11887.2
          -61.639412,46.575932,11887.2
          -61.527256,46.61673,11887.2
          -61.418262,46.656235,11887.2
          -61.33955,46.684662,11887.2
          -61.205109,46.733002,11887.2
          -61.091057,46.773872,11887.2
          -60.984077,46.811954,11887.2
          -60.881004,46.848587,11887.2
          -60.770523,46.887741,11887.2
          -60.66362,46.925308,11887.2
          -60.558907,46.962021,11887.2
          -60.449181,47.000427,11887.2
          -60.335609,47.039886,11887.2
          -60.226433,47.077744,11887.2
          -60.124653,47.11282,11887.2
          -60.014603,47.150665,11887.2
          -59.902542,47.18898,11894.82
          -59.792034,47.226639,12054.84
          -59.687595,47.262207,12192
          -59.57745,47.299263,12199.62
          -59.475471,47.333618,12192
          -59.362442,47.37151,12192
          -59.260803,47.405457,12192
          -59.152039,47.44162,12192
          -59.042244,47.477921,12192
          -58.931831,47.514313,12192
          -58.82869,47.548176,12192
          -58.719109,47.583984,12192
          -58.609177,47.619781,12192
          -58.500999,47.654827,12192
          -58.397072,47.688309,12192
          -58.291977,47.722095,12192
          -58.181198,47.757477,12192
          -58.075378,47.791214,12192
          -57.967319,47.825535,12192
          -57.863228,47.858402,12192
          -57.753136,47.893021,12192
          -57.648293,47.926132,12192
          -57.538559,47.960815,12192
          -57.426243,47.996147,12192
          -57.320892,48.029205,12192
          -57.217007,48.0616,12192
          -57.10651,48.095909,12192
          -57.002914,48.127983,12192
          -56.888969,48.163101,12192
          -56.781464,48.196045,12192
          -56.670807,48.229794,12192
          -56.563744,48.262344,12192
          -56.454113,48.295574,12192
          -56.346493,48.328018,12192
          -56.23373,48.361816,12192
          -56.129368,48.393005,12192
          -56.019505,48.425594,12192
          -55.915424,48.456409,12192
          -55.809422,48.487701,12192
          -55.704151,48.518559,12192
          -55.601875,48.548401,12192
          -55.490643,48.580799,12192
          -55.379898,48.612854,12192
          -55.271091,48.644211,12192
          -55.162498,48.675438,12192
          -55.053864,48.706444,12192
          -54.948189,48.736542,12192
          -54.834103,48.768768,12192
          -54.726368,48.799129,12192
          -54.616276,48.830017,12192
          -54.508087,48.860203,12192
          -54.396709,48.891163,12192
          -54.292267,48.920025,12192
          -54.176331,48.952007,12192
          -54.062782,48.983055,12192
          -53.950245,49.013828,12192
          -53.839417,49.043839,12192
          -53.729939,49.07346,12192
          -53.61821,49.103439,12192
          -53.506447,49.133331,12192
          -53.393555,49.163361,12192
          -53.283623,49.192566,12192
          -53.168686,49.222824,12192
          -53.056641,49.252258,12192
          -52.94138,49.282341,12192
          -52.826843,49.312134,12192
          -52.72057,49.339554,12192
          -52.609089,49.36821,12192
          -52.498169,49.396637,12192
          -52.388374,49.424561,12192
          -52.274212,49.45356,12192
          -52.160267,49.482281,12192
          -52.047878,49.510445,12192
          -51.940685,49.53717,12192
          -51.826149,49.565704,12192
          -51.713982,49.593403,12199.62
          -51.596497,49.622269,12192
          -51.483959,49.64978,12192
          -51.369904,49.677521,12192
          -51.255196,49.705307,12192
          -51.144032,49.732086,12192
          -51.025036,49.760616,12192
          -50.91621,49.786549,12192
          -50.797455,49.814713,12192
          -50.680969,49.842178,12192
          -50.57341,49.867409,12192
          -50.459122,49.894043,12192
          -50.346409,49.920246,12192
          -50.235779,49.945816,12192
          -50.12035,49.972321,12192
          -50.007526,49.993835,12192
          -50.000008,49.994476,12192
          -49.992619,49.994961,12192
          -49.985264,49.995346,12192
          -49.975651,49.995667,12199.62
          -49.967701,49.99585,12199.62
          -49.959747,49.995941,12199.62
          -49.950497,49.995987,12199.62
          -49.941608,49.996078,12199.62
          -49.932354,49.99617,12192
          -49.925201,49.996307,12192
          -49.917645,49.996544,12192
          -49.908737,49.996964,12192
          -49.901016,49.997383,12192
          -49.893688,49.99791,12184.38
          -49.886021,49.998592,12192
          -49.872585,50.000034,12192
          -49.865532,50.000969,12192
          -49.85762,50.002121,12199.62
          -49.849945,50.003387,12192
          -49.840057,50.005188,12192
          -49.832722,50.006645,12192
          -49.825745,50.008163,12192
          -49.81884,50.009766,12192
          -49.811218,50.011642,12199.62
          -49.801247,50.014236,12192
          -49.794495,50.016048,12199.62
          -49.785732,50.018379,12192
          -49.778618,50.02034,12192
          -49.770161,50.022629,12192
          -49.762794,50.02457,12192
          -49.650333,50.05278,12192
          -49.543282,50.078796,12192
          -49.428902,50.106918,12192
          -49.320374,50.133682,12192
          -49.20892,50.161102,12192
          -49.092705,50.189316,12192
          -48.962597,50.220886,12192
          -48.85004,50.247974,12192
          -48.755322,50.270691,12192
          -48.54562,50.320679,12192
          -48.515553,50.32782,12192
          -48.299801,50.378632,12192
          -48.267998,50.386047,12192
          -48.009098,50.446243,12192
          -47.665485,50.525024,12192
          -40.044994,51.958637,12194.4384
          -32.364521,52.809391,12192
          -29.10347,53.000793,12194.4384
          -19.992542,52.966976,12193.2192
          -15.653992,52.978455,12192
          -15.52597,52.976395,12192
          -15.400321,52.97435,12192
          -15.270996,52.980545,12192
          -15.144889,52.989716,12192
          -15.017761,52.992088,12192
          -14.891418,52.986782,12192
          -14.74381,52.972118,12192
          -14.618454,52.958633,12192
          -14.491425,52.945038,12192
          -14.363917,52.930965,12192
          -14.237889,52.916904,12192
          -14.119034,52.903473,12192
          -13.989049,52.888695,12192
          -13.855643,52.873379,12192
          -13.733749,52.859207,12192
          -13.603439,52.843918,12192
          -13.470572,52.828133,12192
          -13.339208,52.812443,12192
          -13.213043,52.79718,12192
          -13.080793,52.781021,12192
          -12.95186,52.765144,12192
          -12.827988,52.749756,12192
          -12.704198,52.734188,12192
          -12.579803,52.718445,12192
          -12.446097,52.701324,12192
          -12.322187,52.685356,12192
          -12.192764,52.668503,12192
          -12.059479,52.65097,12192
          -11.937485,52.634811,12192
          -11.815491,52.618469,12192
          -11.685451,52.600956,12192
          -11.561149,52.584011,12192
          -11.436768,52.566925,12192
          -11.30806,52.549164,12192
          -11.175607,52.530617,12192
          -11.043091,52.511948,12192
          -10.910601,52.493141,12192
          -10.781825,52.474705,12192
          -10.649643,52.455551,12192
          -10.517502,52.436279,12192
          -10.396576,52.418518,12192
          -10.272522,52.400162,12192
          -10.141637,52.380577,12199.62
          -10.012547,52.361118,12192
          -9.882584,52.341385,12192
          -9.757309,52.322296,12192
          -9.630851,52.302742,12192
          -9.499015,52.282261,12192
          -9.370422,52.262009,12192
          -9.240758,52.241665,12192
          -9.110336,52.220856,12192
          -8.987885,52.201263,12192
          -8.858337,52.180252,12199.62
          -8.727493,52.15892,12192
          -8.601608,52.138321,12192
          -8.469831,52.11644,12199.62
          -8.341527,52.095119,12184.38
          -8.217621,52.074326,12199.62
          -8.089076,52.05257,12192
          -7.961871,52.030876,12184.38
          -7.836227,52.009369,12192
          -7.704391,51.986526,12199.62
          -7.583156,51.965424,12192
          -7.457809,51.943542,12192
          -7.331805,51.9212,12192
          -7.210955,51.899693,12192
          -7.084103,51.877945,12192
          -6.954117,51.864826,12192
          -6.824217,51.851578,12192
          -6.700668,51.838757,12192
          -6.573387,51.825531,12199.62
          -6.449717,51.812714,12199.62
          -6.32019,51.798954,12184.38
          -6.191101,51.785175,12192
          -6.063461,51.771397,12192
          -5.931801,51.756866,12192
          -5.8078,51.743279,12192
          -5.678298,51.728714,12192
          -5.550766,51.714417,12192
          -5.422198,51.699783,12192
          -5.294952,51.68504,12192
          -5.165578,51.670074,12192
          -5.037899,51.655014,12192
          -4.910431,51.639931,12192
          -4.782096,51.624619,12192
          -4.65323,51.608963,12192
          -4.525375,51.593334,12192
          -4.400692,51.577972,12199.62
          -4.275055,51.562283,12153.9
          -4.150848,51.546642,11742.42
          -4.024782,51.530777,11201.4
          -3.897771,51.514435,10812.78
          -3.770065,51.497902,10447.02
          -3.644269,51.482117,10043.16
          -3.522263,51.472763,9692.64
          -3.400497,51.466152,9471.66
          -3.280978,51.458862,9128.76
          -3.163528,51.451675,8778.24
          -3.050308,51.444691,8511.54
          -2.939585,51.437714,8290.56
          -2.831726,51.430939,7856.22
          -2.717632,51.423569,7475.22
          -2.610366,51.416473,7101.84
          -2.503769,51.409515,6713.22
          -2.391605,51.401962,6256.02
          -2.286377,51.394787,5989.32
          -2.179489,51.387341,5775.96
          -2.078197,51.38031,5463.54
          -1.978875,51.373306,5128.26
          -1.880815,51.366257,4899.66
          -1.785202,51.359268,4876.8
          -1.694336,51.352566,4876.8
          -1.609274,51.346298,4876.8
          -1.529236,51.340366,4716.78
          -1.44455,51.334038,4579.62
          -1.369247,51.328171,4572
          -1.299876,51.322906,4572
          -1.231434,51.317642,4526.28
          -1.16314,51.312744,4351.02
          -1.100082,51.312531,4267.2
          -1.035758,51.311829,4267.2
          -0.971451,51.311134,4183.38
          -0.90756,51.310501,4030.98
          -0.844314,51.30986,3962.4
          -0.782182,51.309128,3962.4
          -0.719233,51.308441,3962.4
          -0.657349,51.30769,3848.1
          -0.596008,51.306885,3726.18
          -0.534693,51.306107,3657.6
          -0.473099,51.305313,3657.6
          -0.416144,51.303589,3657.6
          -0.412433,51.302994,3657.6
          -0.408401,51.302151,3657.6
          -0.404587,51.301216,3657.6
          -0.401149,51.300201,3657.6
          -0.397586,51.299011,3657.6
          -0.394516,51.297867,3657.6
          -0.39032,51.296188,3657.6
          -0.387192,51.294842,3657.6
          -0.383853,51.293335,3649.98
          -0.380736,51.29187,3642.36
          -0.377655,51.290371,3634.74
          -0.374527,51.288834,3619.5
          -0.371679,51.287384,3611.88
          -0.368729,51.285904,3596.64
          -0.365601,51.284321,3581.4
          -0.362549,51.282761,3573.78
          -0.35958,51.28125,3558.54
          -0.355835,51.279339,3543.3
          -0.353418,51.278183,3535.68
          -0.333524,51.268616,3474.72
          -0.321944,51.262436,3429
          -0.3189,51.260239,3413.76
          -0.316696,51.258438,3398.52
          -0.314713,51.256573,3390.9
          -0.313185,51.254837,3383.28
          -0.311203,51.252151,3368.04
          -0.310059,51.250198,3360.42
          -0.308838,51.247776,3345.18
          -0.308151,51.245586,3337.56
          -0.307617,51.243301,3322.32
          -0.307395,51.24147,3314.7
          -0.307469,51.238861,3307.08
          -0.307766,51.23671,3291.84
          -0.308285,51.23465,3284.22
          -0.30925,51.232086,3276.6
          -0.310067,51.230438,3268.98
          -0.311584,51.228085,3253.74
          -0.313036,51.226227,3246.12
          -0.314743,51.224442,3230.88
          -0.317045,51.222427,3223.26
          -0.318756,51.221149,3215.64
          -0.321045,51.219704,3200.4
          -0.324022,51.218079,3192.78
          -0.326175,51.217072,3185.16
          -0.329664,51.215698,3169.92
          -0.33293,51.214691,3154.68
          -0.336075,51.213932,3147.06
          -0.339092,51.213364,3139.44
          -0.342331,51.212955,3124.2
          -0.345772,51.212677,3116.58
          -0.349121,51.212582,3108.96
          -0.352305,51.212677,3093.72
          -0.355497,51.212906,3086.1
          -0.35854,51.213272,3070.86
          -0.361633,51.213791,3063.24
          -0.365073,51.2146,3048
          -0.367745,51.215378,3040.38
          -0.371234,51.216614,3025.14
          -0.373611,51.217609,3017.52
          -0.376053,51.218819,3009.9
          -0.379181,51.220634,2994.66
          -0.381552,51.222244,2987.04
          -0.382919,51.223381,2971.8
          -0.38559,51.225712,2964.18
          -0.387268,51.227417,2948.94
          -0.389124,51.229523,2941.32
          -0.390701,51.231388,2926.08
          -0.39239,51.233551,2918.46
          -0.393753,51.235439,2903.22
          -0.395126,51.237301,2895.6
          -0.39677,51.239822,2880.36
          -0.397809,51.24147,2872.74
          -0.399071,51.243347,2865.12
          -0.400704,51.245819,2849.88
          -0.401764,51.247452,2842.26
          -0.403061,51.249451,2827.02
          -0.404892,51.252151,2811.78
          -0.405807,51.25341,2804.16
          -0.407682,51.256073,2796.54
          -0.416489,51.268257,2750.82
          -0.427056,51.281937,2743.2
          -0.437927,51.295773,2743.2
          -0.44754,51.30769,2743.2
          -0.456009,51.319511,2697.48
          -0.456924,51.321609,2682.24
          -0.457611,51.323795,2674.62
          -0.458069,51.326077,2659.38
          -0.458374,51.328636,2644.14
          -0.458382,51.331146,2628.9
          -0.458382,51.332886,2621.28
          -0.45816,51.335037,2606.04
          -0.457916,51.337341,2598.42
          -0.457491,51.340256,2583.18
          -0.457153,51.342369,2575.56
          -0.456696,51.345024,2560.32
          -0.45623,51.347305,2552.7
          -0.455858,51.349365,2537.46
          -0.455413,51.351654,2529.84
          -0.454893,51.354309,2514.6
          -0.454483,51.356522,2506.98
          -0.453796,51.359409,2499.36
          -0.45326,51.361588,2491.74
          -0.452592,51.363464,2476.5
          -0.451553,51.366074,2468.88
          -0.450287,51.368347,2461.26
          -0.448509,51.370926,2453.64
          -0.446625,51.373188,2446.02
          -0.444649,51.375137,2446.02
          -0.442422,51.377014,2446.02
          -0.439824,51.378937,2446.02
          -0.437003,51.380768,2446.02
          -0.434113,51.382359,2446.02
          -0.430145,51.384312,2446.02
          -0.426759,51.385712,2446.02
          -0.423271,51.386902,2446.02
          -0.419617,51.388039,2446.02
          -0.415878,51.388969,2446.02
          -0.412136,51.389786,2446.02
          -0.407311,51.390564,2446.02
          -0.403442,51.391018,2446.02
          -0.399399,51.391296,2446.02
          -0.395279,51.391438,2446.02
          -0.39032,51.391388,2438.4
          -0.385932,51.391159,2438.4
          -0.381851,51.390785,2438.4
          -0.377731,51.390274,2438.4
          -0.374985,51.389805,2446.02
          -0.369949,51.388924,2446.02
          -0.366287,51.388176,2446.02
          -0.362549,51.387341,2446.02
          -0.358658,51.386456,2438.4
          -0.354829,51.385483,2438.4
          -0.351117,51.384613,2438.4
          -0.346886,51.383514,2438.4
          -0.342712,51.38245,2438.4
          -0.339127,51.381519,2438.4
          -0.335464,51.380589,2438.4
          -0.331594,51.379578,2438.4
          -0.327214,51.378479,2438.4
          -0.323948,51.377609,2438.4
          -0.296705,51.37056,2407.92
          -0.270615,51.363972,2331.72
          -0.258331,51.361874,2308.86
          -0.254364,51.361504,2301.24
          -0.24971,51.361271,2293.62
          -0.246005,51.361221,2278.38
          -0.241241,51.361271,2270.76
          -0.23732,51.361404,2263.14
          -0.233231,51.361641,2247.9
          -0.228634,51.361954,2232.66
          -0.225071,51.362228,2225.04
          -0.220914,51.362595,2209.8
          -0.21698,51.362915,2194.56
          -0.21225,51.363365,2179.32
          -0.208282,51.363739,2171.7
          -0.204315,51.364109,2164.08
          -0.201094,51.364426,2156.46
          -0.196609,51.364807,2141.22
          -0.192261,51.365227,2133.6
          -0.187361,51.365707,2118.36
          -0.159149,51.368252,2042.16
          -0.131242,51.370743,1981.2
          -0.102663,51.373215,1935.48
          -0.074387,51.375561,1905
          -0.051072,51.377472,1882.14
          -0.025536,51.379486,1844.04
          -0.003489,51.38118,1828.8
          0.020933,51.383011,1798.32
          0.034561,51.384964,1760.22
          0.037487,51.385757,1752.6
          0.040817,51.386826,1744.98
          0.043182,51.387806,1737.36
          0.045929,51.389156,1737.36
          0.048294,51.390553,1737.36
          0.050181,51.391846,1729.74
          0.052334,51.393631,1729.74
          0.053558,51.394833,1729.74
          0.055237,51.39679,1722.12
          0.056381,51.398464,1722.12
          0.057449,51.400467,1722.12
          0.057983,51.402142,1714.5
          0.058346,51.403793,1714.5
          0.058421,51.405624,1714.5
          0.058289,51.407219,1706.88
          0.057755,51.409172,1706.88
          0.057144,51.410477,1699.26
          0.056076,51.412151,1699.26
          0.055008,51.413502,1691.64
          0.053373,51.415054,1691.64
          0.051962,51.416199,1691.64
          0.050478,51.417206,1684.02
          0.048523,51.418343,1684.02
          0.046692,51.419357,1676.4
          0.044556,51.420437,1676.4
          0.042535,51.421417,1668.78
          0.040605,51.422287,1668.78
          0.038681,51.423138,1661.16
          0.03685,51.423931,1653.54
          0.034741,51.42485,1653.54
          0.03273,51.425697,1645.92
          0.030289,51.426769,1645.92
          0.028152,51.427654,1638.3
          0.02613,51.428513,1638.3
          0.023754,51.42952,1630.68
          0.021973,51.430305,1630.68
          0.007629,51.436359,1600.2
          -0.00631,51.442337,1577.34
          -0.018234,51.447437,1554.48
          -0.032291,51.453415,1531.62
          -0.046234,51.459354,1501.14
          -0.054189,51.462753,1478.28
          -0.06218,51.466152,1455.42
          -0.070267,51.469597,1440.18
          -0.078125,51.472904,1424.94
          -0.082472,51.474426,1417.32
          -0.084457,51.474998,1409.7
          -0.086851,51.475662,1409.7
          -0.089035,51.476116,1402.08
          -0.091171,51.476532,1394.46
          -0.093231,51.476814,1394.46
          -0.095673,51.477139,1386.84
          -0.097885,51.477325,1386.84
          -0.099619,51.477448,1379.22
          -0.101624,51.477585,1379.22
          -0.10376,51.477695,1371.6
          -0.105855,51.477722,1363.98
          -0.108032,51.477791,1363.98
          -0.110168,51.477791,1356.36
          -0.112313,51.477814,1348.74
          -0.114594,51.477837,1348.74
          -0.116119,51.477837,1341.12
          -0.118561,51.477882,1341.12
          -0.120468,51.477882,1333.5
          -0.122334,51.477905,1333.5
          -0.124207,51.477932,1325.88
          -0.126419,51.477978,1318.26
          -0.128199,51.477997,1310.64
          -0.130081,51.478024,1303.02
          -0.138517,51.47818,1272.54
          -0.146534,51.478226,1242.06
          -0.154419,51.478256,1211.58
          -0.160489,51.478226,1188.72
          -0.168581,51.478226,1150.62
          -0.176468,51.47821,1120.14
          -0.184615,51.478226,1089.66
          -0.190553,51.478226,1066.8
          -0.198645,51.478226,1036.32
          -0.206736,51.478226,1005.84
          -0.214691,51.47821,975.36
          -0.222626,51.478165,944.88
          -0.230103,51.478165,914.4
          -0.238342,51.478165,883.92
          -0.246048,51.478165,853.44
          -0.254096,51.478134,822.96
          -0.262113,51.478134,792.48
          -0.269699,51.478115,762
          -0.27565,51.478115,739.14
          -0.283585,51.478069,708.66
          -0.291672,51.478069,678.18
          -0.299377,51.478069,655.32
          -0.307543,51.478043,624.84
          -0.315475,51.478024,601.98
          -0.321647,51.477997,571.5
          -0.329437,51.477978,541.02
          -0.337384,51.477997,502.92
          -0.344467,51.477932,472.44
          -0.350266,51.477932,457.2
          -0.35713,51.477905,434.34
          -0.364532,51.477882,403.86
          -0.372009,51.477882,381
          -0.379251,51.477859,350.52
          -0.386353,51.477837,327.66
          -0.394023,51.477814,297.18
          -0.401611,51.477791,274.32
          -0.409393,51.477791,236.22
          -0.417099,51.477745,213.36
          -0.41893,51.477745,205.74
          -0.420895,51.477768,198.12
          -0.422677,51.477768,190.5
          -0.424728,51.477745,182.88
          -0.426091,51.477722,175.26
          -0.428467,51.477745,167.64
          -0.430323,51.477722,160.02
          -0.432995,51.477722,152.4
          -0.434405,51.477722,144.78
          -0.460554,51.475903,0
          -0.462227,51.47517,0
          -0.462966,51.474998,0
          -0.463028,51.474556,0
          -0.463152,51.474323,0
          -0.463263,51.474117,0
        </coordinates>
      </LineString>
    </Placemark>
  </Document>
</kml>