<?xml version='1.0' encoding='utf-8'?>
<kml xmlns="http://www.opengis.net/kml/2.2">
  <Document>
    <Placemark>
      <name>VS302-2026-05-14</name>
      <TimeStamp>
        <when>2026-05-14</when>
      </TimeStamp>
      <LineString>
        <altitudeMode>absolute</altitudeMode>
        <coordinates>
          -0.462761,51.472797,0
          -0.463282,51.472618,0
          -0.463541,51.472549,0
          -0.46382,51.472389,0
          -0.463867,51.472157,0
          -0.463727,51.471931,0
          -0.463523,51.471737,0
          -0.463848,51.472042,0
          -0.464096,51.472252,0
          -0.464458,51.472439,0
          -0.464803,51.472435,0
          -0.465045,51.472412,0
          -0.465508,51.472389,0
          -0.465775,51.472389,0
          -0.466309,51.472389,0
          -0.467105,51.472378,0
          -0.46814,51.472378,0
          -0.468597,51.472496,0
          -0.468719,51.472836,0
          -0.468731,51.473042,0
          -0.468655,51.473576,0
          -0.468719,51.473911,0
          -0.46896,51.474499,0
          -0.469053,51.474781,0
          -0.46883,51.475937,0
          -0.468292,51.475941,0
          -0.46768,51.475925,0
          -0.466747,51.475918,0
          -0.46608,51.475929,0
          -0.465174,51.475925,0
          -0.463764,51.475937,0
          -0.461129,51.475948,0
          -0.458883,51.47596,0
          -0.457844,51.47596,0
          -0.455036,51.475975,0
          -0.453224,51.475975,0
          -0.45229,51.475975,0
          -0.451312,51.475983,0
          -0.449543,51.475986,0
          -0.44825,51.475994,0
          -0.446854,51.475998,0
          -0.445447,51.476006,0
          -0.44426,51.475998,0
          -0.443077,51.475986,0
          -0.442385,51.475925,0
          -0.441666,51.475918,0
          -0.44136,51.475929,0
          -0.440901,51.475925,0
          -0.440445,51.475929,0
          -0.439644,51.475929,0
          -0.439045,51.475937,0
          -0.438156,51.475941,0
          -0.436484,51.475937,0
          -0.436268,51.475941,0
          -0.436001,51.475941,0
          -0.435772,51.475952,0
          -0.435519,51.476017,0
          -0.435257,51.476196,0
          -0.434647,51.476555,0
          -0.434227,51.476791,0
          -0.434113,51.476997,0
          -0.434108,51.477585,0
          -0.43438,51.477745,0
          -0.434971,51.477695,0
          -0.435238,51.477684,0
          -0.437449,51.477676,0
          -0.442237,51.477665,0
          -0.469742,51.477558,198.12
          -0.478058,51.477417,304.8
          -0.487555,51.477264,403.86
          -0.497437,51.47728,510.54
          -0.504379,51.477325,594.36
          -0.514502,51.477356,662.94
          -0.524523,51.477264,731.52
          -0.529556,51.476997,769.62
          -0.531921,51.476719,792.48
          -0.534286,51.476299,815.34
          -0.536623,51.475754,830.58
          -0.539017,51.474998,861.06
          -0.541002,51.474152,883.92
          -0.542858,51.473236,899.16
          -0.545159,51.471863,929.64
          -0.546722,51.470573,952.5
          -0.548019,51.469318,967.74
          -0.549088,51.468014,982.98
          -0.550232,51.466106,1005.84
          -0.55095,51.464584,1021.08
          -0.551376,51.46294,1036.32
          -0.551529,51.461216,1043.94
          -0.551469,51.459595,1051.56
          -0.551147,51.457867,1059.18
          -0.550766,51.456284,1066.8
          -0.550079,51.454235,1082.04
          -0.549539,51.452682,1089.66
          -0.548782,51.450882,1097.28
          -0.548129,51.449203,1104.9
          -0.547164,51.447006,1112.52
          -0.546265,51.445156,1120.14
          -0.545308,51.443253,1127.76
          -0.544281,51.441387,1135.38
          -0.543155,51.439545,1143
          -0.541893,51.437622,1158.24
          -0.540619,51.435848,1165.86
          -0.539147,51.433868,1173.48
          -0.53781,51.432129,1173.48
          -0.53627,51.430355,1181.1
          -0.534544,51.428375,1188.72
          -0.532392,51.426086,1196.34
          -0.530624,51.424397,1203.96
          -0.528488,51.422348,1219.2
          -0.526379,51.420502,1226.82
          -0.524216,51.418671,1234.44
          -0.522222,51.417023,1242.06
          -0.519995,51.415237,1257.3
          -0.517807,51.413502,1264.92
          -0.515442,51.411732,1272.54
          -0.512423,51.409561,1280.16
          -0.509872,51.40773,1295.4
          -0.507355,51.40596,1303.02
          -0.504761,51.40419,1310.64
          -0.50209,51.402424,1318.26
          -0.498734,51.400188,1333.5
          -0.496063,51.398418,1348.74
          -0.493317,51.396648,1356.36
          -0.490417,51.394787,1371.6
          -0.487061,51.392693,1386.84
          -0.484438,51.391022,1402.08
          -0.481468,51.389191,1424.94
          -0.478573,51.387405,1447.8
          -0.47554,51.385525,1470.66
          -0.471878,51.383244,1501.14
          -0.46009,51.375916,1607.82
          -0.438711,51.362595,1790.7
          -0.420301,51.351151,1889.76
          -0.39917,51.337948,1920.24
          -0.38081,51.326569,1927.86
          -0.358837,51.31279,1920.24
          -0.340353,51.301163,1958.34
          -0.318909,51.287766,2103.12
          -0.297623,51.274544,2339.34
          -0.278667,51.262711,2506.98
          -0.256042,51.24852,2727.96
          -0.233612,51.234554,2956.56
          -0.214159,51.222427,3139.44
          -0.190776,51.208282,3223.26
          -0.17601,51.201225,3261.36
          -0.170822,51.199081,3276.6
          -0.166626,51.197498,3284.22
          -0.162271,51.195923,3299.46
          -0.158081,51.194427,3314.7
          -0.152844,51.192673,3322.32
          -0.14839,51.191162,3337.56
          -0.143713,51.189606,3352.8
          -0.139408,51.188232,3360.42
          -0.134964,51.186745,3375.66
          -0.130386,51.185257,3390.9
          -0.125122,51.183533,3406.14
          -0.120775,51.182144,3413.76
          -0.085589,51.170654,3497.58
          -0.054626,51.160908,3611.88
          -0.038452,51.157059,3688.08
          -0.032068,51.155914,3718.56
          -0.026703,51.15509,3741.42
          -0.020933,51.154404,3764.28
          -0.015945,51.153927,3787.14
          -0.009308,51.153507,3817.62
          -0.003815,51.15332,3840.48
          0.001984,51.153229,3870.96
          0.008462,51.153259,3916.68
          0.013288,51.153351,3947.16
          0.018781,51.153442,3977.64
          0.02561,51.153625,4015.74
          0.030732,51.153717,4046.22
          0.037784,51.153854,4076.7
          0.043564,51.153973,4099.56
          0.049438,51.154083,4122.42
          0.055451,51.154129,4145.28
          0.061035,51.154205,4175.76
          0.066757,51.154251,4206.24
          0.073787,51.154266,4244.34
          0.162354,51.153835,4671.06
          0.254593,51.153183,5143.5
          0.346146,51.152668,5562.6
          0.440521,51.152252,5905.5
          0.535212,51.151611,6332.22
          0.633347,51.150742,6591.3
          0.732669,51.149734,6918.96
          0.832437,51.148727,7193.28
          0.934296,51.147594,7513.32
          1.038579,51.146393,7810.5
          1.146438,51.144974,8031.48
          1.254371,51.143555,8336.28
          1.369553,51.141869,8481.06
          1.483229,51.139847,8679.18
          1.595078,51.129581,8915.4
          1.709191,51.117096,9136.38
          1.823211,51.105331,9326.88
          1.93879,51.092972,9464.04
          2.055483,51.080338,9578.34
          2.173214,51.067566,9791.7
          2.29206,51.054565,9959.34
          2.412167,51.041336,10073.64
          2.531433,51.028004,10294.62
          2.649765,51.01469,10637.52
          2.765363,51.001511,10797.54
          2.878418,50.988571,10911.84
          2.995927,50.974915,11026.14
          3.111729,50.961411,11155.68
          3.227976,50.947678,11247.12
          3.345184,50.933781,11330.94
          3.461955,50.919708,11452.86
          3.579464,50.905426,11643.36
          3.695637,50.891235,11711.94
          3.810806,50.877079,11757.66
          3.929443,50.862324,11833.86
          4.046532,50.847565,11887.2
          4.163742,50.832764,11894.82
          4.281235,50.817726,11887.2
          4.398391,50.802612,11887.2
          4.515305,50.787422,11887.2
          4.633331,50.771965,11887.2
          4.749434,50.756607,11887.2
          4.868428,50.740768,11887.2
          4.985352,50.725086,11887.2
          5.105515,50.708794,11887.2
          5.221252,50.693024,11887.2
          5.336685,50.677139,11887.2
          5.452038,50.661118,11887.2
          5.566728,50.645111,11887.2
          5.681417,50.629002,11887.2
          5.797292,50.612431,11887.2
          5.910572,50.596344,11887.2
          6.025061,50.579865,11887.2
          6.139427,50.563271,11887.2
          6.254112,50.546448,11887.2
          6.370842,50.529236,11887.2
          6.481266,50.512856,11887.2
          6.593504,50.496098,11887.2
          6.707599,50.478874,11887.2
          6.823995,50.461227,11887.2
          6.937644,50.444798,11887.2
          7.054307,50.433014,11887.2
          7.170955,50.421242,11887.2
          7.287127,50.40844,11887.2
          7.402617,50.395432,11887.2
          7.519696,50.382092,11887.2
          7.63651,50.368698,11894.82
          7.753156,50.355278,11887.2
          7.870258,50.341507,11887.2
          7.985326,50.327957,11887.2
          8.100412,50.314217,11887.2
          8.217105,50.300251,11887.2
          8.331719,50.286331,11887.2
          8.449228,50.271996,11887.2
          8.564585,50.257797,11887.2
          8.68306,50.242992,11887.2
          8.799398,50.228485,11887.2
          8.917558,50.213478,11887.2
          9.033805,50.198627,11887.2
          9.150497,50.18359,11894.82
          9.267402,50.168427,11887.2
          9.385505,50.153,11887.2
          9.498765,50.138077,11887.2
          9.61467,50.122562,11894.82
          9.730175,50.107105,11887.2
          9.846645,50.091324,11887.2
          9.959626,50.075962,11887.2
          10.074166,50.060181,11887.2
          10.189225,50.044262,11887.2
          10.286673,50.024002,11887.2
          10.394032,49.996822,11887.2
          10.50358,49.970215,11887.2
          10.612432,49.943573,11887.2
          10.721988,49.916523,11887.2
          10.832375,49.889099,11887.2
          10.940527,49.862194,11887.2
          11.050295,49.834763,11887.2
          11.156839,49.807869,11887.2
          11.263659,49.780914,11887.2
          11.371572,49.753555,11887.2
          11.478906,49.726135,11887.2
          11.584433,49.699036,11887.2
          11.689602,49.671936,11887.2
          11.796786,49.644287,11887.2
          11.90042,49.617237,11887.2
          12.007017,49.589447,11887.2
          12.111313,49.562073,11887.2
          12.217613,49.534142,11887.2
          12.323697,49.505951,11887.2
          12.42626,49.477432,11887.2
          12.527377,49.442413,11887.2
          12.629724,49.407379,11887.2
          12.732098,49.372467,11887.2
          12.83485,49.337505,11887.2
          12.935205,49.303024,11887.2
          13.035208,49.268463,11887.2
          13.134226,49.234268,11894.82
          13.231514,49.200455,11887.2
          13.33097,49.165775,11887.2
          13.432476,49.130219,11887.2
          13.533133,49.094734,11887.2
          13.631359,49.060192,11894.82
          13.731572,49.024658,11887.2
          13.828679,48.990086,11887.2
          13.929941,48.954659,11887.2
          14.031936,48.921982,11879.58
          14.131516,48.889893,11887.2
          14.23156,48.856991,11887.2
          14.328777,48.82489,11887.2
          14.426739,48.792252,11887.2
          14.525334,48.75943,11887.2
          14.624352,48.726379,11887.2
          14.722041,48.693455,11887.2
          14.820627,48.660324,11887.2
          14.919152,48.626907,11887.2
          15.017082,48.593647,11887.2
          15.115308,48.560081,11887.2
          15.213463,48.52652,11887.2
          15.312758,48.492325,11887.2
          15.414311,48.457352,11887.2
          15.51378,48.422848,11887.2
          15.614741,48.387772,11887.2
          15.713774,48.353157,11887.2
          15.811711,48.318893,11887.2
          15.909215,48.284538,11894.82
          16.006575,48.250229,11887.2
          16.103281,48.215881,11887.2
          16.199991,48.181614,11887.2
          16.296316,48.147163,11887.2
          16.392906,48.112518,11887.2
          16.488281,48.078186,11887.2
          16.585131,48.043259,11887.2
          16.680063,48.008904,11887.2
          16.774925,47.974361,11887.2
          16.869919,47.939713,11887.2
          16.965363,47.904785,11887.2
          17.05957,47.870132,11887.2
          17.153915,47.835251,11887.2
          17.251694,47.80188,11887.2
          17.353188,47.773117,11887.2
          17.453018,47.744064,11887.2
          17.552856,47.714951,11887.2
          17.652845,47.6856,11887.2
          17.753357,47.656036,11887.2
          17.858757,47.624863,11887.2
          17.956467,47.595886,11887.2
          18.056946,47.56596,11887.2
          18.154978,47.536633,11887.2
          18.255192,47.506557,11887.2
          18.355133,47.476456,11887.2
          18.456327,47.445808,11887.2
          18.559685,47.414291,11887.2
          18.661476,47.383289,11887.2
          18.760916,47.352798,11887.2
          18.860504,47.322189,11887.2
          18.962402,47.290695,11887.2
          19.066772,47.258343,11887.2
          19.166142,47.227386,11887.2
          19.271667,47.194382,11887.2
          19.367661,47.164215,11887.2
          19.467979,47.132629,11887.2
          19.566994,47.101318,11887.2
          19.665939,47.069824,11887.2
          19.764267,47.038467,11887.2
          19.862869,47.006973,11887.2
          19.961403,46.97525,11887.2
          20.061104,46.943069,11887.2
          20.159843,46.911118,11887.2
          20.258577,46.878986,11887.2
          20.35693,46.846848,11887.2
          20.457298,46.813999,11887.2
          20.556692,46.781342,11887.2
          20.656307,46.748428,11887.2
          20.750633,46.717125,11887.2
          20.849648,46.684261,11887.2
          20.948112,46.651348,11887.2
          21.046646,46.618294,11887.2
          21.142385,46.586105,11887.2
          21.239594,46.553261,11887.2
          21.336067,46.520584,11887.2
          21.432987,46.487549,11887.2
          21.531595,46.453903,11887.2
          21.629066,46.420486,11887.2
          21.724056,46.387802,11887.2
          21.82213,46.353973,11887.2
          21.919579,46.320129,11887.2
          22.01619,46.286564,11887.2
          22.112999,46.252808,11887.2
          22.207832,46.219574,11887.2
          22.302782,46.186066,11887.2
          22.397371,46.15274,11887.2
          22.49243,46.119141,11887.2
          22.587547,46.085224,11887.2
          22.68148,46.051754,11887.2
          22.774246,46.018562,11887.2
          22.869827,45.984207,11887.2
          22.963417,45.950459,11887.2
          23.058628,45.916031,11887.2
          23.154959,45.881058,11887.2
          23.2481,45.847157,11887.2
          23.340454,45.813408,11887.2
          23.434181,45.778957,11887.2
          23.527624,45.744553,11887.2
          23.620203,45.710403,11887.2
          23.713303,45.675846,11887.2
          23.803957,45.642151,11887.2
          23.898422,45.606853,11887.2
          23.990591,45.572342,11887.2
          24.083927,45.537231,11887.2
          24.178564,45.501553,11887.2
          24.274357,45.465363,11887.2
          24.367807,45.429886,11887.2
          24.461395,45.394253,11887.2
          24.555449,45.358265,11887.2
          24.648363,45.322605,11887.2
          24.739576,45.287567,11887.2
          24.831179,45.252079,11887.2
          24.92412,45.21611,11887.2
          25.014889,45.180862,11887.2
          25.106373,45.145149,11887.2
          25.198124,45.109222,11887.2
          25.289547,45.073334,11887.2
          25.382341,45.03685,11887.2
          25.472521,45.001099,11887.2
          25.563711,44.964947,11887.2
          25.656895,44.927891,11887.2
          25.749876,44.890789,11887.2
          25.838732,44.855209,11887.2
          25.931284,44.817982,11887.2
          26.018568,44.782791,11887.2
          26.113129,44.744568,11887.2
          26.203665,44.70784,11887.2
          26.291395,44.672104,11887.2
          26.380463,44.635757,11887.2
          26.473127,44.597809,11887.2
          26.563437,44.56073,11887.2
          26.65571,44.522598,11887.2
          26.743736,44.486202,11887.2
          26.83625,44.447845,11887.2
          26.926687,44.410229,11887.2
          27.01767,44.372223,11887.2
          27.107492,44.334583,11887.2
          27.197191,44.296875,11887.2
          27.287292,44.258881,11887.2
          27.376034,44.22139,11887.2
          27.464031,44.18399,11887.2
          27.553392,44.146042,11887.2
          27.642191,44.108105,11887.2
          27.727268,44.071701,11887.2
          27.816233,44.033478,11887.2
          27.900545,43.997036,11887.2
          27.987862,43.959305,11887.2
          28.07428,43.921848,11887.2
          28.160658,43.884178,11887.2
          28.24942,43.845592,11887.2
          28.336477,43.807449,11887.2
          28.424496,43.768799,11887.2
          28.511089,43.730713,11887.2
          28.596281,43.692123,11887.2
          28.680246,43.65284,11887.2
          28.763187,43.614258,11887.2
          28.795265,43.599834,11887.2
          28.801186,43.596127,11887.2
          28.806387,43.594143,11887.2
          28.813223,43.591022,11887.2
          28.818804,43.58849,11887.2
          28.824747,43.58567,11887.2
          28.830212,43.583202,11887.2
          28.836271,43.580467,11887.2
          28.841364,43.578072,11887.2
          28.847488,43.575264,11887.2
          28.853605,43.572323,11887.2
          28.859455,43.569569,11887.2
          28.864769,43.567184,11887.2
          28.869972,43.564671,11887.2
          28.875746,43.561932,11887.2
          28.880733,43.559685,11887.2
          28.886999,43.556782,11887.2
          28.892382,43.554352,11887.2
          28.975563,43.515533,11887.2
          29.059067,43.476559,11887.2
          29.142601,43.437336,11887.2
          29.225906,43.398266,11887.2
          29.308647,43.359272,11887.2
          29.392027,43.319839,11887.2
          29.47444,43.280632,11887.2
          29.555883,43.241982,11887.2
          29.638956,43.202694,11887.2
          29.722904,43.162418,11887.2
          29.805389,43.122974,11887.2
          29.887554,43.08353,11887.2
          29.969898,43.043816,11887.2
          30.054075,43.003162,11887.2
          30.135155,42.963863,11887.2
          30.219187,42.923012,11887.2
          30.30298,42.882282,11887.2
          30.384148,42.842567,11887.2
          30.467886,42.803345,11887.2
          30.562553,42.768913,11887.2
          30.656157,42.743435,11887.2
          30.752846,42.724678,11887.2
          30.852554,42.712975,11887.2
          30.955025,42.7029,11887.2
          31.053946,42.691971,11887.2
          31.153698,42.681667,11887.2
          31.160397,42.680965,11887.2
          31.168507,42.680115,11887.2
          31.173655,42.679546,11887.2
          31.180679,42.678711,11887.2
          31.18648,42.677643,11887.2
          31.194994,42.677265,11887.2
          31.200954,42.676544,11887.2
          31.207735,42.675804,11887.2
          31.214369,42.675098,11887.2
          31.220789,42.674435,11887.2
          31.2288,42.673645,11887.2
          31.235167,42.672974,11887.2
          31.240816,42.672546,11887.2
          31.248508,42.6717,11887.2
          31.254555,42.671356,11887.2
          31.260836,42.670322,11887.2
          31.268105,42.669212,11887.2
          31.274654,42.66872,11887.2
          31.281517,42.667934,11887.2
          31.288162,42.667233,11887.2
          31.295149,42.66647,11887.2
          31.301971,42.665813,11887.2
          31.309788,42.664894,11887.2
          31.316837,42.664295,11887.2
          31.32243,42.663631,11887.2
          31.329,42.662922,11887.2
          31.336348,42.662189,11887.2
          31.342453,42.661488,11887.2
          31.349451,42.660736,11887.2
          31.355986,42.660103,11887.2
          31.362059,42.659451,11887.2
          31.369255,42.658806,11887.2
          31.376396,42.657959,11887.2
          31.382812,42.657207,11887.2
          31.389021,42.656559,11887.2
          31.396297,42.655483,11887.2
          31.401751,42.65403,11887.2
          31.409231,42.654308,11887.2
          31.415716,42.653687,11887.2
          31.42219,42.652832,11887.2
          31.428904,42.652317,11887.2
          31.435949,42.651623,11887.2
          31.442867,42.650814,11887.2
          31.449043,42.650051,11887.2
          31.455238,42.649368,11887.2
          31.462383,42.648605,11887.2
          31.469309,42.647896,11887.2
          31.475573,42.647141,11887.2
          31.483683,42.646843,11887.2
          31.489239,42.645836,11887.2
          31.495132,42.645035,11887.2
          31.503012,42.644112,11887.2
          31.509787,42.643547,11887.2
          31.51685,42.642849,11887.2
          31.522568,42.642208,11887.2
          31.528877,42.641514,11887.2
          31.535706,42.640793,11887.2
          31.542105,42.640381,11887.2
          31.548365,42.639423,11887.2
          31.555098,42.638592,11887.2
          31.561132,42.637943,11887.2
          31.567726,42.637302,11887.2
          31.575293,42.636517,11887.2
          31.581539,42.63578,11887.2
          31.589548,42.634949,11887.2
          31.59458,42.634323,11887.2
          31.601524,42.633526,11887.2
          31.60734,42.632961,11887.2
          31.613218,42.632343,11887.2
          31.619801,42.631664,11887.2
          31.626255,42.630878,11887.2
          31.633205,42.630146,11887.2
          31.646023,42.62854,11887.2
          31.653172,42.627964,11887.2
          31.659462,42.627167,11887.2
          31.666187,42.626549,11887.2
          31.672899,42.625759,11887.2
          31.679367,42.625256,11887.2
          31.686394,42.624294,11887.2
          31.692652,42.623596,11887.2
          31.698956,42.622803,11887.2
          31.706007,42.621967,11887.2
          31.711946,42.621422,11887.2
          31.719223,42.620522,11887.2
          31.725586,42.619934,11887.2
          31.731901,42.619278,11887.2
          31.738337,42.618553,11887.2
          31.745964,42.61776,11887.2
          31.751219,42.617126,11887.2
          31.757769,42.616386,11887.2
          31.76437,42.615639,11887.2
          31.771318,42.614799,11887.2
          31.778013,42.614166,11887.2
          31.785112,42.613392,11887.2
          31.791714,42.612713,11887.2
          31.798054,42.611916,11887.2
          31.898228,42.600651,11887.2
          31.997774,42.589466,11887.2
          32.023491,42.586712,11887.2
          32.037846,42.585083,11887.2
          32.043171,42.585308,11887.2
          32.046535,42.583004,11887.2
          32.057598,42.582466,11887.2
          32.065407,42.5816,11887.2
          32.068588,42.580215,11887.2
          32.083988,42.580097,11887.2
          32.086544,42.57869,11887.2
          32.096802,42.578209,11887.2
          32.100998,42.576832,11887.2
          32.111618,42.576683,11887.2
          32.115894,42.576244,11887.2
          32.123592,42.575531,11887.2
          32.129688,42.574703,11887.2
          32.13657,42.575615,11887.2
          32.142456,42.573517,11887.2
          32.148544,42.572491,11887.2
          32.156292,42.571716,11887.2
          32.162598,42.571007,11887.2
          32.173447,42.570496,11887.2
          32.179207,42.566811,11887.2
          32.185638,42.568447,11887.2
          32.192921,42.567516,11887.2
          32.199295,42.56686,11887.2
          32.206013,42.566193,11887.2
          32.21352,42.565331,11887.2
          32.22171,42.564274,11887.2
          32.226372,42.563759,11887.2
          32.23275,42.562943,11887.2
          32.239613,42.562099,11887.2
          32.245876,42.561413,11887.2
          32.252991,42.560646,11887.2
          32.259892,42.559856,11887.2
          32.265526,42.559185,11887.2
          32.272259,42.558437,11887.2
          32.372116,42.546684,11887.2
          32.431171,42.539742,11887.2
          32.437965,42.538872,11887.2
          32.445084,42.538044,11887.2
          32.451748,42.537247,11887.2
          32.4576,42.536549,11887.2
          32.464375,42.535744,11887.2
          32.471996,42.534855,11887.2
          32.47826,42.534145,11887.2
          32.485485,42.533283,11894.82
          32.492062,42.532478,11887.2
          32.49852,42.531769,11894.82
          32.505108,42.53109,11894.82
          32.511436,42.530396,11894.82
          32.518211,42.529686,11894.82
          32.525112,42.528969,11894.82
          32.625191,42.517036,11887.2
          32.638092,42.515301,11887.2
          32.644791,42.514503,11887.2
          32.65276,42.513611,11887.2
          32.660126,42.512814,11887.2
          32.666485,42.512173,11887.2
          32.672657,42.511341,11887.2
          32.680771,42.510117,11887.2
          32.686268,42.509731,11887.2
          32.693443,42.508972,11887.2
          32.699768,42.508194,11887.2
          32.706573,42.507332,11887.2
          32.712166,42.506702,11887.2
          32.7225,42.505455,11887.2
          32.731476,42.504257,11887.2
          32.735374,42.503857,11887.2
          32.742733,42.503101,11887.2
          32.749413,42.502304,11887.2
          32.756012,42.501408,11887.2
          32.762589,42.500591,11887.2
          32.768925,42.499828,11887.2
          32.776161,42.498959,11887.2
          32.782784,42.498238,11887.2
          32.789242,42.497478,11887.2
          32.796539,42.496586,11887.2
          32.802769,42.495811,11887.2
          32.808418,42.495239,11887.2
          32.814926,42.494396,11887.2
          32.82156,42.493687,11887.2
          32.922554,42.481461,11887.2
          33.016628,42.469864,11887.2
          33.023167,42.469212,11887.2
          33.03072,42.468239,11887.2
          33.036949,42.467358,11887.2
          33.0439,42.466389,11887.2
          33.050812,42.465591,11887.2
          33.057003,42.464745,11887.2
          33.064579,42.463814,11887.2
          33.070927,42.463104,11887.2
          33.077522,42.462292,11887.2
          33.085102,42.46162,11887.2
          33.090591,42.460846,11887.2
          33.098869,42.459732,11887.2
          33.105751,42.458965,11887.2
          33.204784,42.446915,11887.2
          33.305672,42.434364,11887.2
          33.406292,42.421654,11887.2
          33.507832,42.408882,11887.2
          33.609673,42.395805,11887.2
          33.711746,42.383026,11887.2
          33.814003,42.369709,11887.2
          33.916775,42.355877,11887.2
          34.017242,42.339947,11887.2
          34.11768,42.318192,11887.2
          34.218414,42.296947,11887.2
          34.317402,42.276321,11887.2
          34.419014,42.25547,11887.2
          34.519836,42.234291,11887.2
          34.61932,42.213783,11887.2
          34.675686,42.201866,11887.2
          34.682194,42.200481,11887.2
          34.68903,42.199272,11887.2
          34.695133,42.197842,11887.2
          34.701241,42.196655,11887.2
          34.70853,42.195309,11887.2
          34.714703,42.193943,11887.2
          34.721111,42.192455,11887.2
          34.728077,42.190948,11887.2
          34.733997,42.189697,11887.2
          34.740707,42.188259,11887.2
          34.747231,42.187054,11887.2
          34.753994,42.185738,11887.2
          34.761505,42.184185,11887.2
          34.860317,42.163132,11887.2
          34.960373,42.142071,11887.2
          35.061852,42.120487,11887.2
          35.161907,42.098362,11887.2
          35.260639,42.078041,11887.2
          35.348431,42.058495,11887.2
          35.354809,42.056984,11887.2
          35.361401,42.05595,11887.2
          35.369312,42.054836,11887.2
          35.375778,42.053329,11887.2
          35.381943,42.051796,11887.2
          35.388908,42.050167,11887.2
          35.395168,42.048958,11887.2
          35.403854,42.04689,11887.2
          35.408562,42.045856,11887.2
          35.416199,42.04406,11894.82
          35.423218,42.042408,11894.82
          35.428776,42.041573,11894.82
          35.434822,42.040474,11887.2
          35.442604,42.039387,11887.2
          35.448864,42.037987,11887.2
          35.455833,42.036388,11887.2
          35.461769,42.035076,11887.2
          35.468307,42.033611,11887.2
          35.474693,42.032242,11887.2
          35.481674,42.030701,11887.2
          35.488495,42.029255,11894.82
          35.494354,42.027107,11887.2
          35.501751,42.026104,11887.2
          35.508541,42.024059,11887.2
          35.515347,42.023251,11887.2
          35.522587,42.021538,11887.2
          35.528698,42.02039,11887.2
          35.535419,42.018929,11887.2
          35.542305,42.01757,11887.2
          35.548943,42.016098,11887.2
          35.555408,42.014599,11887.2
          35.562199,42.013081,11887.2
          35.56868,42.011837,11887.2
          35.575878,42.010235,11887.2
          35.582863,42.008751,11887.2
          35.589375,42.007298,11887.2
          35.595829,42.005848,11887.2
          35.602627,42.004402,11887.2
          35.648991,41.993752,11887.2
          35.656166,41.992275,11887.2
          35.663273,41.990475,11887.2
          35.669422,41.989132,11887.2
          35.675415,41.987892,11894.82
          35.68177,41.986488,11894.82
          35.689003,41.984993,11887.2
          35.695904,41.983528,11894.82
          35.702522,41.981964,11887.2
          35.709801,41.980404,11887.2
          35.716362,41.979115,11887.2
          35.723843,41.977768,11887.2
          35.730061,41.976494,11887.2
          35.736954,41.97504,11887.2
          35.743023,41.973721,11894.82
          35.842957,41.951694,11894.82
          35.943958,41.929375,11887.2
          35.957222,41.926445,11887.2
          35.996876,41.917473,11887.2
          36.003792,41.91608,11887.2
          36.011036,41.914345,11887.2
          36.017593,41.912712,11887.2
          36.071815,41.900803,11887.2
          36.171909,41.878342,11887.2
          36.274632,41.855251,11887.2
          36.374218,41.832275,11887.2
          36.475937,41.80917,11894.82
          36.575836,41.786266,11887.2
          36.676228,41.763145,11887.2
          36.776146,41.740288,11887.2
          36.878117,41.716877,11887.2
          36.978233,41.693649,11887.2
          37.077713,41.670731,11887.2
          37.176392,41.647377,11894.82
          37.27494,41.62421,11887.2
          37.372837,41.600983,11879.58
          37.431309,41.587307,11887.2
          37.436626,41.586006,11887.2
          37.443607,41.584465,11894.82
          37.45089,41.582764,11887.2
          37.456909,41.581253,11887.2
          37.463104,41.579823,11887.2
          37.469559,41.578228,11887.2
          37.475933,41.576683,11887.2
          37.482342,41.575191,11887.2
          37.489037,41.573574,11887.2
          37.495766,41.571983,11887.2
          37.502148,41.570549,11887.2
          37.508614,41.569019,11887.2
          37.607677,41.545498,11887.2
          37.706028,41.521896,11887.2
          37.801193,41.499081,11894.82
          37.900295,41.475056,11887.2
          38.000099,41.450928,11879.58
          38.099621,41.426586,11894.82
          38.199162,41.40189,11887.2
          38.299469,41.376827,11887.2
          38.402039,41.351467,11894.82
          38.500084,41.327286,11879.58
          38.600739,41.302639,11894.82
          38.701614,41.277443,11887.2
          38.803944,41.251785,11887.2
          38.904903,41.226418,11887.2
          39.005539,41.200916,11887.2
          39.104561,41.175766,11887.2
          39.203144,41.149952,11894.82
          39.30344,41.124165,11887.2
          39.403511,41.098503,11887.2
          39.504265,41.072323,11887.2
          39.603558,41.046288,11887.2
          39.69857,41.02264,11887.2
          39.803322,41.004456,11894.82
          39.9081,40.99369,11887.2
          40.016445,40.990173,11887.2
          40.12281,40.987251,11887.2
          40.2286,40.984287,11887.2
          40.332245,40.981449,11887.2
          40.439365,40.978424,11887.2
          40.545345,40.975292,11894.82
          40.652206,40.972012,11887.2
          40.759632,40.968727,11879.58
          40.867588,40.96524,11887.2
          40.974232,40.961739,11894.82
          41.075558,40.958279,11887.2
          41.182655,40.954575,11894.82
          41.288853,40.950977,11887.2
          41.394863,40.947102,11887.2
          41.4981,40.943188,11887.2
          41.603188,40.939087,11887.2
          41.708405,40.934994,11887.2
          41.815151,40.93079,11894.82
          41.916138,40.926521,11879.58
          42.026173,40.922203,11887.2
          42.132843,40.917706,11894.82
          42.238243,40.913067,11887.2
          42.342785,40.908455,11887.2
          42.448437,40.903667,11894.82
          42.551792,40.898693,11894.82
          42.65472,40.893764,11887.2
          42.758606,40.888927,11887.2
          42.861179,40.883789,11887.2
          42.964848,40.87862,11887.2
          42.985149,40.877617,11887.2
          43.00861,40.8764,11887.2
          43.24556,40.863972,11887.2
          43.344185,40.858665,11887.2
          43.447495,40.853035,11887.2
          43.549805,40.847446,11887.2
          43.653442,40.841537,11887.2
          43.753613,40.836369,11894.82
          43.855957,40.833664,11887.2
          43.958496,40.830872,11887.2
          44.061356,40.827335,11887.2
          44.162918,40.823845,11894.82
          44.26585,40.820122,11887.2
          44.36866,40.816349,11887.2
          44.471283,40.812439,11894.82
          44.57534,40.808483,11887.2
          44.676941,40.804459,11887.2
          44.779846,40.800247,11887.2
          44.881409,40.796036,11887.2
          44.984741,40.791641,11887.2
          45.08527,40.7873,11887.2
          45.186401,40.782852,11887.2
          45.28717,40.77832,11887.2
          45.386955,40.773754,11887.2
          45.487766,40.770309,11887.2
          45.587952,40.768158,11887.2
          45.687439,40.765823,11887.2
          45.787643,40.763187,11887.2
          45.88752,40.760441,11887.2
          45.988281,40.757538,11887.2
          46.089722,40.754608,11887.2
          46.192383,40.751495,11887.2
          46.29364,40.748383,11887.2
          46.395569,40.745132,11887.2
          46.49514,40.741867,11887.2
          46.596985,40.738403,11887.2
          46.698574,40.734882,11887.2
          46.799885,40.731392,11887.2
          46.902382,40.727623,11887.2
          47.004192,40.723804,11887.2
          47.10463,40.720036,11887.2
          47.205017,40.716064,11887.2
          47.307983,40.711945,11887.2
          47.410686,40.707882,11887.2
          47.51416,40.703568,11887.2
          47.615746,40.699226,11887.2
          47.716869,40.694756,11887.2
          47.820553,40.690193,11887.2
          47.922424,40.685631,11887.2
          48.026173,40.680836,11887.2
          48.128174,40.676056,11887.2
          48.229919,40.671154,11887.2
          48.331104,40.666218,11887.2
          48.431728,40.66119,11887.2
          48.533813,40.656097,11887.2
          48.635559,40.650879,11887.2
          48.737038,40.64555,11887.2
          48.839172,40.64003,11887.2
          48.941528,40.634583,11887.2
          49.044067,40.628998,11887.2
          49.1469,40.623253,11887.2
          49.249401,40.617386,11894.82
          49.351013,40.611465,11887.2
          49.452709,40.60556,11887.2
          49.555115,40.599426,11887.2
          49.657455,40.593273,11887.2
          49.759827,40.587021,11887.2
          49.861511,40.580658,11887.2
          49.966381,40.574093,11887.2
          50.065308,40.567749,11887.2
          50.168133,40.561058,11887.2
          50.270996,40.554337,11887.2
          50.376404,40.547333,11887.2
          50.479618,40.54034,11887.2
          50.582397,40.533279,11887.2
          50.687256,40.526001,11887.2
          50.789608,40.518787,11887.2
          50.894291,40.511341,11887.2
          50.991455,40.504349,11887.2
          51.094791,40.496815,11887.2
          51.196533,40.489334,11887.2
          51.296913,40.481781,11887.2
          51.398163,40.474144,11887.2
          51.503601,40.464432,11887.2
          51.604282,40.447189,11887.2
          51.703247,40.428864,11887.2
          51.803471,40.410648,11887.2
          51.903782,40.39212,11887.2
          52.003597,40.373592,11887.2
          52.099667,40.355621,11887.2
          52.201412,40.336491,11887.2
          52.302429,40.317398,11887.2
          52.403225,40.298271,11887.2
          52.503052,40.279266,11887.2
          52.602478,40.260189,11887.2
          52.701855,40.241104,11887.2
          52.798218,40.222504,11887.2
          52.895489,40.203629,11887.2
          52.994175,40.184452,11887.2
          53.092304,40.165176,11887.2
          53.186829,40.146606,11887.2
          53.279724,40.128296,11887.2
          53.376701,40.108944,11887.2
          53.474331,40.089436,11887.2
          53.57233,40.069885,11887.2
          53.665588,40.051025,11887.2
          53.756714,40.032578,11894.82
          53.848145,40.013992,11887.2
          53.938477,39.995636,11887.2
          54.032135,39.976315,11887.2
          54.122986,39.957642,11887.2
          54.212284,39.939213,11887.2
          54.306973,39.919418,11887.2
          54.395142,39.901039,11887.2
          54.492485,39.880646,11887.2
          54.583481,39.861328,11887.2
          54.676865,39.841461,11887.2
          54.770874,39.821297,11887.2
          54.859573,39.802277,11887.2
          54.949493,39.783188,11887.2
          55.038635,39.763992,11887.2
          55.129089,39.744438,11887.2
          55.223267,39.724049,11887.2
          55.317261,39.703568,11887.2
          55.404053,39.684574,11887.2
          55.492798,39.664974,11887.2
          55.583893,39.644897,11887.2
          55.676025,39.624428,11887.2
          55.769348,39.603523,11887.2
          55.858372,39.583603,11887.2
          55.951817,39.562592,11887.2
          55.973999,39.557579,11887.2
          56.142525,39.519974,11887.2
          56.23291,39.499573,11894.82
          56.321228,39.479649,11887.2
          56.410156,39.459354,11887.2
          56.499165,39.439041,11887.2
          56.590458,39.418213,11887.2
          56.616272,39.412289,11887.2
          56.852158,39.357651,11887.2
          56.936405,39.33577,11887.2
          57.023376,39.312759,11887.2
          57.143372,39.281803,11887.2
          57.228577,39.25983,11887.2
          57.333645,39.232452,11887.2
          57.422016,39.209381,11887.2
          57.511536,39.185905,11887.2
          57.597534,39.16328,11887.2
          57.685745,39.14003,11887.2
          57.775249,39.116409,11887.2
          57.862183,39.09322,11887.2
          57.950672,39.069626,11894.82
          58.038742,39.046051,11887.2
          58.126156,39.022522,11887.2
          58.216614,38.998207,11887.2
          58.303101,38.974884,11887.2
          58.388454,38.951706,11887.2
          58.476879,38.927536,11887.2
          58.569191,38.902359,11887.2
          58.660767,38.873772,11887.2
          58.747437,38.839184,11887.2
          58.831726,38.806229,11887.2
          58.915318,38.773499,11887.2
          58.995422,38.74189,11894.82
          59.084412,38.706791,11887.2
          59.166443,38.674202,11887.2
          59.254517,38.639149,11887.2
          59.335903,38.606781,11887.2
          59.425781,38.571369,11887.2
          59.513893,38.539398,11887.2
          59.598801,38.508362,11887.2
          59.688538,38.474911,11887.2
          59.775597,38.442352,11887.2
          59.864151,38.40921,11887.2
          59.947975,38.377571,11887.2
          60.03175,38.345993,11887.2
          60.119995,38.31263,11887.2
          60.208878,38.278885,11887.2
          60.297176,38.245331,11887.2
          60.38039,38.213608,11887.2
          60.463856,38.181587,11887.2
          60.546532,38.149841,11887.2
          60.629963,38.117809,11887.2
          60.710976,38.086487,11887.2
          60.796131,38.05357,11887.2
          60.878342,38.021667,11887.2
          60.964714,37.988113,11887.2
          61.052956,37.95369,11887.2
          61.13599,37.921127,11887.2
          61.220299,37.888168,11887.2
          61.30431,37.855068,11887.2
          61.390785,37.82103,11887.2
          61.47657,37.787064,11887.2
          61.559612,37.754196,11887.2
          61.646259,37.71965,11887.2
          61.726147,37.687855,11887.2
          61.806335,37.655827,11887.2
          61.891071,37.619476,11887.2
          61.966591,37.57785,11887.2
          62.037342,37.53566,11887.2
          62.113369,37.49144,11887.2
          62.184895,37.449371,11887.2
          62.258995,37.405472,11887.2
          62.331829,37.362595,11887.2
          62.402111,37.320694,11887.2
          62.473217,37.278427,11887.2
          62.546219,37.234955,11887.2
          62.617744,37.192291,11887.2
          62.692169,37.147663,11887.2
          62.76355,37.104767,11887.2
          62.839283,37.059311,11887.2
          62.913265,37.014633,11887.2
          62.985497,36.971146,11887.2
          63.055973,36.928528,11887.2
          63.126366,36.885712,11887.2
          63.200607,36.840694,11887.2
          63.273582,36.796234,11887.2
          63.343838,36.753319,11887.2
          63.414116,36.710312,11887.2
          63.486485,36.665985,11887.2
          63.558128,36.621902,11887.2
          63.631351,36.576931,11887.2
          63.703171,36.532612,11894.82
          63.773472,36.489132,11887.2
          63.844185,36.445312,11887.2
          63.916939,36.400127,11887.2
          63.990513,36.354317,11887.2
          64.063385,36.308975,11887.2
          64.133263,36.26532,11887.2
          64.208794,36.218033,11887.2
          64.279114,36.173859,11887.2
          64.352531,36.128677,11887.2
          64.424644,36.086689,11887.2
          64.496445,36.044403,11887.2
          64.568169,36.001732,11887.2
          64.640923,35.95816,11887.2
          64.71376,35.914581,11887.2
          64.785149,35.871758,11887.2
          64.857086,35.82851,11887.2
          64.926979,35.786335,11887.2
          64.997978,35.743469,11887.2
          65.071732,35.698864,11887.2
          65.14492,35.654526,11887.2
          65.217819,35.610168,11887.2
          65.289978,35.566223,11887.2
          65.360237,35.523315,11887.2
          65.431122,35.480068,11887.2
          65.504608,35.435074,11887.2
          65.574303,35.392273,11887.2
          65.645943,35.348186,11887.2
          65.716385,35.304794,11887.2
          65.789223,35.259842,11887.2
          65.858749,35.209877,11887.2
          65.862419,35.206512,11887.2
          65.86702,35.202301,11887.2
          65.870941,35.198639,11887.2
          65.874695,35.195206,11887.2
          65.934502,35.141281,11887.2
          65.997681,35.090519,11887.2
          66.068192,35.044785,11887.2
          66.137695,35.001789,11887.2
          66.211052,34.955517,11887.2
          66.280632,34.911713,11887.2
          66.350525,34.867218,11887.2
          66.4216,34.821899,11887.2
          66.491615,34.777359,11887.2
          66.560165,34.733414,11887.2
          66.630707,34.688354,11894.82
          66.698059,34.645199,11887.2
          66.739883,34.618385,11887.2
          66.813751,34.570717,11887.2
          67.011391,34.443146,11887.2
          67.058029,34.412811,11887.2
          67.167442,34.341705,11887.2
          67.245125,34.291031,11894.82
          67.32016,34.242104,11887.2
          67.393341,34.194157,11887.2
          67.465363,34.146835,11887.2
          67.538567,34.098724,11887.2
          67.608093,34.052963,11887.2
          67.680298,34.005341,11887.2
          67.751022,33.958462,11887.2
          67.820679,33.912094,11887.2
          67.890182,33.86499,11887.2
          67.962158,33.81633,11887.2
          68.032333,33.76886,11887.2
          68.102791,33.721115,11887.2
          68.172623,33.673748,11887.2
          68.242378,33.626171,11887.2
          68.316017,33.57605,11887.2
          68.382889,33.530319,11887.2
          68.453117,33.481659,11887.2
          68.523186,33.431164,11887.2
          68.592186,33.381634,11887.2
          68.661034,33.332336,11887.2
          68.727837,33.284523,11887.2
          68.79364,33.238297,11887.2
          68.863403,33.194092,11894.82
          68.933716,33.148731,11887.2
          69.003098,33.103821,11887.2
          69.070992,33.05991,11887.2
          69.14257,33.013496,11887.2
          69.229614,32.959637,11887.2
          69.305962,32.922672,11894.82
          69.406181,32.878098,11887.2
          69.491722,32.828453,11887.2
          69.57933,32.770077,11887.2
          69.657745,32.718822,11887.2
          69.728935,32.671848,11887.2
          69.801636,32.623718,11887.2
          69.868431,32.579407,11887.2
          69.942383,32.530331,11887.2
          70.014,32.482635,11887.2
          70.081238,32.43782,11887.2
          70.149628,32.392136,11887.2
          70.217415,32.346909,11887.2
          70.289742,32.300362,11887.2
          70.360649,32.254929,11887.2
          70.43,32.209991,11887.2
          70.500389,32.1642,11887.2
          70.569275,32.11932,11887.2
          70.638557,32.074165,11887.2
          70.709549,32.027756,11887.2
          70.782112,31.980194,11887.2
          70.847801,31.937302,11887.2
          70.925102,31.894754,11887.2
          71.005081,31.858978,11887.2
          71.086304,31.822458,11887.2
          71.162292,31.787888,11887.2
          71.243423,31.751234,11887.2
          71.321251,31.716019,11887.2
          71.402733,31.679077,11887.2
          71.479149,31.644333,11887.2
          71.561386,31.606842,11887.2
          71.6408,31.570517,11887.2
          71.722542,31.533089,11887.2
          71.805267,31.495102,11887.2
          71.888283,31.456924,11887.2
          71.971161,31.418663,11887.2
          72.054047,31.381393,11887.2
          72.141342,31.350279,11887.2
          72.228592,31.32692,11887.2
          72.322174,31.309267,11887.2
          72.421982,31.298721,11887.2
          72.520584,31.296556,11887.2
          72.620949,31.302656,11887.2
          72.722221,31.314285,11894.82
          72.820023,31.324722,11887.2
          72.914505,31.334824,11887.2
          73.015945,31.345825,11887.2
          73.106529,31.355621,11772.9
          73.204704,31.366199,11620.5
          73.294052,31.375488,11468.1
          73.38752,31.385471,11300.46
          73.478813,31.395016,11277.6
          73.567146,31.404144,11277.6
          73.658386,31.413589,11277.6
          73.747185,31.422729,11277.6
          73.840485,31.432163,11285.22
          73.932846,31.439339,11277.6
          74.024139,31.43792,11277.6
          74.029617,31.437567,11277.6
          74.035507,31.437195,11277.6
          74.042046,31.436903,11277.6
          74.048286,31.436327,11277.6
          74.055695,31.43578,11277.6
          74.06144,31.43524,11277.6
          74.06842,31.434681,11277.6
          74.074135,31.434225,11277.6
          74.081802,31.433254,11277.6
          74.090782,31.435297,11277.6
          74.094185,31.431664,11277.6
          74.099487,31.431133,11277.6
          74.190819,31.417021,11277.6
          74.28418,31.398836,11277.6
          74.374481,31.378197,11277.6
          74.461311,31.349926,11277.6
          74.544449,31.31394,11277.6
          74.616867,31.27466,11277.6
          74.690025,31.226183,11277.6
          74.753433,31.175707,11277.6
          74.814133,31.119823,11277.6
          74.876724,31.062889,11277.6
          74.934303,31.010262,11277.6
          74.995071,30.954493,11277.6
          75.058563,30.89938,11277.6
          75.063446,30.896162,11277.6
          75.067574,30.893568,11277.6
          75.073364,30.890213,11285.22
          75.078773,30.887091,11277.6
          75.085037,30.883757,11285.22
          75.089996,30.881355,11277.6
          75.095924,30.878582,11277.6
          75.10141,30.876093,11277.6
          75.10717,30.873795,11277.6
          75.113571,30.871258,11285.22
          75.120064,30.868902,11285.22
          75.125992,30.866962,11277.6
          75.132118,30.864975,11277.6
          75.138496,30.863253,11277.6
          75.144196,30.861692,11277.6
          75.149933,30.860344,11277.6
          75.155724,30.859013,11277.6
          75.161995,30.857622,11277.6
          75.167664,30.856455,11277.6
          75.174889,30.855019,11285.22
          75.180679,30.853827,11277.6
          75.187111,30.852661,11285.22
          75.194237,30.851215,11285.22
          75.199913,30.850105,11277.6
          75.294518,30.831688,11285.22
          75.388718,30.813433,11178.54
          75.473984,30.797029,10980.42
          75.564812,30.778736,10645.14
          75.648605,30.760311,10408.92
          75.736099,30.74122,10126.98
          75.822952,30.722094,9951.72
          75.903419,30.703171,9700.26
          75.986229,30.683786,9403.08
          76.064857,30.665485,9128.76
          76.145416,30.645861,8938.26
          76.219017,30.628317,8595.36
          76.297356,30.610407,8336.28
          76.370773,30.592838,8046.72
          76.448616,30.574142,7719.06
          76.49482,30.560537,7650.48
          76.498749,30.558634,7642.86
          76.502922,30.556549,7627.62
          76.507866,30.55386,7620
          76.512428,30.551132,7604.76
          76.515991,30.548662,7597.14
          76.520279,30.54557,7581.9
          76.523666,30.542862,7581.9
          76.527359,30.539766,7566.66
          76.530945,30.53665,7559.04
          76.534142,30.533411,7543.8
          76.537186,30.529877,7536.18
          76.539772,30.52673,7520.94
          76.542664,30.523001,7513.32
          76.544937,30.519619,7505.7
          76.547142,30.516222,7490.46
          76.549095,30.512718,7475.22
          76.551132,30.508612,7459.98
          76.553177,30.504265,7437.12
          76.554527,30.500698,7414.26
          76.555779,30.496973,7399.02
          76.55674,30.493425,7368.54
          76.557663,30.489204,7345.68
          76.558311,30.485798,7322.82
          76.559006,30.481449,7307.58
          76.559357,30.477993,7284.72
          76.5597,30.474375,7261.86
          76.560059,30.470171,7239
          76.560326,30.465727,7216.14
          76.560593,30.462267,7193.28
          76.560669,30.458715,7162.8
          76.560913,30.454704,7139.94
          76.561279,30.450335,7109.46
          76.56163,30.445761,7086.6
          76.561829,30.441742,7071.36
          76.565193,30.383066,7010.4
          76.568611,30.326065,6995.16
          76.572609,30.270926,6789.42
          76.577003,30.21417,6477
          76.581429,30.155672,6393.18
          76.585732,30.101341,6195.06
          76.589256,30.04524,6004.56
          76.591499,29.991159,5814.06
          76.593552,29.938906,5791.2
          76.595734,29.887009,5791.2
          76.598099,29.837929,5791.2
          76.60067,29.787312,5791.2
          76.603096,29.739199,5791.2
          76.606178,29.715147,5791.2
          76.607285,29.711924,5791.2
          76.608589,29.708403,5791.2
          76.610275,29.704685,5791.2
          76.611778,29.701674,5791.2
          76.613464,29.69879,5791.2
          76.615257,29.695927,5791.2
          76.617256,29.692801,5791.2
          76.619614,29.689316,5791.2
          76.621758,29.686237,5791.2
          76.623741,29.683352,5791.2
          76.626205,29.679834,5791.2
          76.628716,29.676239,5791.2
          76.630676,29.673347,5791.2
          76.632713,29.670462,5791.2
          76.634781,29.667532,5791.2
          76.66713,29.621082,5692.14
          76.695908,29.5795,5554.98
          76.726006,29.536285,5440.68
          76.755821,29.492495,5242.56
          76.783783,29.451044,5181.6
          76.810959,29.409645,5143.5
          76.838013,29.368788,5044.44
          76.865181,29.330015,4861.56
          76.896942,29.29283,4686.3
          76.929344,29.254457,4503.42
          76.959496,29.219507,4381.5
          76.989746,29.183542,4191
          77.020569,29.146894,4015.74
          77.051216,29.110851,3840.48
          77.08197,29.074953,3672.84
          77.110161,29.038599,3512.82
          77.123032,29.024826,3467.1
          77.134399,29.011593,3398.52
          77.146034,28.997681,3322.32
          77.157272,28.984356,3261.36
          77.169174,28.970213,3208.02
          77.182251,28.954775,3139.44
          77.193878,28.941032,3078.48
          77.206589,28.925468,3017.52
          77.217415,28.912558,2979.42
          77.2286,28.899809,2964.18
          77.239433,28.886602,2941.32
          77.249954,28.874193,2918.46
          77.261742,28.859941,2895.6
          77.273544,28.843168,2872.74
          77.283012,28.833151,2834.64
          77.288322,28.827919,2811.78
          77.290527,28.826059,2804.16
          77.292549,28.824657,2796.54
          77.294502,28.823025,2788.92
          77.296646,28.821806,2781.3
          77.299408,28.82011,2773.68
          77.301735,28.819157,2766.06
          77.304146,28.81798,2758.44
          77.306442,28.817127,2750.82
          77.309509,28.816048,2750.82
          77.312332,28.815458,2750.82
          77.314865,28.814772,2750.82
          77.317902,28.814478,2750.82
          77.320557,28.81432,2743.2
          77.323456,28.813801,2743.2
          77.326035,28.814198,2743.2
          77.329048,28.813683,2743.2
          77.331818,28.813503,2743.2
          77.334488,28.812954,2743.2
          77.337402,28.812393,2743.2
          77.340118,28.812183,2743.2
          77.342476,28.811741,2743.2
          77.362579,28.809256,2743.2
          77.379562,28.80674,2743.2
          77.396172,28.803772,2743.2
          77.415726,28.801304,2743.2
          77.432472,28.798401,2743.2
          77.448914,28.795979,2743.2
          77.46637,28.793114,2743.2
          77.484932,28.79006,2743.2
          77.504143,28.787344,2743.2
          77.520813,28.78433,2743.2
          77.537468,28.781578,2743.2
          77.553894,28.778324,2743.2
          77.55661,28.777864,2743.2
          77.559158,28.777334,2743.2
          77.562004,28.776852,2743.2
          77.564621,28.775766,2743.2
          77.56694,28.774912,2743.2
          77.56955,28.774029,2743.2
          77.571877,28.772673,2743.2
          77.573502,28.771183,2743.2
          77.575066,28.767756,2743.2
          77.576988,28.76659,2743.2
          77.578728,28.76491,2743.2
          77.580101,28.762611,2743.2
          77.581421,28.760443,2743.2
          77.583588,28.758539,2743.2
          77.585205,28.756601,2743.2
          77.587021,28.754416,2743.2
          77.58857,28.752426,2743.2
          77.590324,28.749687,2743.2
          77.592613,28.748127,2743.2
          77.594643,28.741825,2743.2
          77.597084,28.740639,2743.2
          77.599327,28.739752,2743.2
          77.602425,28.738667,2743.2
          77.604309,28.737902,2743.2
          77.606941,28.736864,2743.2
          77.609917,28.73571,2743.2
          77.61322,28.736189,2743.2
          77.616127,28.736122,2743.2
          77.619057,28.735964,2743.2
          77.622124,28.735834,2743.2
          77.62484,28.735794,2743.2
          77.627594,28.735722,2743.2
          77.630196,28.735685,2743.2
          77.63298,28.735632,2743.2
          77.635857,28.735521,2743.2
          77.639145,28.735304,2743.2
          77.641647,28.735006,2743.2
          77.644714,28.734526,2743.2
          77.647484,28.733885,2743.2
          77.650131,28.733091,2743.2
          77.652603,28.732031,2743.2
          77.655212,28.73077,2743.2
          77.657646,28.729836,2743.2
          77.660721,28.728779,2743.2
          77.661621,28.725706,2743.2
          77.663467,28.724075,2743.2
          77.665367,28.722418,2743.2
          77.667358,28.720844,2743.2
          77.669418,28.71904,2743.2
          77.669907,28.716003,2743.2
          77.671524,28.713879,2743.2
          77.672722,28.712093,2743.2
          77.673569,28.710716,2743.2
          77.674561,28.708866,2743.2
          77.673485,28.702696,2743.2
          77.673782,28.700554,2743.2
          77.674019,28.698168,2743.2
          77.674316,28.69593,2743.2
          77.674644,28.693779,2743.2
          77.674988,28.691639,2743.2
          77.674866,28.689173,2743.2
          77.674942,28.686432,2735.58
          77.675011,28.684103,2735.58
          77.675171,28.681742,2735.58
          77.67543,28.679211,2735.58
          77.679214,28.667084,2682.24
          77.681068,28.651728,2613.66
          77.682121,28.636372,2567.94
          77.679535,28.613768,2506.98
          77.679565,28.602037,2453.64
          77.679321,28.600271,2446.02
          77.678757,28.598276,2438.4
          77.677567,28.595753,2423.16
          77.67675,28.594402,2407.92
          77.672264,28.58852,2385.06
          77.670273,28.586658,2369.82
          77.668709,28.585402,2362.2
          77.667038,28.58419,2354.58
          77.665154,28.582901,2339.34
          77.662895,28.581444,2331.72
          77.660873,28.580292,2316.48
          77.658745,28.579117,2308.86
          77.656647,28.578093,2301.24
          77.654533,28.577133,2286
          77.652496,28.576324,2278.38
          77.650314,28.575531,2270.76
          77.647881,28.574753,2263.14
          77.645241,28.573975,2247.9
          77.643181,28.573439,2240.28
          77.64119,28.572926,2232.66
          77.639038,28.572367,2217.42
          77.636208,28.571686,2209.8
          77.634415,28.571228,2202.18
          77.631721,28.570587,2194.56
          77.630096,28.570179,2186.94
          77.62751,28.569574,2171.7
          77.624748,28.568893,2164.08
          77.622368,28.568344,2156.46
          77.606842,28.564682,2103.12
          77.593147,28.561428,2049.78
          77.579056,28.558273,2026.92
          77.564323,28.555023,2011.68
          77.549217,28.551819,1889.76
          77.534882,28.548811,1798.32
          77.519798,28.545685,1760.22
          77.506592,28.542984,1722.12
          77.492607,28.540199,1661.16
          77.476059,28.536942,1623.06
          77.462219,28.534195,1592.58
          77.445953,28.531174,1539.24
          77.42942,28.52829,1493.52
          77.422295,28.527054,1478.28
          77.415215,28.525864,1455.42
          77.406273,28.524372,1440.18
          77.398842,28.523161,1417.32
          77.389595,28.521561,1402.08
          77.382782,28.520325,1386.84
          77.373749,28.518723,1356.36
          77.36657,28.517487,1341.12
          77.357216,28.515884,1318.26
          77.350937,28.514786,1303.02
          77.348488,28.51441,1303.02
          77.34613,28.514008,1295.4
          77.343964,28.513618,1287.78
          77.341743,28.513275,1287.78
          77.339577,28.512909,1280.16
          77.337021,28.512455,1272.54
          77.327866,28.510872,1249.68
          77.320969,28.509708,1226.82
          77.312782,28.508404,1211.58
          77.304169,28.507008,1188.72
          77.296196,28.505796,1165.86
          77.292267,28.505424,1165.86
          77.290298,28.505356,1158.24
          77.288292,28.505356,1158.24
          77.286285,28.505402,1150.62
          77.28392,28.505518,1150.62
          77.282249,28.505657,1150.62
          77.279839,28.505905,1143
          77.277992,28.506123,1143
          77.275681,28.506449,1135.38
          77.273468,28.506775,1135.38
          77.27137,28.507101,1127.76
          77.269485,28.507416,1127.76
          77.267006,28.507799,1127.76
          77.265152,28.508148,1120.14
          77.263184,28.508497,1120.14
          77.260773,28.508926,1112.52
          77.258926,28.509293,1112.52
          77.256775,28.509661,1104.9
          77.254906,28.510025,1097.28
          77.252953,28.510437,1089.66
          77.244446,28.512175,1051.56
          77.238464,28.513479,1021.08
          77.22998,28.515335,975.36
          77.224518,28.51655,944.88
          77.222412,28.517015,937.26
          77.21656,28.518265,906.78
          77.208954,28.519913,868.68
          77.201843,28.521439,830.58
          77.196564,28.522556,807.72
          77.189468,28.524078,769.62
          77.184181,28.525209,739.14
          77.177124,28.526699,708.66
          77.171669,28.527878,678.18
          77.166328,28.529068,647.7
          77.16124,28.530144,624.84
          77.155243,28.531448,594.36
          77.149269,28.53273,563.88
          77.143196,28.534008,533.4
          77.13855,28.535019,510.54
          77.132736,28.536301,487.68
          77.126717,28.537546,457.2
          77.120575,28.538897,426.72
          77.114601,28.540199,396.24
          77.108597,28.541428,365.76
          77.102966,28.542667,335.28
          77.098351,28.543671,320.04
          77.092575,28.544901,312.42
          77.089111,28.545639,312.42
          77.085747,28.546356,0
          77.08329,28.546875,0
          77.081825,28.547194,0
          77.081284,28.547367,0
          77.081032,28.547462,0
          77.080788,28.547573,0
          77.080498,28.547729,0
          77.080116,28.547951,0
          77.079865,28.548136,0
          77.079514,28.548405,0
          77.079262,28.548615,0
          77.079018,28.548822,0
          77.078758,28.549038,0
          77.078484,28.549278,0
          77.077995,28.54969,0
          77.077629,28.549988,0
          77.077293,28.550278,0
          77.077019,28.550476,0
          77.076775,28.550583,0
          77.076523,28.550661,0
          77.076286,28.550755,0
          77.076118,28.550972,0
          77.076096,28.551186,0
          77.076202,28.551418,0
          77.076309,28.55164,0
          77.076378,28.551872,0
          77.076447,28.552094,0
          77.076538,28.552361,0
          77.076607,28.552608,0
          77.076698,28.552919,0
          77.076859,28.553432,0
          77.076996,28.553944,0
          77.07711,28.554314,0
          77.077187,28.554562,0
          77.077293,28.554911,0
          77.07737,28.555206,0
          77.077492,28.555609,0
          77.077599,28.555962,0
          77.07769,28.556259,0
          77.077888,28.556465,0
          77.07814,28.556488,0
          77.078384,28.556412,0
          77.078613,28.556339,0
          77.078865,28.556282,0
          77.079102,28.556225,0
          77.079323,28.556179,0
          77.079552,28.556179,0
          77.079758,28.556259,0
          77.079971,28.556408,0
          77.0802,28.556545,0
          77.080421,28.55666,0
          77.080627,28.556656,0
          77.080833,28.556435,0
          77.080956,28.556202,0
          77.081055,28.555984,0
          77.081184,28.555782,0
        </coordinates>
      </LineString>
    </Placemark>
  </Document>
</kml>